{
"type": "FeatureCollection",
"name": "municipalities",
"crs": { "type": "name", "properties": { "name": "urn:ogc:def:crs:EPSG::3301" } },
"xy_coordinate_resolution": 0.01,
"features": [
{ "type": "Feature", "properties": { "muni_id": "0624", "name": "Pärnu linn" }, "geometry": { "type": "MultiPolygon", "coordinates": [ [ [ [ 511647.59, 6448049.41 ], [ 511578.84, 6448019.52 ], [ 511654.33, 6448106.8 ], [ 511647.59, 6448049.41 ] ] ], [ [ [ 511823.69, 6448664.82 ], [ 511764.53, 6448315.67 ], [ 511672.67, 6448221.69 ], [ 511746.43, 6448391.66 ], [ 511594.38, 6448902.15 ], [ 511571.12, 6449030.02 ], [ 511593.5, 6449086.46 ], [ 511617.08, 6448894.77 ], [ 511823.69, 6448664.82 ] ] ], [ [ [ 507652.95, 6451513.93 ], [ 507482.36, 6451343.59 ], [ 507355.69, 6451331.1 ], [ 507588.97, 6451509.41 ], [ 507568.29, 6451756.02 ], [ 507652.95, 6451513.93 ] ] ], [ [ [ 507460.65, 6452226.84 ], [ 507439.32, 6452228.47 ], [ 507456.82, 6452232.86 ], [ 507460.65, 6452226.84 ] ] ], [ [ [ 506883.7, 6453025.66 ], [ 506857.93, 6453018.34 ], [ 506849.57, 6453044.92 ], [ 506883.7, 6453025.66 ] ] ], [ [ [ 506925.37, 6453063.97 ], [ 506951.52, 6453041.77 ], [ 506919.38, 6453051.42 ], [ 506925.37, 6453063.97 ] ] ], [ [ [ 508310.38, 6453574.71 ], [ 508310.87, 6453555.3 ], [ 508301.71, 6453579.4 ], [ 508310.38, 6453574.71 ] ] ], [ [ [ 506791.42, 6454187.45 ], [ 506774.95, 6454183.82 ], [ 506815.21, 6454205.97 ], [ 506791.42, 6454187.45 ] ] ], [ [ [ 506876.71, 6454597.48 ], [ 506858.76, 6454592.36 ], [ 506875.74, 6454601.64 ], [ 506876.71, 6454597.48 ] ] ], [ [ [ 508589.89, 6454872.27 ], [ 508569.58, 6454673.34 ], [ 508172.76, 6454220.79 ], [ 508244.11, 6453624.24 ], [ 508058.67, 6453712.62 ], [ 507948.04, 6453640.66 ], [ 507883.71, 6453436.28 ], [ 507904.49, 6453004.66 ], [ 507824.11, 6452977.46 ], [ 507691.29, 6452633.42 ], [ 507429.3, 6452385.0 ], [ 507414.88, 6452210.73 ], [ 507463.42, 6452167.28 ], [ 507326.89, 6451883.32 ], [ 507224.81, 6451811.77 ], [ 507128.25, 6451940.09 ], [ 506890.75, 6451737.7 ], [ 506177.67, 6451570.11 ], [ 505892.56, 6451354.61 ], [ 505925.5, 6451672.19 ], [ 506027.97, 6451752.28 ], [ 505953.44, 6451834.75 ], [ 506060.12, 6451919.76 ], [ 506062.71, 6452255.98 ], [ 506182.63, 6452443.42 ], [ 506302.29, 6452554.94 ], [ 506496.99, 6452234.2 ], [ 506896.76, 6452390.46 ], [ 506959.01, 6452553.31 ], [ 507028.39, 6452534.07 ], [ 506974.95, 6452614.43 ], [ 507061.33, 6452641.02 ], [ 507020.66, 6452727.32 ], [ 507101.65, 6452752.37 ], [ 506968.59, 6453002.63 ], [ 507048.38, 6453196.12 ], [ 507199.98, 6453237.15 ], [ 507196.17, 6453509.76 ], [ 507322.74, 6453484.84 ], [ 507291.28, 6453567.78 ], [ 507373.83, 6453427.57 ], [ 507498.3, 6453502.14 ], [ 507532.5, 6453399.9 ], [ 507671.27, 6453460.83 ], [ 507818.83, 6453663.24 ], [ 507803.22, 6453989.07 ], [ 507904.45, 6454215.54 ], [ 508048.27, 6454252.26 ], [ 508154.74, 6454385.29 ], [ 508189.6, 6454632.72 ], [ 508258.61, 6454592.94 ], [ 508589.89, 6454872.27 ] ] ], [ [ [ 507666.24, 6455556.7 ], [ 507781.31, 6455469.53 ], [ 507668.07, 6455378.11 ], [ 507478.37, 6455470.51 ], [ 507666.24, 6455556.7 ] ] ], [ [ [ 506197.07, 6455644.41 ], [ 506214.36, 6455617.82 ], [ 506182.21, 6455618.61 ], [ 506197.07, 6455644.41 ] ] ], [ [ [ 507975.24, 6455985.69 ], [ 507997.84, 6456006.79 ], [ 508004.19, 6455999.87 ], [ 507975.24, 6455985.69 ] ] ], [ [ [ 505560.36, 6456087.48 ], [ 505530.62, 6456075.46 ], [ 505541.62, 6456093.77 ], [ 505560.36, 6456087.48 ] ] ], [ [ [ 504730.88, 6456487.11 ], [ 504726.41, 6456475.17 ], [ 504717.23, 6456484.72 ], [ 504730.88, 6456487.11 ] ] ], [ [ [ 504675.09, 6456537.83 ], [ 504709.22, 6456536.84 ], [ 504694.36, 6456509.39 ], [ 504675.09, 6456537.83 ] ] ], [ [ [ 504747.07, 6456550.74 ], [ 504742.25, 6456534.83 ], [ 504738.07, 6456555.86 ], [ 504747.07, 6456550.74 ] ] ], [ [ [ 508634.14, 6456628.81 ], [ 508597.44, 6456635.59 ], [ 508637.72, 6456662.75 ], [ 508634.14, 6456628.81 ] ] ], [ [ [ 508942.22, 6456692.27 ], [ 508911.01, 6456681.78 ], [ 508919.43, 6456698.2 ], [ 508942.22, 6456692.27 ] ] ], [ [ [ 508789.33, 6456714.4 ], [ 508814.1, 6456712.11 ], [ 508804.18, 6456698.93 ], [ 508789.33, 6456714.4 ] ] ], [ [ [ 509007.02, 6456728.72 ], [ 508995.97, 6456714.81 ], [ 508994.88, 6456728.01 ], [ 509007.02, 6456728.72 ] ] ], [ [ [ 509042.24, 6457024.11 ], [ 509022.79, 6457029.68 ], [ 509040.02, 6457030.53 ], [ 509042.24, 6457024.11 ] ] ], [ [ [ 511569.04, 6457933.94 ], [ 511607.04, 6457912.78 ], [ 511568.08, 6457908.09 ], [ 511569.04, 6457933.94 ] ] ], [ [ [ 510106.99, 6458061.42 ], [ 510050.34, 6458057.13 ], [ 510064.79, 6458093.89 ], [ 510106.99, 6458061.42 ] ] ], [ [ [ 512760.84, 6458204.64 ], [ 512747.65, 6458189.22 ], [ 512757.14, 6458218.87 ], [ 512760.84, 6458204.64 ] ] ], [ [ [ 511947.87, 6458242.21 ], [ 511925.5, 6458220.47 ], [ 511946.3, 6458245.93 ], [ 511947.87, 6458242.21 ] ] ], [ [ [ 510089.76, 6458295.57 ], [ 510072.57, 6458286.93 ], [ 510071.23, 6458294.46 ], [ 510089.76, 6458295.57 ] ] ], [ [ [ 512702.0, 6458279.38 ], [ 512659.29, 6458279.38 ], [ 512697.16, 6458300.79 ], [ 512702.0, 6458279.38 ] ] ], [ [ [ 512000.91, 6458316.38 ], [ 511985.58, 6458306.34 ], [ 511994.47, 6458324.44 ], [ 512000.91, 6458316.38 ] ] ], [ [ [ 512730.76, 6458368.6 ], [ 512731.29, 6458328.19 ], [ 512718.35, 6458328.43 ], [ 512730.76, 6458368.6 ] ] ], [ [ [ 510438.09, 6458411.88 ], [ 510423.29, 6458405.53 ], [ 510425.95, 6458418.81 ], [ 510438.09, 6458411.88 ] ] ], [ [ [ 511798.68, 6458505.02 ], [ 511792.6, 6458465.27 ], [ 511758.28, 6458475.23 ], [ 511798.68, 6458505.02 ] ] ], [ [ [ 512191.71, 6458594.37 ], [ 512177.4, 6458587.58 ], [ 512178.77, 6458601.17 ], [ 512191.71, 6458594.37 ] ] ], [ [ [ 512193.75, 6458657.38 ], [ 512177.26, 6458651.75 ], [ 512179.59, 6458663.46 ], [ 512193.75, 6458657.38 ] ] ], [ [ [ 500958.96, 6459128.32 ], [ 500935.45, 6459102.17 ], [ 500980.76, 6459161.44 ], [ 500958.96, 6459128.32 ] ] ], [ [ [ 515813.78, 6459377.55 ], [ 515795.54, 6459372.48 ], [ 515813.65, 6459415.35 ], [ 515813.78, 6459377.55 ] ] ], [ [ [ 501076.08, 6459457.96 ], [ 501024.12, 6459213.17 ], [ 500841.02, 6459319.0 ], [ 501000.54, 6459311.77 ], [ 501076.08, 6459457.96 ] ] ], [ [ [ 500759.62, 6460162.14 ], [ 500753.56, 6460129.09 ], [ 500738.68, 6460140.13 ], [ 500759.62, 6460162.14 ] ] ], [ [ [ 500803.41, 6460160.13 ], [ 500845.79, 6460177.76 ], [ 500842.19, 6460161.54 ], [ 500803.41, 6460160.13 ] ] ], [ [ [ 500706.97, 6460120.79 ], [ 500671.33, 6460176.26 ], [ 500682.72, 6460271.58 ], [ 500707.67, 6460201.99 ], [ 500706.97, 6460120.79 ] ] ], [ [ [ 500729.33, 6460389.98 ], [ 500793.94, 6460370.58 ], [ 500767.6, 6460293.1 ], [ 500729.33, 6460389.98 ] ] ], [ [ [ 500246.49, 6460962.28 ], [ 500233.26, 6460936.58 ], [ 500236.56, 6460965.6 ], [ 500246.49, 6460962.28 ] ] ], [ [ [ 500056.52, 6460972.62 ], [ 500314.12, 6460887.78 ], [ 500306.43, 6460783.47 ], [ 500147.58, 6460837.85 ], [ 500144.32, 6460616.52 ], [ 500463.94, 6460508.33 ], [ 500409.9, 6460419.12 ], [ 500552.95, 6460194.23 ], [ 500420.03, 6459945.94 ], [ 500327.84, 6460162.65 ], [ 500189.1, 6460198.62 ], [ 500115.07, 6460375.94 ], [ 500181.87, 6460406.5 ], [ 500091.36, 6460549.29 ], [ 500056.52, 6460972.62 ] ] ], [ [ [ 500251.86, 6461191.9 ], [ 500243.66, 6461182.85 ], [ 500243.82, 6461198.25 ], [ 500251.86, 6461191.9 ] ] ], [ [ [ 500207.33, 6461342.29 ], [ 500182.88, 6461326.81 ], [ 500182.25, 6461351.65 ], [ 500207.33, 6461342.29 ] ] ], [ [ [ 500191.4, 6461405.54 ], [ 500159.73, 6461408.13 ], [ 500173.03, 6461416.61 ], [ 500191.4, 6461405.54 ] ] ], [ [ [ 516290.04, 6462108.15 ], [ 516279.67, 6462102.38 ], [ 516281.67, 6462119.35 ], [ 516290.04, 6462108.15 ] ] ], [ [ [ 516275.91, 6462175.17 ], [ 516302.92, 6462136.78 ], [ 516272.4, 6462171.89 ], [ 516275.91, 6462175.17 ] ] ], [ [ [ 500447.03, 6462198.23 ], [ 500497.36, 6461933.71 ], [ 500452.03, 6461979.18 ], [ 500447.03, 6462198.23 ] ] ], [ [ [ 501843.9, 6462365.71 ], [ 501842.71, 6462347.86 ], [ 501829.39, 6462362.02 ], [ 501843.9, 6462365.71 ] ] ], [ [ [ 501814.12, 6462377.42 ], [ 501806.8, 6462365.52 ], [ 501800.71, 6462375.97 ], [ 501814.12, 6462377.42 ] ] ], [ [ [ 501393.21, 6462416.26 ], [ 501397.28, 6462428.99 ], [ 501415.36, 6462415.69 ], [ 501393.21, 6462416.26 ] ] ], [ [ [ 498687.81, 6462869.89 ], [ 498651.86, 6462756.31 ], [ 498622.45, 6462755.65 ], [ 498687.81, 6462869.89 ] ] ], [ [ [ 500093.9, 6462967.62 ], [ 500052.59, 6462966.07 ], [ 500083.87, 6462985.04 ], [ 500093.9, 6462967.62 ] ] ], [ [ [ 498661.78, 6463110.55 ], [ 498631.89, 6463079.26 ], [ 498628.38, 6463119.48 ], [ 498661.78, 6463110.55 ] ] ], [ [ [ 500827.89, 6463196.71 ], [ 500777.29, 6463122.76 ], [ 500805.98, 6463257.08 ], [ 500827.89, 6463196.71 ] ] ], [ [ [ 498534.52, 6463353.89 ], [ 498551.24, 6463329.7 ], [ 498538.03, 6463327.48 ], [ 498534.52, 6463353.89 ] ] ], [ [ [ 498484.91, 6463408.1 ], [ 498467.52, 6463402.86 ], [ 498484.59, 6463410.96 ], [ 498484.91, 6463408.1 ] ] ], [ [ [ 498411.5, 6463561.63 ], [ 498395.54, 6463537.82 ], [ 498388.29, 6463561.44 ], [ 498411.5, 6463561.63 ] ] ], [ [ [ 498729.38, 6463558.83 ], [ 498708.72, 6463552.27 ], [ 498710.14, 6463568.41 ], [ 498729.38, 6463558.83 ] ] ], [ [ [ 499053.76, 6463576.07 ], [ 499079.45, 6463567.01 ], [ 499060.51, 6463559.86 ], [ 499053.76, 6463576.07 ] ] ], [ [ [ 498447.61, 6463567.9 ], [ 498432.11, 6463571.41 ], [ 498433.75, 6463584.32 ], [ 498447.61, 6463567.9 ] ] ], [ [ [ 498446.0, 6463609.12 ], [ 498433.1, 6463603.63 ], [ 498440.2, 6463614.57 ], [ 498446.0, 6463609.12 ] ] ], [ [ [ 498907.84, 6463586.6 ], [ 499027.23, 6463574.15 ], [ 498999.78, 6463543.69 ], [ 498907.84, 6463586.6 ] ] ], [ [ [ 498223.33, 6463795.98 ], [ 498228.18, 6463767.57 ], [ 498202.0, 6463775.73 ], [ 498223.33, 6463795.98 ] ] ], [ [ [ 493836.26, 6464130.27 ], [ 493912.63, 6464123.65 ], [ 493906.17, 6464096.2 ], [ 493836.26, 6464130.27 ] ] ], [ [ [ 497865.5, 6464270.7 ], [ 497883.5, 6464264.03 ], [ 497863.49, 6464262.13 ], [ 497865.5, 6464270.7 ] ] ], [ [ [ 496395.98, 6464614.35 ], [ 496386.24, 6464606.52 ], [ 496384.47, 6464618.0 ], [ 496395.98, 6464614.35 ] ] ], [ [ [ 496406.83, 6464625.0 ], [ 496406.43, 6464606.41 ], [ 496399.22, 6464620.11 ], [ 496406.83, 6464625.0 ] ] ], [ [ [ 497013.42, 6465090.81 ], [ 496985.47, 6465093.93 ], [ 496992.46, 6465106.16 ], [ 497013.42, 6465090.81 ] ] ], [ [ [ 532837.22, 6467249.96 ], [ 532926.23, 6467171.75 ], [ 532860.93, 6467171.01 ], [ 532837.22, 6467249.96 ] ] ], [ [ [ 532740.61, 6467647.03 ], [ 532722.15, 6467637.07 ], [ 532721.57, 6467643.95 ], [ 532740.61, 6467647.03 ] ] ], [ [ [ 532653.25, 6467661.69 ], [ 532626.86, 6467647.47 ], [ 532643.2, 6467673.6 ], [ 532653.25, 6467661.69 ] ] ], [ [ [ 532603.31, 6467730.88 ], [ 532591.76, 6467704.27 ], [ 532579.7, 6467759.19 ], [ 532603.31, 6467730.88 ] ] ], [ [ [ 532690.59, 6467638.45 ], [ 532639.69, 6467698.32 ], [ 532605.02, 6467771.76 ], [ 532659.41, 6467731.37 ], [ 532690.59, 6467638.45 ] ] ], [ [ [ 532494.6, 6467755.27 ], [ 532485.35, 6467709.65 ], [ 532457.59, 6467774.38 ], [ 532494.6, 6467755.27 ] ] ], [ [ [ 532573.15, 6467783.49 ], [ 532540.14, 6467790.08 ], [ 532540.65, 6467804.86 ], [ 532573.15, 6467783.49 ] ] ], [ [ [ 532382.26, 6468084.09 ], [ 532363.37, 6468073.3 ], [ 532335.75, 6468133.14 ], [ 532382.26, 6468084.09 ] ] ], [ [ [ 532181.73, 6468399.82 ], [ 532151.31, 6468390.61 ], [ 532157.05, 6468405.19 ], [ 532181.73, 6468399.82 ] ] ], [ [ [ 532142.25, 6468487.31 ], [ 532152.42, 6468436.51 ], [ 532121.7, 6468483.03 ], [ 532142.25, 6468487.31 ] ] ], [ [ [ 532000.8, 6468518.71 ], [ 532068.27, 6468522.21 ], [ 532067.01, 6468494.36 ], [ 532000.8, 6468518.71 ] ] ], [ [ [ 531999.79, 6468602.11 ], [ 531995.22, 6468577.24 ], [ 531992.49, 6468602.12 ], [ 531999.79, 6468602.11 ] ] ], [ [ [ 531980.9, 6468631.85 ], [ 531969.42, 6468614.6 ], [ 531960.32, 6468634.17 ], [ 531980.9, 6468631.85 ] ] ], [ [ [ 531807.06, 6468749.1 ], [ 531749.31, 6468789.97 ], [ 531755.53, 6468817.28 ], [ 531793.56, 6468798.04 ], [ 531807.06, 6468749.1 ] ] ], [ [ [ 531561.03, 6468980.9 ], [ 531626.09, 6468971.07 ], [ 531595.17, 6468928.91 ], [ 531561.03, 6468980.9 ] ] ], [ [ [ 533170.5, 6467199.88 ], [ 533055.89, 6467273.5 ], [ 533144.47, 6467335.94 ], [ 532910.01, 6467391.98 ], [ 532940.64, 6467309.54 ], [ 532856.81, 6467381.77 ], [ 532799.61, 6467274.44 ], [ 532696.87, 6467390.94 ], [ 532676.14, 6467473.8 ], [ 532821.42, 6467432.12 ], [ 532766.32, 6467638.58 ], [ 532662.2, 6467828.88 ], [ 532592.72, 6467792.41 ], [ 532405.88, 6468015.28 ], [ 532406.97, 6468115.47 ], [ 532505.56, 6468165.01 ], [ 532334.41, 6468183.83 ], [ 532307.49, 6468329.25 ], [ 532168.28, 6468278.54 ], [ 532275.29, 6468460.67 ], [ 532169.38, 6468616.09 ], [ 532133.04, 6468530.17 ], [ 531998.07, 6468681.85 ], [ 531900.47, 6468667.52 ], [ 531801.62, 6468854.07 ], [ 531733.65, 6468867.25 ], [ 531769.31, 6469013.65 ], [ 531627.93, 6469054.82 ], [ 531706.4, 6469066.56 ], [ 531645.0, 6469164.13 ], [ 531539.45, 6469005.17 ], [ 531464.36, 6469127.88 ], [ 531511.74, 6469239.06 ], [ 531354.58, 6469159.55 ], [ 530610.69, 6469721.48 ], [ 529140.43, 6470423.24 ], [ 528064.28, 6470791.87 ], [ 528021.86, 6470869.23 ], [ 527616.33, 6470185.77 ], [ 527166.96, 6469625.76 ], [ 527978.85, 6470807.36 ], [ 527747.4, 6470916.61 ], [ 527380.88, 6470311.44 ], [ 527010.61, 6469872.59 ], [ 527536.24, 6470580.46 ], [ 527007.42, 6471101.63 ], [ 527009.72, 6471209.05 ], [ 526932.29, 6471212.16 ], [ 526885.27, 6471345.79 ], [ 526701.16, 6471445.89 ], [ 526727.54, 6471365.64 ], [ 526661.93, 6471392.31 ], [ 526601.62, 6471302.92 ], [ 526567.16, 6471375.15 ], [ 526556.02, 6471316.14 ], [ 526278.51, 6471614.75 ], [ 526016.49, 6471612.11 ], [ 525674.37, 6471812.74 ], [ 524335.14, 6471963.73 ], [ 523211.07, 6471821.31 ], [ 521245.01, 6471811.21 ], [ 519607.72, 6471587.59 ], [ 518165.05, 6471193.83 ], [ 517751.79, 6470946.2 ], [ 517782.36, 6470843.46 ], [ 517419.7, 6470223.69 ], [ 517341.34, 6469967.14 ], [ 517383.52, 6469884.11 ], [ 517239.69, 6469780.69 ], [ 517217.85, 6469511.47 ], [ 517163.75, 6469522.27 ], [ 517127.02, 6469371.72 ], [ 517122.47, 6469029.95 ], [ 517184.22, 6468994.49 ], [ 517113.0, 6468900.55 ], [ 517191.16, 6468653.41 ], [ 517069.35, 6468363.01 ], [ 517101.16, 6468021.33 ], [ 517018.43, 6468012.29 ], [ 517120.06, 6467354.67 ], [ 516978.18, 6466971.81 ], [ 517017.43, 6466519.89 ], [ 516952.87, 6466518.2 ], [ 516915.96, 6466230.74 ], [ 517130.14, 6465451.48 ], [ 516983.27, 6465515.49 ], [ 517097.33, 6465321.58 ], [ 516988.69, 6464990.64 ], [ 517049.92, 6464947.45 ], [ 516904.56, 6464834.2 ], [ 516814.62, 6464487.39 ], [ 516706.58, 6464391.62 ], [ 516526.75, 6463677.81 ], [ 516485.06, 6463127.62 ], [ 516292.99, 6462555.44 ], [ 516357.22, 6462415.09 ], [ 516248.13, 6462255.27 ], [ 516258.27, 6462058.26 ], [ 516344.67, 6461946.14 ], [ 516049.86, 6461330.35 ], [ 515895.26, 6461249.42 ], [ 515694.57, 6460942.69 ], [ 515535.17, 6460506.99 ], [ 515687.2, 6460189.03 ], [ 515652.03, 6459940.2 ], [ 515813.72, 6459829.57 ], [ 515918.58, 6459703.68 ], [ 515858.47, 6459484.61 ], [ 515866.17, 6459726.31 ], [ 515660.86, 6459901.13 ], [ 515627.68, 6459847.8 ], [ 515685.65, 6459830.22 ], [ 515764.42, 6459694.1 ], [ 515677.23, 6459775.52 ], [ 515556.07, 6459514.91 ], [ 515181.79, 6459592.52 ], [ 514690.95, 6459257.92 ], [ 514418.43, 6459337.43 ], [ 513645.07, 6459193.81 ], [ 512868.32, 6458522.91 ], [ 512885.05, 6458743.28 ], [ 512715.26, 6459073.77 ], [ 512507.88, 6458834.37 ], [ 512235.64, 6458781.97 ], [ 511947.23, 6458266.64 ], [ 511912.03, 6458551.09 ], [ 511824.98, 6458535.3 ], [ 511762.87, 6458618.25 ], [ 511561.83, 6458506.53 ], [ 511557.62, 6458794.13 ], [ 511422.39, 6458611.9 ], [ 511409.0, 6458750.01 ], [ 511330.4, 6458789.25 ], [ 511405.67, 6458740.13 ], [ 511404.54, 6458614.92 ], [ 511393.13, 6458728.94 ], [ 511108.52, 6458590.11 ], [ 510941.09, 6458418.56 ], [ 510937.65, 6458291.89 ], [ 510697.8, 6458162.97 ], [ 510705.75, 6458291.96 ], [ 510484.84, 6458247.76 ], [ 510533.61, 6458382.53 ], [ 510392.37, 6458465.78 ], [ 510322.09, 6458890.82 ], [ 510151.67, 6458814.77 ], [ 510122.9, 6458877.14 ], [ 509872.26, 6458629.71 ], [ 509865.61, 6458344.05 ], [ 510036.36, 6458261.82 ], [ 509803.18, 6458150.16 ], [ 509761.91, 6457930.98 ], [ 509287.75, 6457830.56 ], [ 509298.25, 6457722.05 ], [ 509464.83, 6457629.9 ], [ 509480.67, 6457371.47 ], [ 509413.57, 6457262.63 ], [ 509310.5, 6457398.74 ], [ 509096.33, 6457257.88 ], [ 508727.78, 6456676.91 ], [ 508667.25, 6456815.02 ], [ 508560.87, 6456731.73 ], [ 508240.34, 6456752.45 ], [ 508056.82, 6456613.73 ], [ 508002.01, 6456132.71 ], [ 508128.85, 6455970.74 ], [ 507903.75, 6456143.47 ], [ 507872.79, 6456337.19 ], [ 507882.14, 6456146.37 ], [ 508089.77, 6455969.79 ], [ 507919.67, 6456088.82 ], [ 507590.87, 6456026.07 ], [ 507284.95, 6455638.53 ], [ 506827.42, 6455763.0 ], [ 507091.92, 6455654.24 ], [ 507032.96, 6455025.5 ], [ 507273.89, 6454805.98 ], [ 506955.88, 6454754.93 ], [ 507204.63, 6454671.39 ], [ 506926.62, 6454587.72 ], [ 506962.23, 6454124.67 ], [ 506744.39, 6454411.86 ], [ 506878.37, 6454438.13 ], [ 506896.31, 6454617.98 ], [ 506650.06, 6454689.81 ], [ 506915.63, 6454875.83 ], [ 506806.72, 6454965.35 ], [ 506857.24, 6454870.9 ], [ 506739.06, 6454856.12 ], [ 506744.79, 6454940.43 ], [ 506669.63, 6454798.04 ], [ 506705.97, 6455065.6 ], [ 506636.16, 6455086.43 ], [ 506615.55, 6455504.59 ], [ 506533.04, 6455509.25 ], [ 506508.97, 6455565.06 ], [ 506559.71, 6455581.1 ], [ 506368.89, 6455548.09 ], [ 505999.62, 6455885.16 ], [ 505682.31, 6455973.78 ], [ 505706.43, 6456055.07 ], [ 505616.26, 6456146.4 ], [ 505145.6, 6456236.12 ], [ 505430.8, 6456259.37 ], [ 505410.72, 6456361.0 ], [ 504859.45, 6456297.43 ], [ 504811.69, 6456397.28 ], [ 504931.15, 6456432.63 ], [ 504756.89, 6456478.72 ], [ 504885.58, 6456485.78 ], [ 504830.97, 6456574.15 ], [ 504898.92, 6456606.96 ], [ 504638.29, 6456531.08 ], [ 504596.52, 6456593.73 ], [ 504704.06, 6456635.71 ], [ 504659.42, 6456718.92 ], [ 504561.46, 6456661.81 ], [ 504527.71, 6456744.97 ], [ 504291.13, 6456795.71 ], [ 504310.81, 6456893.63 ], [ 504377.8, 6456867.77 ], [ 504284.0, 6457156.03 ], [ 504015.0, 6457466.33 ], [ 504005.63, 6457576.66 ], [ 503874.3, 6457654.39 ], [ 503881.6, 6457805.98 ], [ 503683.61, 6457966.36 ], [ 503724.17, 6458225.77 ], [ 503452.41, 6458846.63 ], [ 503416.83, 6459325.65 ], [ 503217.17, 6459455.59 ], [ 503127.04, 6459368.89 ], [ 503101.87, 6459603.01 ], [ 503011.37, 6459646.3 ], [ 503068.73, 6459760.4 ], [ 502895.69, 6459676.35 ], [ 503064.48, 6459839.84 ], [ 502989.49, 6459851.75 ], [ 503033.3, 6459914.93 ], [ 502951.7, 6460020.82 ], [ 502992.78, 6460222.87 ], [ 502893.3, 6460195.94 ], [ 502989.44, 6460245.76 ], [ 502793.31, 6460389.25 ], [ 502702.15, 6460383.31 ], [ 502700.09, 6460278.7 ], [ 502601.78, 6460288.26 ], [ 502586.4, 6460550.19 ], [ 502650.36, 6460622.44 ], [ 502547.93, 6460708.62 ], [ 502477.24, 6460668.8 ], [ 502455.49, 6460671.58 ], [ 502530.95, 6461155.18 ], [ 502406.33, 6461574.68 ], [ 502271.07, 6461691.76 ], [ 502234.88, 6462015.93 ], [ 501867.33, 6462424.22 ], [ 501734.39, 6462421.42 ], [ 501524.67, 6462275.14 ], [ 501539.34, 6462393.12 ], [ 501441.45, 6462386.04 ], [ 501355.21, 6462576.92 ], [ 501247.76, 6462586.73 ], [ 501371.21, 6462654.84 ], [ 501243.76, 6462613.99 ], [ 501295.49, 6462667.04 ], [ 501133.29, 6463058.45 ], [ 501223.49, 6463043.53 ], [ 501129.6, 6463080.87 ], [ 500877.93, 6463846.81 ], [ 500802.51, 6463834.48 ], [ 500794.96, 6464072.14 ], [ 500654.91, 6464218.05 ], [ 500663.27, 6464417.55 ], [ 500392.91, 6464313.9 ], [ 500161.27, 6464379.8 ], [ 500064.69, 6464532.28 ], [ 499888.57, 6464302.25 ], [ 499970.57, 6464044.93 ], [ 500122.99, 6463959.55 ], [ 499947.38, 6463953.31 ], [ 500047.8, 6463488.13 ], [ 499957.38, 6463362.22 ], [ 500036.75, 6462802.47 ], [ 500105.62, 6462728.3 ], [ 500216.39, 6462757.04 ], [ 500260.61, 6462538.51 ], [ 500224.76, 6462433.89 ], [ 500091.74, 6462422.55 ], [ 500054.6, 6462345.66 ], [ 500122.51, 6461716.34 ], [ 499957.77, 6461838.28 ], [ 499785.64, 6462366.89 ], [ 499679.02, 6462360.14 ], [ 499738.6, 6462401.89 ], [ 499706.79, 6462622.27 ], [ 499439.94, 6462959.77 ], [ 499393.21, 6463142.24 ], [ 499325.77, 6463134.41 ], [ 499383.11, 6463215.36 ], [ 499218.05, 6463164.33 ], [ 499308.54, 6463282.7 ], [ 499239.71, 6463352.14 ], [ 499173.22, 6463298.79 ], [ 499197.37, 6463483.66 ], [ 499098.34, 6463495.85 ], [ 499143.21, 6463561.28 ], [ 499064.87, 6463724.3 ], [ 498953.87, 6463726.44 ], [ 498922.59, 6463914.85 ], [ 498742.17, 6464029.57 ], [ 498699.89, 6463806.96 ], [ 498563.78, 6463751.16 ], [ 498551.43, 6463552.51 ], [ 498666.24, 6463569.48 ], [ 498645.75, 6463484.53 ], [ 498826.16, 6463461.05 ], [ 498905.15, 6463260.59 ], [ 498800.88, 6463080.4 ], [ 498851.97, 6462948.83 ], [ 498743.95, 6463011.27 ], [ 498682.36, 6462902.74 ], [ 498718.75, 6463192.06 ], [ 498513.91, 6463169.52 ], [ 498476.55, 6463226.89 ], [ 498626.26, 6463283.74 ], [ 498420.27, 6463500.34 ], [ 498466.55, 6463611.89 ], [ 498446.78, 6463851.61 ], [ 498324.37, 6463936.34 ], [ 498156.41, 6463779.25 ], [ 498099.1, 6463820.71 ], [ 498015.31, 6464146.33 ], [ 497863.55, 6464239.64 ], [ 497899.5, 6464265.11 ], [ 497847.19, 6464436.17 ], [ 497768.34, 6464464.42 ], [ 497679.55, 6464761.77 ], [ 497426.66, 6465040.99 ], [ 497069.74, 6465228.69 ], [ 496991.82, 6465121.9 ], [ 496935.87, 6465185.35 ], [ 496649.71, 6465108.18 ], [ 496463.74, 6464847.78 ], [ 496372.48, 6464609.08 ], [ 496387.4, 6464451.12 ], [ 496137.61, 6464782.51 ], [ 495552.69, 6465126.28 ], [ 495416.23, 6465289.16 ], [ 495281.69, 6465263.19 ], [ 495090.35, 6465527.95 ], [ 494997.12, 6465522.13 ], [ 495022.25, 6465588.88 ], [ 494834.08, 6465601.28 ], [ 494681.13, 6465185.21 ], [ 494736.22, 6464858.26 ], [ 494583.0, 6464344.3 ], [ 494642.53, 6464147.21 ], [ 494542.04, 6464143.71 ], [ 494569.43, 6463841.5 ], [ 494377.85, 6463783.81 ], [ 494290.31, 6463670.03 ], [ 494241.64, 6463792.45 ], [ 494289.91, 6463818.81 ], [ 494259.64, 6463765.46 ], [ 494298.96, 6463738.03 ], [ 494323.11, 6463799.7 ], [ 494222.17, 6463996.61 ], [ 494131.66, 6463997.18 ], [ 494072.97, 6464113.89 ], [ 493760.02, 6464179.13 ], [ 493433.55, 6464582.73 ], [ 493151.22, 6464681.71 ], [ 493068.27, 6464579.48 ], [ 492967.62, 6464595.04 ], [ 492713.37, 6464808.56 ], [ 492681.1, 6465051.46 ], [ 492411.76, 6465386.26 ], [ 492300.34, 6465677.34 ], [ 492140.16, 6465792.94 ], [ 492091.98, 6466286.86 ], [ 491811.39, 6466702.32 ], [ 491677.37, 6466778.97 ], [ 491723.77, 6466893.45 ], [ 491600.18, 6466850.03 ], [ 491700.82, 6466906.79 ], [ 491509.61, 6467113.59 ], [ 491548.85, 6467344.25 ], [ 491421.53, 6467462.43 ], [ 492212.01, 6467702.71 ], [ 492266.39, 6467839.12 ], [ 492483.4, 6467807.79 ], [ 492502.43, 6467891.13 ], [ 493075.86, 6468148.99 ], [ 493046.56, 6468317.51 ], [ 493893.31, 6469019.06 ], [ 493572.03, 6469544.13 ], [ 492558.79, 6470632.0 ], [ 492657.48, 6470720.32 ], [ 492611.06, 6470883.06 ], [ 493015.18, 6471110.46 ], [ 493163.16, 6470857.62 ], [ 493408.52, 6470985.66 ], [ 493013.59, 6471564.28 ], [ 493223.22, 6472321.28 ], [ 493382.43, 6472288.42 ], [ 493482.63, 6472985.25 ], [ 492756.09, 6473110.46 ], [ 492791.24, 6473361.03 ], [ 492705.22, 6473382.8 ], [ 492927.26, 6474229.87 ], [ 493521.05, 6474089.82 ], [ 493653.89, 6474224.25 ], [ 493730.19, 6474482.2 ], [ 494086.46, 6474380.64 ], [ 494136.77, 6474584.69 ], [ 495857.58, 6474965.4 ], [ 496024.24, 6474229.06 ], [ 496440.98, 6474315.18 ], [ 496600.86, 6473562.54 ], [ 497767.75, 6473788.82 ], [ 498569.27, 6475844.95 ], [ 498698.05, 6475886.86 ], [ 498688.56, 6476006.89 ], [ 498790.39, 6476090.93 ], [ 498878.15, 6476048.84 ], [ 498806.73, 6475997.69 ], [ 498871.27, 6475952.11 ], [ 499015.31, 6476042.22 ], [ 498926.47, 6476327.39 ], [ 499095.11, 6476601.46 ], [ 498913.89, 6476885.7 ], [ 498513.21, 6477192.02 ], [ 498595.79, 6477494.72 ], [ 498459.54, 6478017.19 ], [ 498464.95, 6478529.4 ], [ 498256.41, 6479132.49 ], [ 497940.65, 6479690.37 ], [ 497905.97, 6480507.63 ], [ 497644.98, 6480749.31 ], [ 497315.01, 6481691.32 ], [ 497486.3, 6482494.2 ], [ 497852.37, 6482878.07 ], [ 497620.96, 6483564.77 ], [ 497231.12, 6484071.96 ], [ 497191.7, 6484255.09 ], [ 497685.26, 6484500.12 ], [ 497733.09, 6484618.62 ], [ 497986.0, 6484684.7 ], [ 498183.76, 6484930.26 ], [ 498411.3, 6484987.9 ], [ 498585.08, 6484871.85 ], [ 498861.34, 6484829.16 ], [ 499700.46, 6484022.16 ], [ 499911.6, 6484019.76 ], [ 500074.6, 6484280.87 ], [ 500605.58, 6486493.78 ], [ 501136.52, 6487095.1 ], [ 501412.49, 6487202.65 ], [ 502350.68, 6487026.98 ], [ 503463.35, 6487174.81 ], [ 504112.63, 6486858.8 ], [ 504857.87, 6485743.31 ], [ 505550.8, 6485376.0 ], [ 505916.05, 6485092.4 ], [ 506096.61, 6485330.39 ], [ 506664.76, 6485594.14 ], [ 506798.14, 6485351.91 ], [ 507384.71, 6485119.76 ], [ 507756.13, 6485194.8 ], [ 508945.6, 6484684.9 ], [ 510083.81, 6484556.34 ], [ 510642.84, 6483985.31 ], [ 511156.23, 6483726.59 ], [ 511290.89, 6484006.66 ], [ 511534.57, 6484137.92 ], [ 511994.0, 6484166.49 ], [ 512097.88, 6483698.93 ], [ 512038.16, 6483313.47 ], [ 512159.14, 6482763.78 ], [ 512135.61, 6482348.95 ], [ 512338.88, 6482285.8 ], [ 512491.64, 6481957.62 ], [ 512900.51, 6481582.85 ], [ 513640.05, 6481891.23 ], [ 513665.21, 6481438.67 ], [ 514446.74, 6481574.52 ], [ 514699.67, 6481938.77 ], [ 514540.97, 6482242.68 ], [ 514828.65, 6482374.53 ], [ 514791.98, 6482456.6 ], [ 515882.19, 6482714.77 ], [ 517459.81, 6482764.82 ], [ 517833.22, 6483367.8 ], [ 518042.69, 6484325.8 ], [ 518822.29, 6484512.41 ], [ 518781.72, 6485042.48 ], [ 518846.58, 6485410.13 ], [ 519941.21, 6485394.94 ], [ 520063.64, 6485452.27 ], [ 520178.09, 6486073.25 ], [ 519932.13, 6486504.24 ], [ 520304.79, 6486906.2 ], [ 520560.22, 6486704.43 ], [ 520967.97, 6486148.31 ], [ 520951.99, 6486249.78 ], [ 521313.51, 6486331.85 ], [ 522688.22, 6486458.54 ], [ 522706.82, 6486242.88 ], [ 523575.95, 6486333.7 ], [ 523554.61, 6485921.24 ], [ 523859.99, 6485979.78 ], [ 524772.96, 6485849.01 ], [ 525170.84, 6482608.93 ], [ 524206.81, 6482430.01 ], [ 524193.72, 6482240.72 ], [ 523999.85, 6482011.98 ], [ 524429.58, 6480738.29 ], [ 524626.93, 6481060.9 ], [ 525358.7, 6478673.49 ], [ 526093.64, 6478295.7 ], [ 526210.27, 6477177.02 ], [ 525766.69, 6477035.1 ], [ 525617.08, 6476755.21 ], [ 525660.12, 6476572.8 ], [ 525751.82, 6476561.51 ], [ 525799.68, 6476447.05 ], [ 525765.52, 6476039.24 ], [ 525976.43, 6475571.9 ], [ 525876.29, 6475123.54 ], [ 525921.88, 6474764.49 ], [ 526568.96, 6474262.26 ], [ 526846.35, 6473774.4 ], [ 526975.62, 6473734.42 ], [ 527086.28, 6473951.71 ], [ 527464.93, 6473741.12 ], [ 527712.53, 6473767.88 ], [ 528495.05, 6475215.12 ], [ 528862.22, 6474998.21 ], [ 529034.86, 6474997.66 ], [ 529029.97, 6474921.92 ], [ 529186.3, 6474833.41 ], [ 529536.7, 6474993.17 ], [ 530114.98, 6474342.35 ], [ 532048.67, 6474617.21 ], [ 532133.03, 6473550.7 ], [ 532375.5, 6473356.75 ], [ 532465.24, 6473149.09 ], [ 532982.65, 6473277.34 ], [ 533245.85, 6473159.69 ], [ 533247.46, 6472899.25 ], [ 533638.38, 6472861.39 ], [ 534794.93, 6473074.54 ], [ 534824.32, 6472816.34 ], [ 533813.21, 6472677.65 ], [ 533198.01, 6471921.47 ], [ 533667.1, 6471514.76 ], [ 533681.09, 6471334.73 ], [ 534049.08, 6470996.77 ], [ 533489.74, 6470585.46 ], [ 533334.14, 6470219.86 ], [ 532862.46, 6470024.05 ], [ 532996.71, 6469594.25 ], [ 533382.71, 6469358.34 ], [ 533860.72, 6469337.96 ], [ 534224.8, 6469484.3 ], [ 535023.73, 6470298.9 ], [ 535707.27, 6471234.43 ], [ 535986.0, 6471355.0 ], [ 536381.37, 6471855.35 ], [ 536949.38, 6471353.34 ], [ 537342.47, 6471823.08 ], [ 537621.53, 6472592.13 ], [ 537772.03, 6472736.95 ], [ 537915.62, 6472813.56 ], [ 538958.89, 6472788.39 ], [ 539447.37, 6473131.38 ], [ 539250.43, 6473373.95 ], [ 539150.59, 6473967.35 ], [ 539213.82, 6474133.6 ], [ 539130.47, 6474280.42 ], [ 539536.26, 6474609.18 ], [ 539512.43, 6474665.36 ], [ 539758.12, 6474589.21 ], [ 539991.35, 6474262.53 ], [ 540144.94, 6474178.78 ], [ 540545.53, 6474352.52 ], [ 540862.44, 6473901.67 ], [ 541565.93, 6473567.78 ], [ 541815.78, 6473732.91 ], [ 541862.66, 6473952.74 ], [ 541719.13, 6474157.11 ], [ 542077.56, 6474457.02 ], [ 542079.87, 6474545.83 ], [ 542652.27, 6474623.88 ], [ 542789.59, 6475052.27 ], [ 543248.61, 6475672.11 ], [ 544351.93, 6476238.88 ], [ 544576.88, 6476271.05 ], [ 544678.05, 6473676.66 ], [ 548247.28, 6473868.52 ], [ 548378.63, 6473387.24 ], [ 548481.46, 6473253.92 ], [ 548562.46, 6473298.29 ], [ 548890.94, 6472836.85 ], [ 549080.77, 6472834.82 ], [ 549146.07, 6473097.65 ], [ 549366.44, 6473141.77 ], [ 549773.83, 6473965.52 ], [ 553235.83, 6474153.14 ], [ 553211.64, 6474743.14 ], [ 557648.25, 6474988.82 ], [ 557740.37, 6473529.63 ], [ 556917.82, 6467365.28 ], [ 557198.85, 6466180.61 ], [ 550306.94, 6468589.65 ], [ 547718.89, 6467785.89 ], [ 547184.38, 6467471.73 ], [ 547067.5, 6467582.91 ], [ 545602.53, 6468097.76 ], [ 545576.88, 6467996.2 ], [ 544384.92, 6467500.19 ], [ 544461.22, 6466855.28 ], [ 544189.42, 6466749.86 ], [ 544173.69, 6466483.03 ], [ 544384.91, 6466464.42 ], [ 544341.17, 6465979.81 ], [ 544050.67, 6466089.86 ], [ 543953.08, 6466294.21 ], [ 543787.81, 6466315.13 ], [ 543331.85, 6466125.95 ], [ 543438.25, 6466097.48 ], [ 542393.16, 6465999.78 ], [ 542363.06, 6466163.82 ], [ 542465.77, 6466306.8 ], [ 542272.62, 6466397.05 ], [ 542052.28, 6466135.8 ], [ 541530.95, 6466092.28 ], [ 541512.37, 6466203.76 ], [ 541288.09, 6466224.57 ], [ 541139.78, 6466078.65 ], [ 540895.06, 6466057.07 ], [ 540875.09, 6465938.3 ], [ 540677.44, 6465955.39 ], [ 540679.86, 6465615.54 ], [ 540467.57, 6465673.17 ], [ 540325.18, 6465423.04 ], [ 540212.74, 6465167.23 ], [ 540312.72, 6465148.5 ], [ 540277.71, 6465058.22 ], [ 540676.89, 6464780.98 ], [ 541019.28, 6464819.93 ], [ 540986.88, 6464352.0 ], [ 541139.91, 6464004.32 ], [ 541363.92, 6463744.62 ], [ 541426.64, 6463460.65 ], [ 541730.86, 6463377.69 ], [ 541703.79, 6463192.23 ], [ 541902.73, 6463162.31 ], [ 541803.59, 6462572.94 ], [ 542082.23, 6461686.96 ], [ 541697.62, 6461740.84 ], [ 541530.7, 6462222.17 ], [ 540911.78, 6462315.69 ], [ 540765.53, 6462321.15 ], [ 540657.05, 6462024.09 ], [ 540464.34, 6461975.83 ], [ 540256.67, 6462216.08 ], [ 539822.88, 6461938.8 ], [ 539616.42, 6461993.14 ], [ 539367.86, 6461734.18 ], [ 539163.24, 6461995.37 ], [ 539086.09, 6461806.99 ], [ 539195.84, 6461667.59 ], [ 539209.39, 6461350.25 ], [ 538974.3, 6461287.26 ], [ 538817.52, 6461608.44 ], [ 538479.45, 6461450.2 ], [ 538392.6, 6461496.82 ], [ 538118.72, 6461381.57 ], [ 537936.7, 6461406.47 ], [ 537691.81, 6461049.04 ], [ 537708.46, 6460945.32 ], [ 537606.76, 6460914.26 ], [ 537642.11, 6460803.53 ], [ 537496.23, 6460792.82 ], [ 537547.34, 6460678.83 ], [ 537495.39, 6460587.12 ], [ 537430.53, 6460635.36 ], [ 537388.18, 6460539.29 ], [ 537192.9, 6460563.86 ], [ 537017.88, 6460474.75 ], [ 536657.88, 6460818.4 ], [ 536493.68, 6461143.96 ], [ 536264.93, 6461303.19 ], [ 536066.66, 6461719.82 ], [ 535776.59, 6461806.59 ], [ 535707.48, 6461929.72 ], [ 536016.16, 6462254.24 ], [ 536145.85, 6462752.19 ], [ 536039.48, 6463060.94 ], [ 536022.68, 6463482.53 ], [ 535676.16, 6463784.73 ], [ 536059.81, 6464471.56 ], [ 536073.43, 6464747.0 ], [ 535908.22, 6465393.71 ], [ 535890.2, 6466085.69 ], [ 535807.24, 6466334.62 ], [ 536219.38, 6467363.31 ], [ 536133.81, 6468203.34 ], [ 535825.91, 6468411.37 ], [ 535569.27, 6468860.21 ], [ 535382.19, 6468992.6 ], [ 534990.19, 6468732.77 ], [ 533817.4, 6468749.91 ], [ 533657.12, 6468621.59 ], [ 534361.58, 6467243.19 ], [ 533823.31, 6466928.39 ], [ 533503.54, 6467398.36 ], [ 533170.5, 6467199.88 ] ] ] ] } },
{ "type": "Feature", "properties": { "muni_id": "0638", "name": "Põhja-Pärnumaa vald" }, "geometry": { "type": "Polygon", "coordinates": [ [ [ 515015.5, 6499206.6 ], [ 515312.5, 6499304.17 ], [ 515123.34, 6499846.29 ], [ 515133.45, 6500515.86 ], [ 515529.12, 6500639.64 ], [ 516940.89, 6499512.81 ], [ 517181.42, 6499806.8 ], [ 517746.3, 6501297.3 ], [ 517108.8, 6501368.8 ], [ 516710.4, 6501631.6 ], [ 516360.6, 6501641.7 ], [ 516566.29, 6503583.56 ], [ 520409.69, 6502743.89 ], [ 520528.16, 6502704.37 ], [ 520707.15, 6502423.47 ], [ 521691.87, 6502300.02 ], [ 521872.6, 6502176.23 ], [ 521914.46, 6501906.32 ], [ 522319.45, 6501811.12 ], [ 522455.26, 6502593.36 ], [ 522915.97, 6502720.55 ], [ 524030.93, 6503680.67 ], [ 524565.03, 6503735.2 ], [ 524540.15, 6504051.99 ], [ 524665.26, 6504063.85 ], [ 524835.17, 6504216.79 ], [ 526066.04, 6504474.46 ], [ 526246.29, 6504693.21 ], [ 526493.15, 6504584.05 ], [ 526608.05, 6504842.18 ], [ 527408.03, 6505710.42 ], [ 527099.1, 6505857.9 ], [ 527436.34, 6506257.23 ], [ 527801.07, 6507573.42 ], [ 527747.0, 6508198.39 ], [ 528136.89, 6508797.73 ], [ 530215.74, 6509851.43 ], [ 530678.0, 6510802.2 ], [ 531182.3, 6511151.4 ], [ 531565.9, 6511240.67 ], [ 532068.45, 6510980.94 ], [ 532620.93, 6510364.11 ], [ 532929.88, 6510214.77 ], [ 533649.8, 6509259.16 ], [ 533294.88, 6508757.03 ], [ 532783.07, 6508441.06 ], [ 532578.47, 6508130.54 ], [ 532576.29, 6507956.68 ], [ 532833.04, 6507951.19 ], [ 532894.52, 6507338.27 ], [ 533015.8, 6507427.4 ], [ 534440.92, 6507556.25 ], [ 534762.72, 6507707.85 ], [ 535034.14, 6508052.66 ], [ 535390.8, 6508270.29 ], [ 536672.2, 6508722.07 ], [ 536777.01, 6508996.37 ], [ 538122.41, 6509635.06 ], [ 538396.88, 6509897.75 ], [ 539282.57, 6512112.53 ], [ 539593.01, 6512442.1 ], [ 539816.71, 6512535.28 ], [ 539958.27, 6512527.09 ], [ 539953.37, 6512410.5 ], [ 540314.23, 6512213.85 ], [ 540277.26, 6512083.88 ], [ 540445.12, 6512082.28 ], [ 540589.9, 6511946.51 ], [ 540633.31, 6512004.74 ], [ 540914.25, 6511964.98 ], [ 540999.39, 6511866.76 ], [ 541228.39, 6511825.35 ], [ 541629.14, 6511988.0 ], [ 541882.67, 6512263.79 ], [ 542142.34, 6512197.75 ], [ 542450.36, 6511663.12 ], [ 542858.39, 6511382.07 ], [ 543039.86, 6511486.92 ], [ 543365.03, 6511386.43 ], [ 543500.5, 6511195.62 ], [ 543691.03, 6511169.28 ], [ 543998.34, 6510933.52 ], [ 544254.23, 6510867.87 ], [ 544594.26, 6510577.72 ], [ 546022.03, 6511133.19 ], [ 546306.79, 6510955.46 ], [ 546256.56, 6510595.43 ], [ 546438.49, 6510522.59 ], [ 546665.77, 6510666.76 ], [ 547040.33, 6510716.26 ], [ 547173.03, 6510813.19 ], [ 547196.13, 6510730.27 ], [ 547272.3, 6510763.44 ], [ 547458.01, 6510900.42 ], [ 547407.45, 6511045.79 ], [ 547708.74, 6511607.56 ], [ 548236.12, 6511805.45 ], [ 548179.61, 6511886.64 ], [ 548283.89, 6512259.94 ], [ 548843.52, 6512511.94 ], [ 548974.87, 6512719.59 ], [ 549672.81, 6513082.58 ], [ 549917.22, 6513371.38 ], [ 550735.39, 6512686.34 ], [ 551192.85, 6512573.44 ], [ 551098.65, 6512180.84 ], [ 552227.55, 6511886.67 ], [ 553241.01, 6510745.55 ], [ 553141.73, 6510001.05 ], [ 552916.63, 6509500.13 ], [ 552586.33, 6507260.19 ], [ 552741.65, 6505553.19 ], [ 552960.86, 6505093.1 ], [ 553102.41, 6505071.95 ], [ 552911.7, 6504598.08 ], [ 553223.3, 6504562.65 ], [ 553222.87, 6503794.74 ], [ 553635.46, 6503234.84 ], [ 553531.58, 6502995.28 ], [ 553565.29, 6502863.45 ], [ 554043.82, 6502762.27 ], [ 554411.9, 6503144.04 ], [ 554897.74, 6503057.56 ], [ 555333.89, 6505238.22 ], [ 555889.07, 6505438.22 ], [ 556031.41, 6506445.96 ], [ 556298.59, 6507032.32 ], [ 556996.11, 6507139.21 ], [ 557025.97, 6507274.79 ], [ 557408.67, 6507717.25 ], [ 557428.39, 6508234.65 ], [ 557968.59, 6508215.14 ], [ 557964.55, 6508151.62 ], [ 558258.75, 6508081.97 ], [ 558563.27, 6508631.35 ], [ 558740.85, 6508780.43 ], [ 559163.99, 6508883.76 ], [ 559296.33, 6508833.23 ], [ 559345.95, 6508714.29 ], [ 559205.68, 6508406.76 ], [ 559258.41, 6508275.43 ], [ 559737.63, 6508052.03 ], [ 559852.12, 6508070.95 ], [ 559781.5, 6508021.63 ], [ 559840.76, 6507964.04 ], [ 560094.04, 6508222.69 ], [ 560265.0, 6508146.69 ], [ 560551.2, 6508353.38 ], [ 560853.92, 6508405.56 ], [ 560886.69, 6508640.51 ], [ 561025.04, 6508810.19 ], [ 560968.48, 6508945.87 ], [ 561142.6, 6508918.4 ], [ 561037.42, 6509115.84 ], [ 561090.21, 6509304.0 ], [ 561194.18, 6509342.34 ], [ 561159.38, 6509470.64 ], [ 561571.71, 6509612.93 ], [ 561530.87, 6509768.59 ], [ 561950.28, 6510019.64 ], [ 561658.29, 6510207.06 ], [ 561650.48, 6510453.94 ], [ 562405.97, 6510308.54 ], [ 562478.96, 6509973.3 ], [ 563767.27, 6509902.35 ], [ 563836.3, 6509987.2 ], [ 563937.87, 6509917.06 ], [ 564190.24, 6509983.61 ], [ 564187.99, 6509856.72 ], [ 565404.09, 6509780.96 ], [ 567040.59, 6509380.5 ], [ 567540.24, 6509893.77 ], [ 568124.57, 6509958.45 ], [ 569265.26, 6510288.55 ], [ 569768.41, 6509946.82 ], [ 572338.76, 6509829.07 ], [ 572435.41, 6509896.21 ], [ 572472.23, 6509649.46 ], [ 572639.83, 6509690.57 ], [ 572716.62, 6509620.3 ], [ 572750.09, 6509778.19 ], [ 573051.04, 6509615.42 ], [ 573317.69, 6509268.39 ], [ 573312.44, 6509023.92 ], [ 573475.57, 6509181.77 ], [ 573695.85, 6509076.2 ], [ 573839.05, 6509279.09 ], [ 575717.12, 6508232.27 ], [ 575767.84, 6508127.32 ], [ 575661.87, 6507978.15 ], [ 575683.35, 6507806.07 ], [ 575591.86, 6507737.73 ], [ 575617.66, 6507464.62 ], [ 575453.46, 6507353.49 ], [ 575536.02, 6507243.25 ], [ 575439.67, 6507196.91 ], [ 573102.71, 6499894.83 ], [ 572457.83, 6499378.5 ], [ 571045.54, 6498815.0 ], [ 570544.06, 6498311.94 ], [ 570787.64, 6498134.92 ], [ 570464.83, 6497174.12 ], [ 570464.64, 6496986.98 ], [ 570780.8, 6496856.45 ], [ 570894.3, 6497323.0 ], [ 571196.71, 6497327.71 ], [ 571448.44, 6495636.1 ], [ 571338.09, 6495246.63 ], [ 571617.34, 6494969.2 ], [ 571784.81, 6494428.2 ], [ 571594.92, 6493785.76 ], [ 572498.97, 6493421.3 ], [ 572523.21, 6493194.25 ], [ 572307.08, 6492952.18 ], [ 570389.14, 6492853.51 ], [ 569481.31, 6492635.95 ], [ 569438.35, 6492694.53 ], [ 569010.67, 6492343.29 ], [ 568814.3, 6492002.94 ], [ 569281.32, 6491679.1 ], [ 569211.42, 6491509.21 ], [ 568704.22, 6491065.94 ], [ 568385.91, 6491007.95 ], [ 568353.92, 6490413.2 ], [ 568470.78, 6490386.11 ], [ 568397.63, 6490078.73 ], [ 568446.27, 6490006.75 ], [ 568400.21, 6489880.92 ], [ 568266.04, 6489913.64 ], [ 568096.88, 6489574.41 ], [ 568533.22, 6489589.17 ], [ 568461.42, 6489026.01 ], [ 568028.12, 6489028.41 ], [ 567611.86, 6488534.84 ], [ 567562.21, 6488330.18 ], [ 567352.23, 6488305.92 ], [ 567363.12, 6489112.68 ], [ 567177.03, 6489113.55 ], [ 566680.21, 6488762.12 ], [ 566601.32, 6488876.31 ], [ 566200.34, 6488500.18 ], [ 565915.27, 6487694.96 ], [ 565813.17, 6487802.99 ], [ 565420.16, 6487242.08 ], [ 565230.62, 6487505.05 ], [ 565146.48, 6487288.72 ], [ 563975.08, 6486683.26 ], [ 564259.93, 6489375.4 ], [ 563694.59, 6488956.0 ], [ 563740.05, 6489672.83 ], [ 563189.15, 6490043.14 ], [ 563036.23, 6489971.48 ], [ 562896.84, 6490179.98 ], [ 563264.69, 6490549.3 ], [ 563637.87, 6490673.49 ], [ 563294.54, 6491302.4 ], [ 561763.78, 6490458.38 ], [ 560270.03, 6489366.19 ], [ 559709.66, 6489089.44 ], [ 559554.6, 6489293.94 ], [ 558676.02, 6488637.19 ], [ 558516.82, 6488426.3 ], [ 558440.67, 6488463.21 ], [ 558082.88, 6488301.88 ], [ 557950.85, 6488899.49 ], [ 557307.49, 6488799.24 ], [ 557275.08, 6488905.19 ], [ 556818.46, 6488846.13 ], [ 555982.25, 6488885.32 ], [ 555061.5, 6489377.0 ], [ 555000.0, 6489512.83 ], [ 554772.83, 6489602.83 ], [ 554497.11, 6489516.97 ], [ 554487.41, 6489661.83 ], [ 554296.52, 6489742.8 ], [ 554137.78, 6489588.0 ], [ 553459.37, 6489402.57 ], [ 553461.93, 6489492.03 ], [ 553380.02, 6489494.78 ], [ 553389.08, 6489932.48 ], [ 553666.82, 6490062.94 ], [ 553628.68, 6490187.01 ], [ 553348.16, 6490248.08 ], [ 552943.22, 6490212.57 ], [ 552633.67, 6491001.92 ], [ 552700.38, 6491234.21 ], [ 552584.16, 6491673.47 ], [ 552306.46, 6492201.12 ], [ 552103.69, 6492304.08 ], [ 551603.13, 6492286.15 ], [ 551234.72, 6492633.63 ], [ 551097.41, 6492770.53 ], [ 551251.46, 6492966.64 ], [ 551114.8, 6493045.21 ], [ 551156.26, 6493144.15 ], [ 550844.54, 6493638.74 ], [ 550511.19, 6493051.19 ], [ 550159.54, 6491857.89 ], [ 549902.94, 6491834.88 ], [ 549717.11, 6491644.96 ], [ 548165.08, 6489733.29 ], [ 547642.35, 6489643.84 ], [ 547559.81, 6489083.8 ], [ 547489.85, 6489081.6 ], [ 547258.04, 6489292.84 ], [ 547259.66, 6490770.35 ], [ 547649.94, 6490882.93 ], [ 547616.35, 6491147.49 ], [ 547748.14, 6491223.33 ], [ 547782.41, 6491627.67 ], [ 547573.65, 6491628.28 ], [ 547526.18, 6491430.94 ], [ 547242.38, 6491241.27 ], [ 547212.85, 6492130.01 ], [ 546617.3, 6492105.98 ], [ 546593.05, 6492709.98 ], [ 545878.28, 6492692.46 ], [ 545879.31, 6492589.45 ], [ 544927.22, 6492314.98 ], [ 544382.82, 6492447.83 ], [ 544051.05, 6492402.74 ], [ 544001.59, 6492268.53 ], [ 543466.14, 6492064.6 ], [ 543358.36, 6492115.1 ], [ 542530.53, 6491879.89 ], [ 541997.36, 6492451.89 ], [ 542160.43, 6492840.61 ], [ 541999.5, 6493065.3 ], [ 542129.0, 6493178.8 ], [ 541612.3, 6493796.3 ], [ 541236.1, 6493472.6 ], [ 539498.15, 6495625.29 ], [ 538782.61, 6496390.57 ], [ 537374.13, 6495694.16 ], [ 537571.93, 6495268.55 ], [ 534511.55, 6494312.01 ], [ 533809.41, 6494387.0 ], [ 533113.39, 6494119.82 ], [ 533095.2, 6493721.36 ], [ 532421.55, 6493018.86 ], [ 531999.59, 6492969.17 ], [ 531980.36, 6492614.4 ], [ 532082.02, 6492032.23 ], [ 531686.42, 6490002.86 ], [ 531310.4, 6489868.79 ], [ 530849.44, 6489893.87 ], [ 530204.3, 6489416.06 ], [ 530279.71, 6489219.47 ], [ 530041.68, 6488988.73 ], [ 529745.37, 6488217.34 ], [ 529642.18, 6488154.96 ], [ 529637.93, 6487981.47 ], [ 529499.6, 6487817.19 ], [ 529554.02, 6487616.66 ], [ 529464.21, 6487568.91 ], [ 529537.18, 6487394.4 ], [ 529474.67, 6487160.52 ], [ 529535.39, 6487002.74 ], [ 529041.96, 6486466.36 ], [ 529006.23, 6486137.81 ], [ 528808.09, 6486038.77 ], [ 527485.25, 6486048.74 ], [ 524772.96, 6485849.01 ], [ 523859.99, 6485979.78 ], [ 523554.61, 6485921.24 ], [ 523575.95, 6486333.7 ], [ 522706.82, 6486242.88 ], [ 522688.22, 6486458.54 ], [ 521313.51, 6486331.85 ], [ 520951.99, 6486249.78 ], [ 520967.97, 6486148.31 ], [ 520560.22, 6486704.43 ], [ 520304.79, 6486906.2 ], [ 520405.85, 6487336.82 ], [ 520170.64, 6488213.46 ], [ 519012.1, 6489527.98 ], [ 518924.88, 6490930.7 ], [ 518308.42, 6493732.28 ], [ 517885.69, 6495223.53 ], [ 515816.5, 6496215.59 ], [ 515695.66, 6496517.98 ], [ 515706.33, 6496950.31 ], [ 515873.36, 6497860.07 ], [ 515440.21, 6498106.04 ], [ 515015.5, 6499206.6 ] ] ] } },
{ "type": "Feature", "properties": { "muni_id": "0712", "name": "Saarde vald" }, "geometry": { "type": "MultiPolygon", "coordinates": [ [ [ [ 534470.04, 6447984.77 ], [ 534898.36, 6448719.26 ], [ 535206.97, 6449543.18 ], [ 535291.93, 6451126.29 ], [ 535447.1, 6451144.14 ], [ 535519.83, 6451268.25 ], [ 535236.46, 6453071.96 ], [ 534616.49, 6452979.51 ], [ 534745.5, 6453310.2 ], [ 534664.24, 6454174.24 ], [ 534759.23, 6454861.89 ], [ 535440.58, 6454966.12 ], [ 535349.8, 6455607.04 ], [ 535848.7, 6455516.7 ], [ 535824.59, 6455677.39 ], [ 536471.32, 6455841.15 ], [ 536496.8, 6456281.66 ], [ 536176.43, 6456657.88 ], [ 536144.08, 6456902.97 ], [ 537034.6, 6457493.69 ], [ 537589.42, 6457587.2 ], [ 538001.28, 6458642.06 ], [ 537694.63, 6458819.3 ], [ 537627.66, 6458979.73 ], [ 537741.1, 6459301.66 ], [ 537543.26, 6459394.08 ], [ 537658.5, 6459536.6 ], [ 537532.83, 6459688.97 ], [ 537624.12, 6459869.72 ], [ 537459.79, 6460000.33 ], [ 537606.64, 6460150.9 ], [ 537457.6, 6460281.96 ], [ 537520.49, 6460450.14 ], [ 537377.63, 6460594.32 ], [ 537495.39, 6460587.12 ], [ 537547.34, 6460678.83 ], [ 537496.23, 6460792.82 ], [ 537642.11, 6460803.53 ], [ 537606.76, 6460914.26 ], [ 537708.46, 6460945.32 ], [ 537691.81, 6461049.04 ], [ 537936.7, 6461406.47 ], [ 538118.72, 6461381.57 ], [ 538392.6, 6461496.82 ], [ 538479.45, 6461450.2 ], [ 538817.52, 6461608.44 ], [ 538974.3, 6461287.26 ], [ 539209.39, 6461350.25 ], [ 539195.84, 6461667.59 ], [ 539086.09, 6461806.99 ], [ 539163.24, 6461995.37 ], [ 539367.86, 6461734.18 ], [ 539616.42, 6461993.14 ], [ 539822.88, 6461938.8 ], [ 540256.67, 6462216.08 ], [ 540464.34, 6461975.83 ], [ 540657.05, 6462024.09 ], [ 540765.53, 6462321.15 ], [ 540911.78, 6462315.69 ], [ 541530.7, 6462222.17 ], [ 541697.62, 6461740.84 ], [ 542082.23, 6461686.96 ], [ 541803.59, 6462572.94 ], [ 541902.73, 6463162.31 ], [ 541703.79, 6463192.23 ], [ 541730.86, 6463377.69 ], [ 541426.64, 6463460.65 ], [ 541363.92, 6463744.62 ], [ 541139.91, 6464004.32 ], [ 540986.88, 6464352.0 ], [ 541019.28, 6464819.93 ], [ 540676.89, 6464780.98 ], [ 540277.71, 6465058.22 ], [ 540312.72, 6465148.5 ], [ 540212.74, 6465167.23 ], [ 540325.18, 6465423.04 ], [ 540467.57, 6465673.17 ], [ 540679.86, 6465615.54 ], [ 540677.44, 6465955.39 ], [ 540875.09, 6465938.3 ], [ 540895.06, 6466057.07 ], [ 541139.78, 6466078.65 ], [ 541288.09, 6466224.57 ], [ 541512.37, 6466203.76 ], [ 541530.95, 6466092.28 ], [ 542052.28, 6466135.8 ], [ 542272.62, 6466397.05 ], [ 542465.77, 6466306.8 ], [ 542363.06, 6466163.82 ], [ 542393.16, 6465999.78 ], [ 543438.25, 6466097.48 ], [ 543331.85, 6466125.95 ], [ 543787.81, 6466315.13 ], [ 543953.08, 6466294.21 ], [ 544050.67, 6466089.86 ], [ 544341.17, 6465979.81 ], [ 544384.91, 6466464.42 ], [ 544173.69, 6466483.03 ], [ 544189.42, 6466749.86 ], [ 544461.22, 6466855.28 ], [ 544384.92, 6467500.19 ], [ 545576.88, 6467996.2 ], [ 545602.53, 6468097.76 ], [ 547067.5, 6467582.91 ], [ 547184.38, 6467471.73 ], [ 547718.89, 6467785.89 ], [ 550312.64, 6468588.52 ], [ 557198.85, 6466180.61 ], [ 557452.73, 6465109.52 ], [ 560890.99, 6465918.98 ], [ 561665.1, 6465631.64 ], [ 562154.61, 6465349.65 ], [ 563207.67, 6465126.69 ], [ 563676.22, 6464920.17 ], [ 564071.0, 6465021.23 ], [ 564122.05, 6465346.76 ], [ 564178.04, 6465351.92 ], [ 564348.94, 6465145.44 ], [ 564242.2, 6464642.07 ], [ 564481.02, 6464618.87 ], [ 564376.87, 6464007.8 ], [ 564472.17, 6463969.43 ], [ 564769.9, 6464148.21 ], [ 565292.4, 6464663.2 ], [ 566490.29, 6464927.89 ], [ 566793.51, 6464833.02 ], [ 567417.08, 6464352.79 ], [ 568970.3, 6461152.51 ], [ 574098.45, 6460343.77 ], [ 573953.93, 6460093.86 ], [ 574179.73, 6459850.55 ], [ 574135.21, 6459664.68 ], [ 574312.94, 6458003.55 ], [ 574597.7, 6457759.08 ], [ 574471.02, 6457645.09 ], [ 574134.51, 6457669.58 ], [ 573767.22, 6457560.84 ], [ 573879.49, 6457473.65 ], [ 572975.97, 6456995.32 ], [ 572800.68, 6456481.48 ], [ 572951.21, 6456145.02 ], [ 573239.61, 6456025.86 ], [ 573278.05, 6455819.77 ], [ 573178.42, 6455665.19 ], [ 573626.48, 6455171.1 ], [ 573783.59, 6454301.82 ], [ 573477.97, 6453968.94 ], [ 573469.86, 6453409.79 ], [ 573625.05, 6452447.0 ], [ 573761.49, 6452180.07 ], [ 573696.78, 6451741.83 ], [ 573132.32, 6451684.1 ], [ 572970.75, 6451776.43 ], [ 572789.96, 6451521.53 ], [ 573012.28, 6451102.09 ], [ 572950.27, 6450836.88 ], [ 572590.81, 6450990.65 ], [ 572629.35, 6451211.77 ], [ 572482.3, 6451206.88 ], [ 572368.47, 6451779.55 ], [ 572533.57, 6451778.32 ], [ 572393.52, 6452043.07 ], [ 571815.83, 6452359.22 ], [ 571799.8, 6452241.54 ], [ 571118.6, 6451829.61 ], [ 571225.11, 6451585.76 ], [ 571211.07, 6451294.45 ], [ 570532.75, 6450966.36 ], [ 569868.5, 6451143.16 ], [ 569450.06, 6451096.41 ], [ 568888.17, 6451271.18 ], [ 568101.85, 6450977.5 ], [ 568057.79, 6450595.46 ], [ 567872.56, 6450523.44 ], [ 567696.0, 6450208.49 ], [ 567765.82, 6449870.65 ], [ 568599.25, 6449939.28 ], [ 568384.37, 6448877.47 ], [ 567568.02, 6448786.68 ], [ 567134.17, 6447991.76 ], [ 567228.61, 6448002.65 ], [ 567182.64, 6447859.73 ], [ 567290.36, 6447777.27 ], [ 567198.43, 6447651.69 ], [ 567345.4, 6447524.17 ], [ 567307.82, 6447431.85 ], [ 567457.56, 6447145.49 ], [ 567660.12, 6447169.35 ], [ 567720.88, 6447304.35 ], [ 567847.61, 6447261.56 ], [ 567895.31, 6447091.77 ], [ 567766.52, 6446971.81 ], [ 567835.21, 6446840.32 ], [ 567730.76, 6446724.65 ], [ 567837.11, 6446725.98 ], [ 567810.96, 6446492.13 ], [ 567721.89, 6446376.26 ], [ 567363.51, 6446305.12 ], [ 567413.18, 6445846.49 ], [ 567113.77, 6445961.6 ], [ 567044.86, 6445736.69 ], [ 566754.81, 6445828.26 ], [ 566966.67, 6446304.61 ], [ 566897.82, 6446349.43 ], [ 566934.1, 6446526.95 ], [ 567079.34, 6446790.37 ], [ 566749.8, 6447646.17 ], [ 566730.11, 6447920.09 ], [ 566171.72, 6448714.8 ], [ 565687.37, 6448232.14 ], [ 565852.85, 6448010.16 ], [ 565657.7, 6447390.72 ], [ 565953.64, 6446799.64 ], [ 566261.98, 6446865.13 ], [ 565859.22, 6445952.16 ], [ 565168.94, 6446120.79 ], [ 565110.07, 6445887.25 ], [ 565075.5, 6445025.8 ], [ 565568.51, 6444674.9 ], [ 565561.32, 6444388.7 ], [ 565937.79, 6444345.13 ], [ 565867.66, 6443992.92 ], [ 566173.58, 6443972.14 ], [ 566292.46, 6444304.5 ], [ 566465.31, 6444219.17 ], [ 566835.81, 6443781.82 ], [ 566636.2, 6443245.71 ], [ 566488.83, 6442070.27 ], [ 566395.1, 6442009.82 ], [ 566233.74, 6442046.72 ], [ 566273.08, 6442620.98 ], [ 565582.71, 6442626.04 ], [ 565395.49, 6441977.4 ], [ 564751.1, 6442376.05 ], [ 564745.55, 6442761.77 ], [ 562483.59, 6442567.33 ], [ 562331.36, 6442688.12 ], [ 562299.79, 6442257.44 ], [ 562382.17, 6442203.68 ], [ 562134.43, 6441564.8 ], [ 562747.84, 6440820.33 ], [ 562756.96, 6440713.65 ], [ 560432.79, 6439403.08 ], [ 560295.36, 6438870.88 ], [ 560172.23, 6438900.82 ], [ 560223.24, 6438813.48 ], [ 559932.46, 6438101.62 ], [ 559869.96, 6437381.0 ], [ 560733.23, 6436973.14 ], [ 560875.56, 6436477.72 ], [ 560784.6, 6435493.84 ], [ 560993.58, 6434608.97 ], [ 561406.46, 6434702.17 ], [ 561453.44, 6434392.12 ], [ 561393.71, 6434017.18 ], [ 561797.73, 6433689.38 ], [ 560307.07, 6431179.27 ], [ 558801.42, 6430392.23 ], [ 556092.62, 6430174.43 ], [ 551219.02, 6426917.89 ], [ 550123.24, 6426323.25 ], [ 549978.9, 6426381.74 ], [ 549662.43, 6426293.17 ], [ 549255.59, 6425914.7 ], [ 547808.4, 6427966.79 ], [ 543906.25, 6426977.18 ], [ 544009.96, 6425066.9 ], [ 543363.68, 6424782.19 ], [ 542329.95, 6424786.85 ], [ 540986.37, 6422978.28 ], [ 540348.95, 6423686.52 ], [ 540145.35, 6424048.32 ], [ 540410.86, 6424144.92 ], [ 540663.75, 6424432.56 ], [ 541108.32, 6425477.07 ], [ 541252.54, 6425708.34 ], [ 541551.41, 6425908.5 ], [ 541954.08, 6426618.98 ], [ 542008.1, 6426986.41 ], [ 541622.22, 6426963.08 ], [ 541495.94, 6427096.38 ], [ 541923.74, 6429196.5 ], [ 542042.48, 6429580.76 ], [ 542189.3, 6429542.12 ], [ 542482.92, 6430700.27 ], [ 542581.66, 6430665.0 ], [ 542610.87, 6430789.82 ], [ 542198.07, 6430852.01 ], [ 542488.89, 6432080.88 ], [ 542417.01, 6432249.77 ], [ 542604.37, 6432744.7 ], [ 542650.21, 6433572.06 ], [ 542341.04, 6434164.41 ], [ 542519.96, 6434792.98 ], [ 542706.28, 6436076.88 ], [ 542031.99, 6436556.63 ], [ 541976.65, 6436958.12 ], [ 541753.68, 6437056.0 ], [ 541554.19, 6436484.83 ], [ 541328.95, 6436226.15 ], [ 541522.15, 6436174.43 ], [ 541465.22, 6436058.67 ], [ 541253.17, 6436159.96 ], [ 541105.34, 6435679.18 ], [ 540923.03, 6435774.51 ], [ 541131.01, 6436595.07 ], [ 541273.46, 6436782.02 ], [ 541119.07, 6436954.1 ], [ 541124.41, 6437501.99 ], [ 540997.82, 6437754.34 ], [ 541164.18, 6438509.31 ], [ 540297.37, 6439361.32 ], [ 540049.03, 6439095.64 ], [ 539554.14, 6439255.23 ], [ 538798.54, 6439108.46 ], [ 537031.42, 6448207.53 ], [ 536563.85, 6448121.09 ], [ 536766.28, 6448555.17 ], [ 536276.9, 6448378.49 ], [ 535752.29, 6448778.02 ], [ 535148.84, 6448084.53 ], [ 534470.04, 6447984.77 ] ] ], [ [ [ 581594.24, 6495747.92 ], [ 582394.24, 6495747.92 ], [ 581994.24, 6496147.92 ], [ 582394.24, 6496547.92 ], [ 581594.24, 6496547.92 ], [ 581994.24, 6496147.92 ], [ 581594.24, 6495747.92 ] ] ] ] } },
{ "type": "Feature", "properties": { "muni_id": "0809", "name": "Tori vald" }, "geometry": { "type": "MultiPolygon", "coordinates": [ [ [ [ 523999.85, 6482011.98 ], [ 524193.72, 6482240.72 ], [ 524206.81, 6482430.01 ], [ 525170.84, 6482608.93 ], [ 524772.96, 6485849.01 ], [ 527485.25, 6486048.74 ], [ 528808.09, 6486038.77 ], [ 529006.23, 6486137.81 ], [ 529041.96, 6486466.36 ], [ 529535.39, 6487002.74 ], [ 529474.67, 6487160.52 ], [ 529537.18, 6487394.4 ], [ 529464.21, 6487568.91 ], [ 529554.02, 6487616.66 ], [ 529499.6, 6487817.19 ], [ 529637.93, 6487981.47 ], [ 529642.18, 6488154.96 ], [ 529745.37, 6488217.34 ], [ 530041.68, 6488988.73 ], [ 530279.71, 6489219.47 ], [ 530204.3, 6489416.06 ], [ 530849.44, 6489893.87 ], [ 531310.4, 6489868.79 ], [ 531686.42, 6490002.86 ], [ 532082.02, 6492032.23 ], [ 531980.36, 6492614.4 ], [ 531999.59, 6492969.17 ], [ 532421.55, 6493018.86 ], [ 533095.2, 6493721.36 ], [ 533113.39, 6494119.82 ], [ 533809.41, 6494387.0 ], [ 534511.55, 6494312.01 ], [ 537571.93, 6495268.55 ], [ 537374.13, 6495694.16 ], [ 538782.61, 6496390.57 ], [ 539498.15, 6495625.29 ], [ 541236.1, 6493472.6 ], [ 541612.3, 6493796.3 ], [ 542129.0, 6493178.8 ], [ 541999.5, 6493065.3 ], [ 542160.43, 6492840.61 ], [ 541997.36, 6492451.89 ], [ 542530.53, 6491879.89 ], [ 543358.36, 6492115.1 ], [ 543466.14, 6492064.6 ], [ 544001.59, 6492268.53 ], [ 544051.05, 6492402.74 ], [ 544382.82, 6492447.83 ], [ 544927.22, 6492314.98 ], [ 545879.31, 6492589.45 ], [ 545878.28, 6492692.46 ], [ 546593.05, 6492709.98 ], [ 546617.3, 6492105.98 ], [ 547212.85, 6492130.01 ], [ 547242.38, 6491241.27 ], [ 547526.18, 6491430.94 ], [ 547573.65, 6491628.28 ], [ 547782.41, 6491627.67 ], [ 547748.14, 6491223.33 ], [ 547616.35, 6491147.49 ], [ 547649.94, 6490882.93 ], [ 547259.66, 6490770.35 ], [ 547258.04, 6489292.84 ], [ 547489.85, 6489081.6 ], [ 547559.81, 6489083.8 ], [ 547642.35, 6489643.84 ], [ 548165.08, 6489733.29 ], [ 549717.11, 6491644.96 ], [ 549902.94, 6491834.88 ], [ 550159.54, 6491857.89 ], [ 550511.19, 6493051.19 ], [ 550844.54, 6493638.74 ], [ 551156.26, 6493144.15 ], [ 551114.8, 6493045.21 ], [ 551251.46, 6492966.64 ], [ 551097.41, 6492770.53 ], [ 551234.72, 6492633.63 ], [ 551603.13, 6492286.15 ], [ 552103.69, 6492304.08 ], [ 552306.46, 6492201.12 ], [ 552584.16, 6491673.47 ], [ 552700.38, 6491234.21 ], [ 552633.67, 6491001.92 ], [ 552943.22, 6490212.57 ], [ 553348.16, 6490248.08 ], [ 553628.68, 6490187.01 ], [ 553666.82, 6490062.94 ], [ 553389.08, 6489932.48 ], [ 553380.02, 6489494.78 ], [ 553461.93, 6489492.03 ], [ 553459.37, 6489402.57 ], [ 554137.78, 6489588.0 ], [ 554296.52, 6489742.8 ], [ 554487.41, 6489661.83 ], [ 554497.11, 6489516.97 ], [ 554772.83, 6489602.83 ], [ 555000.0, 6489512.83 ], [ 555061.5, 6489377.0 ], [ 555982.25, 6488885.32 ], [ 556818.46, 6488846.13 ], [ 557275.08, 6488905.19 ], [ 557307.49, 6488799.24 ], [ 557950.85, 6488899.49 ], [ 558082.88, 6488301.88 ], [ 558440.67, 6488463.21 ], [ 558516.82, 6488426.3 ], [ 558676.02, 6488637.19 ], [ 559554.6, 6489293.94 ], [ 559709.66, 6489089.44 ], [ 560270.03, 6489366.19 ], [ 561763.78, 6490458.38 ], [ 563294.54, 6491302.4 ], [ 563637.87, 6490673.49 ], [ 563264.69, 6490549.3 ], [ 562896.84, 6490179.98 ], [ 563036.23, 6489971.48 ], [ 563189.15, 6490043.14 ], [ 563740.05, 6489672.83 ], [ 563694.59, 6488956.0 ], [ 564259.93, 6489375.4 ], [ 563980.78, 6486862.84 ], [ 563631.8, 6486997.52 ], [ 563252.92, 6486844.26 ], [ 562905.06, 6486847.27 ], [ 562561.62, 6485668.34 ], [ 562451.56, 6485597.82 ], [ 561912.77, 6485797.51 ], [ 560303.07, 6485323.0 ], [ 560140.35, 6485072.27 ], [ 559997.4, 6483703.58 ], [ 558959.58, 6483131.95 ], [ 559151.9, 6479796.5 ], [ 559061.9, 6479812.68 ], [ 558955.2, 6479639.56 ], [ 558846.4, 6479605.44 ], [ 558834.33, 6479428.0 ], [ 558921.76, 6479316.58 ], [ 558953.18, 6479429.77 ], [ 559096.99, 6479459.9 ], [ 559113.29, 6479278.08 ], [ 558976.71, 6479141.95 ], [ 559012.8, 6479011.17 ], [ 559081.13, 6479172.87 ], [ 559255.83, 6479155.5 ], [ 559138.16, 6478977.32 ], [ 559323.95, 6478931.65 ], [ 559214.65, 6478826.68 ], [ 559350.94, 6478699.14 ], [ 559174.29, 6478528.05 ], [ 559216.26, 6478317.25 ], [ 559023.74, 6478105.14 ], [ 559207.95, 6477995.71 ], [ 559241.49, 6477786.08 ], [ 559448.02, 6477580.5 ], [ 559262.17, 6477557.39 ], [ 558228.44, 6476134.55 ], [ 557910.41, 6476398.08 ], [ 557471.55, 6476601.45 ], [ 557507.86, 6476464.84 ], [ 557408.71, 6476331.58 ], [ 557511.12, 6476282.23 ], [ 557579.97, 6476095.24 ], [ 557648.25, 6474988.82 ], [ 553211.64, 6474743.14 ], [ 553235.83, 6474153.14 ], [ 549773.83, 6473965.52 ], [ 549366.44, 6473141.77 ], [ 549146.07, 6473097.65 ], [ 549080.77, 6472834.82 ], [ 548890.94, 6472836.85 ], [ 548562.46, 6473298.29 ], [ 548481.46, 6473253.92 ], [ 548378.63, 6473387.24 ], [ 548247.28, 6473868.52 ], [ 544678.05, 6473676.66 ], [ 544576.88, 6476271.05 ], [ 544351.93, 6476238.88 ], [ 543248.61, 6475672.11 ], [ 542789.59, 6475052.27 ], [ 542652.27, 6474623.88 ], [ 542079.87, 6474545.83 ], [ 542077.56, 6474457.02 ], [ 541719.13, 6474157.11 ], [ 541862.66, 6473952.74 ], [ 541815.78, 6473732.91 ], [ 541565.93, 6473567.78 ], [ 540862.44, 6473901.67 ], [ 540545.53, 6474352.52 ], [ 540144.94, 6474178.78 ], [ 539991.35, 6474262.53 ], [ 539758.12, 6474589.21 ], [ 539512.43, 6474665.36 ], [ 539536.26, 6474609.18 ], [ 539130.47, 6474280.42 ], [ 539213.82, 6474133.6 ], [ 539150.59, 6473967.35 ], [ 539250.43, 6473373.95 ], [ 539447.37, 6473131.38 ], [ 538958.89, 6472788.39 ], [ 537915.62, 6472813.56 ], [ 537772.03, 6472736.95 ], [ 537621.53, 6472592.13 ], [ 537342.47, 6471823.08 ], [ 536949.38, 6471353.34 ], [ 536381.37, 6471855.35 ], [ 535986.0, 6471355.0 ], [ 535707.27, 6471234.43 ], [ 534616.71, 6469848.87 ], [ 534224.8, 6469484.3 ], [ 533860.72, 6469337.96 ], [ 533382.71, 6469358.34 ], [ 532996.71, 6469594.25 ], [ 532872.36, 6469915.58 ], [ 532862.46, 6470024.05 ], [ 533334.14, 6470219.86 ], [ 533489.74, 6470585.46 ], [ 534049.08, 6470996.77 ], [ 533681.09, 6471334.73 ], [ 533667.1, 6471514.76 ], [ 533198.01, 6471921.47 ], [ 533813.21, 6472677.65 ], [ 534824.32, 6472816.34 ], [ 534794.93, 6473074.54 ], [ 533638.38, 6472861.39 ], [ 533247.46, 6472899.25 ], [ 533245.85, 6473159.69 ], [ 532982.65, 6473277.34 ], [ 532465.24, 6473149.09 ], [ 532375.5, 6473356.75 ], [ 532133.03, 6473550.7 ], [ 532048.67, 6474617.21 ], [ 530114.98, 6474342.35 ], [ 529536.7, 6474993.17 ], [ 529186.3, 6474833.41 ], [ 529029.97, 6474921.92 ], [ 529034.86, 6474997.66 ], [ 528862.22, 6474998.21 ], [ 528495.05, 6475215.12 ], [ 527712.53, 6473767.88 ], [ 527464.93, 6473741.12 ], [ 527086.28, 6473951.71 ], [ 526975.62, 6473734.42 ], [ 526846.35, 6473774.4 ], [ 526568.96, 6474262.26 ], [ 526138.84, 6474544.43 ], [ 525890.77, 6474869.0 ], [ 525976.43, 6475571.9 ], [ 525765.52, 6476039.24 ], [ 525799.68, 6476447.05 ], [ 525751.82, 6476561.51 ], [ 525660.12, 6476572.8 ], [ 525617.08, 6476755.21 ], [ 525766.69, 6477035.1 ], [ 526210.27, 6477177.02 ], [ 526093.64, 6478295.7 ], [ 525358.7, 6478673.49 ], [ 524626.93, 6481060.9 ], [ 524429.58, 6480738.29 ], [ 523999.85, 6482011.98 ] ] ], [ [ [ 578790.12, 6493909.19 ], [ 579590.12, 6493909.19 ], [ 579190.12, 6494309.19 ], [ 579590.12, 6494709.19 ], [ 578790.12, 6494709.19 ], [ 579190.12, 6494309.19 ], [ 578790.12, 6493909.19 ] ] ] ] } }
]
}
