{
"type": "FeatureCollection",
"name": "addresses",
"crs": { "type": "name", "properties": { "name": "urn:ogc:def:crs:OGC:1.3:CRS84" } },
"xy_coordinate_resolution": 1e-07,
"features": [
{ "type": "Feature", "properties": { "adr_id": "n322906403", "street": "Raatuse", "housenumber": "20" }, "geometry": { "type": "Point", "coordinates": [ 26.7302361, 58.3824668 ] } },
{ "type": "Feature", "properties": { "adr_id": "n331179287", "street": "Võru", "housenumber": "55f" }, "geometry": { "type": "Point", "coordinates": [ 26.7195616, 58.3647741 ] } },
{ "type": "Feature", "properties": { "adr_id": "n332669324", "street": "Lääne", "housenumber": "12" }, "geometry": { "type": "Point", "coordinates": [ 26.754092, 58.38595 ] } },
{ "type": "Feature", "properties": { "adr_id": "n332763611", "street": "Lääne", "housenumber": "1" }, "geometry": { "type": "Point", "coordinates": [ 26.751568, 58.382243 ] } },
{ "type": "Feature", "properties": { "adr_id": "n333030761", "street": "NARVA MNT.", "housenumber": "171" }, "geometry": { "type": "Point", "coordinates": [ 26.734925, 58.393816 ] } },
{ "type": "Feature", "properties": { "adr_id": "n333052848", "street": "Siili", "housenumber": "4b" }, "geometry": { "type": "Point", "coordinates": [ 26.749344, 58.366814 ] } },
{ "type": "Feature", "properties": { "adr_id": "n334455829", "street": "Raekoja plats", "housenumber": "10" }, "geometry": { "type": "Point", "coordinates": [ 26.7229677, 58.3804084 ] } },
{ "type": "Feature", "properties": { "adr_id": "n334456332", "street": "Raekoja plats", "housenumber": "12" }, "geometry": { "type": "Point", "coordinates": [ 26.7231282, 58.3804285 ] } },
{ "type": "Feature", "properties": { "adr_id": "n334456632", "street": "Raekoja plats", "housenumber": "12" }, "geometry": { "type": "Point", "coordinates": [ 26.723447, 58.380458 ] } },
{ "type": "Feature", "properties": { "adr_id": "n334456780", "street": "Raekoja plats", "housenumber": "16" }, "geometry": { "type": "Point", "coordinates": [ 26.724018, 58.38055 ] } },
{ "type": "Feature", "properties": { "adr_id": "n334456848", "street": "Raekoja plats", "housenumber": "20" }, "geometry": { "type": "Point", "coordinates": [ 26.724544, 58.380742 ] } },
{ "type": "Feature", "properties": { "adr_id": "n334458370", "street": "Rüütli", "housenumber": "18" }, "geometry": { "type": "Point", "coordinates": [ 26.721264, 58.3819095 ] } },
{ "type": "Feature", "properties": { "adr_id": "n334460433", "street": "Küütri", "housenumber": "3" }, "geometry": { "type": "Point", "coordinates": [ 26.7214099, 58.3808745 ] } },
{ "type": "Feature", "properties": { "adr_id": "n334460663", "street": "Kompanii", "housenumber": "10" }, "geometry": { "type": "Point", "coordinates": [ 26.722755, 58.381916 ] } },
{ "type": "Feature", "properties": { "adr_id": "n334464372", "street": "Küüni", "housenumber": "2" }, "geometry": { "type": "Point", "coordinates": [ 26.7232084, 58.379893 ] } },
{ "type": "Feature", "properties": { "adr_id": "n334464814", "street": "Ülikooli", "housenumber": "7" }, "geometry": { "type": "Point", "coordinates": [ 26.7222597, 58.3796233 ] } },
{ "type": "Feature", "properties": { "adr_id": "n334466976", "street": "Riia", "housenumber": "4" }, "geometry": { "type": "Point", "coordinates": [ 26.7272239, 58.3767487 ] } },
{ "type": "Feature", "properties": { "adr_id": "n334467164", "street": "Küüni", "housenumber": "7" }, "geometry": { "type": "Point", "coordinates": [ 26.7249523, 58.37832 ] } },
{ "type": "Feature", "properties": { "adr_id": "n334471698", "street": "Küütri", "housenumber": "7" }, "geometry": { "type": "Point", "coordinates": [ 26.7227145, 58.380798 ] } },
{ "type": "Feature", "properties": { "adr_id": "n354470712", "street": "J. Kuperjanovi", "housenumber": "20" }, "geometry": { "type": "Point", "coordinates": [ 26.7122581, 58.3762403 ] } },
{ "type": "Feature", "properties": { "adr_id": "n361134472", "street": "Turu", "housenumber": "14" }, "geometry": { "type": "Point", "coordinates": [ 26.7360047, 58.374671 ] } },
{ "type": "Feature", "properties": { "adr_id": "n416999629", "street": "Raekoja plats", "housenumber": "8" }, "geometry": { "type": "Point", "coordinates": [ 26.7224471, 58.3803598 ] } },
{ "type": "Feature", "properties": { "adr_id": "n429770743", "street": "Küütri", "housenumber": "3" }, "geometry": { "type": "Point", "coordinates": [ 26.721613, 58.380886 ] } },
{ "type": "Feature", "properties": { "adr_id": "n448280796", "street": "Rüütli", "housenumber": "5" }, "geometry": { "type": "Point", "coordinates": [ 26.7222953, 58.3806885 ] } },
{ "type": "Feature", "properties": { "adr_id": "n448614257", "street": "Julius Kuperjanovi", "housenumber": "20" }, "geometry": { "type": "Point", "coordinates": [ 26.7119273, 58.3762156 ] } },
{ "type": "Feature", "properties": { "adr_id": "n448614385", "street": "Riia", "housenumber": "1" }, "geometry": { "type": "Point", "coordinates": [ 26.7266931, 58.3778377 ] } },
{ "type": "Feature", "properties": { "adr_id": "n583354432", "street": "Magasini", "housenumber": "5" }, "geometry": { "type": "Point", "coordinates": [ 26.7218805, 58.3834818 ] } },
{ "type": "Feature", "properties": { "adr_id": "n674019621", "street": "Vanemuise", "housenumber": "26" }, "geometry": { "type": "Point", "coordinates": [ 26.7206644, 58.3753351 ] } },
{ "type": "Feature", "properties": { "adr_id": "n687056977", "street": "Vanemuise", "housenumber": "42" }, "geometry": { "type": "Point", "coordinates": [ 26.71747, 58.37397 ] } },
{ "type": "Feature", "properties": { "adr_id": "n687057026", "street": "Raekoja plats", "housenumber": "18" }, "geometry": { "type": "Point", "coordinates": [ 26.7243296, 58.3806659 ] } },
{ "type": "Feature", "properties": { "adr_id": "n687590026", "street": "Gildi", "housenumber": "4" }, "geometry": { "type": "Point", "coordinates": [ 26.7213156, 58.3817322 ] } },
{ "type": "Feature", "properties": { "adr_id": "n912014208", "street": "Tiigi", "housenumber": "57" }, "geometry": { "type": "Point", "coordinates": [ 26.7132546, 58.3748897 ] } },
{ "type": "Feature", "properties": { "adr_id": "n912016108", "street": "Tiigi", "housenumber": "61" }, "geometry": { "type": "Point", "coordinates": [ 26.7117899, 58.3743327 ] } },
{ "type": "Feature", "properties": { "adr_id": "n912039626", "street": "Võru", "housenumber": "4" }, "geometry": { "type": "Point", "coordinates": [ 26.7231468, 58.3738522 ] } },
{ "type": "Feature", "properties": { "adr_id": "n912047345", "street": "Pepleri", "housenumber": "14" }, "geometry": { "type": "Point", "coordinates": [ 26.719239, 58.374414 ] } },
{ "type": "Feature", "properties": { "adr_id": "n926290307", "street": "Tuglase", "housenumber": "19" }, "geometry": { "type": "Point", "coordinates": [ 26.691636, 58.385047 ] } },
{ "type": "Feature", "properties": { "adr_id": "n937578110", "street": "Aleksandri", "housenumber": "46" }, "geometry": { "type": "Point", "coordinates": [ 26.7393878, 58.3708319 ] } },
{ "type": "Feature", "properties": { "adr_id": "n1188801103", "street": "Viljandi mnt", "housenumber": "13" }, "geometry": { "type": "Point", "coordinates": [ 26.693505, 58.3713412 ] } },
{ "type": "Feature", "properties": { "adr_id": "n1191320038", "street": "Küüni", "housenumber": "7" }, "geometry": { "type": "Point", "coordinates": [ 26.7251749, 58.3780805 ] } },
{ "type": "Feature", "properties": { "adr_id": "n1191341942", "street": "Vallikraavi", "housenumber": "4" }, "geometry": { "type": "Point", "coordinates": [ 26.7230003, 58.378112 ] } },
{ "type": "Feature", "properties": { "adr_id": "n1191342846", "street": "Ülikooli", "housenumber": "15" }, "geometry": { "type": "Point", "coordinates": [ 26.720642, 58.38112 ] } },
{ "type": "Feature", "properties": { "adr_id": "n1191348181", "street": "Soola", "housenumber": "6" }, "geometry": { "type": "Point", "coordinates": [ 26.732424, 58.378902 ] } },
{ "type": "Feature", "properties": { "adr_id": "n1268888699", "street": "Rüütli", "housenumber": "2" }, "geometry": { "type": "Point", "coordinates": [ 26.722132, 58.380532 ] } },
{ "type": "Feature", "properties": { "adr_id": "n1345564991", "street": "Turu", "housenumber": "2" }, "geometry": { "type": "Point", "coordinates": [ 26.7315432, 58.3784064 ] } },
{ "type": "Feature", "properties": { "adr_id": "n1345570070", "street": "Soola", "housenumber": "3" }, "geometry": { "type": "Point", "coordinates": [ 26.733027, 58.377445 ] } },
{ "type": "Feature", "properties": { "adr_id": "n1345577654", "street": "Riia", "housenumber": "4" }, "geometry": { "type": "Point", "coordinates": [ 26.727021, 58.376618 ] } },
{ "type": "Feature", "properties": { "adr_id": "n1345578458", "street": "Kalevi", "housenumber": "1" }, "geometry": { "type": "Point", "coordinates": [ 26.7261546, 58.3760028 ] } },
{ "type": "Feature", "properties": { "adr_id": "n1367999207", "street": "Raekoja plats", "housenumber": "11" }, "geometry": { "type": "Point", "coordinates": [ 26.724117, 58.380278 ] } },
{ "type": "Feature", "properties": { "adr_id": "n1376511164", "street": "Lembitu", "housenumber": "1e" }, "geometry": { "type": "Point", "coordinates": [ 26.707576, 58.3699188 ] } },
{ "type": "Feature", "properties": { "adr_id": "n1446969434", "street": "Raekoja plats", "housenumber": "1A" }, "geometry": { "type": "Point", "coordinates": [ 26.7217363, 58.380158 ] } },
{ "type": "Feature", "properties": { "adr_id": "n1479373113", "street": "Kastani", "housenumber": "48f" }, "geometry": { "type": "Point", "coordinates": [ 26.7180528, 58.3696251 ] } },
{ "type": "Feature", "properties": { "adr_id": "n1512892045", "street": "Rebase", "housenumber": "10" }, "geometry": { "type": "Point", "coordinates": [ 26.7388492, 58.3684522 ] } },
{ "type": "Feature", "properties": { "adr_id": "n1856819098", "street": "Raatuse", "housenumber": "20" }, "geometry": { "type": "Point", "coordinates": [ 26.7303066, 58.3821892 ] } },
{ "type": "Feature", "properties": { "adr_id": "n1927565786", "street": "Turu", "housenumber": "1" }, "geometry": { "type": "Point", "coordinates": [ 26.7303932, 58.3767151 ] } },
{ "type": "Feature", "properties": { "adr_id": "n1929024887", "street": "Vitamiini", "housenumber": "1" }, "geometry": { "type": "Point", "coordinates": [ 26.6969063, 58.3760506 ] } },
{ "type": "Feature", "properties": { "adr_id": "n1946225209", "street": "Nooruse", "housenumber": "1" }, "geometry": { "type": "Point", "coordinates": [ 26.6943878, 58.3660955 ] } },
{ "type": "Feature", "properties": { "adr_id": "n1952436586", "street": "Jaama", "housenumber": "173" }, "geometry": { "type": "Point", "coordinates": [ 26.7643967, 58.3795248 ] } },
{ "type": "Feature", "properties": { "adr_id": "n2139961597", "street": "Piiri", "housenumber": "20" }, "geometry": { "type": "Point", "coordinates": [ 26.7100625, 58.3897862 ] } },
{ "type": "Feature", "properties": { "adr_id": "n2260449940", "street": "Raekoja plats", "housenumber": "8" }, "geometry": { "type": "Point", "coordinates": [ 26.7225541, 58.3803521 ] } },
{ "type": "Feature", "properties": { "adr_id": "n2296455749", "street": "Küüni", "housenumber": "4" }, "geometry": { "type": "Point", "coordinates": [ 26.7233981, 58.3797155 ] } },
{ "type": "Feature", "properties": { "adr_id": "n2326826401", "street": "Soola", "housenumber": "6" }, "geometry": { "type": "Point", "coordinates": [ 26.7326415, 58.3786578 ] } },
{ "type": "Feature", "properties": { "adr_id": "n2326826403", "street": "Rüütli", "housenumber": "9" }, "geometry": { "type": "Point", "coordinates": [ 26.7219822, 58.3812119 ] } },
{ "type": "Feature", "properties": { "adr_id": "n2326826404", "street": "Kastani", "housenumber": "38" }, "geometry": { "type": "Point", "coordinates": [ 26.7142542, 58.3717742 ] } },
{ "type": "Feature", "properties": { "adr_id": "n2326826405", "street": "Raekoja plats", "housenumber": "10" }, "geometry": { "type": "Point", "coordinates": [ 26.7228855, 58.3804031 ] } },
{ "type": "Feature", "properties": { "adr_id": "n2330368169", "street": "Tähtvere", "housenumber": "44" }, "geometry": { "type": "Point", "coordinates": [ 26.7093809, 58.3854436 ] } },
{ "type": "Feature", "properties": { "adr_id": "n2330368171", "street": "Raekoja plats", "housenumber": "1" }, "geometry": { "type": "Point", "coordinates": [ 26.7219634, 58.379719 ] } },
{ "type": "Feature", "properties": { "adr_id": "n2330368172", "street": "Raekoja plats", "housenumber": "2" }, "geometry": { "type": "Point", "coordinates": [ 26.7212771, 58.3802695 ] } },
{ "type": "Feature", "properties": { "adr_id": "n2330368174", "street": "Jaani", "housenumber": "4" }, "geometry": { "type": "Point", "coordinates": [ 26.7197341, 58.3820869 ] } },
{ "type": "Feature", "properties": { "adr_id": "n2330368176", "street": "Tähe", "housenumber": "11" }, "geometry": { "type": "Point", "coordinates": [ 26.7258452, 58.3722257 ] } },
{ "type": "Feature", "properties": { "adr_id": "n2367826153", "street": "Rebase", "housenumber": "14a" }, "geometry": { "type": "Point", "coordinates": [ 26.743812, 58.3670016 ] } },
{ "type": "Feature", "properties": { "adr_id": "n2384089635", "street": "Riia", "housenumber": "15B" }, "geometry": { "type": "Point", "coordinates": [ 26.7199706, 58.3731753 ] } },
{ "type": "Feature", "properties": { "adr_id": "n2401572301", "street": "Roosi", "housenumber": "85" }, "geometry": { "type": "Point", "coordinates": [ 26.7433004, 58.3907136 ] } },
{ "type": "Feature", "properties": { "adr_id": "n2407624942", "street": "Turu", "housenumber": "2" }, "geometry": { "type": "Point", "coordinates": [ 26.731775, 58.378627 ] } },
{ "type": "Feature", "properties": { "adr_id": "n2407773790", "street": "Soola", "housenumber": "10" }, "geometry": { "type": "Point", "coordinates": [ 26.7344682, 58.3791342 ] } },
{ "type": "Feature", "properties": { "adr_id": "n2407773795", "street": "Soola", "housenumber": "10" }, "geometry": { "type": "Point", "coordinates": [ 26.7336099, 58.3793986 ] } },
{ "type": "Feature", "properties": { "adr_id": "n2409009232", "street": "Pepleri", "housenumber": "8" }, "geometry": { "type": "Point", "coordinates": [ 26.717574, 58.376346 ] } },
{ "type": "Feature", "properties": { "adr_id": "n2419331174", "street": "Lai", "housenumber": "29" }, "geometry": { "type": "Point", "coordinates": [ 26.7198328, 58.3834556 ] } },
{ "type": "Feature", "properties": { "adr_id": "n2442695959", "street": "Riia", "housenumber": "11" }, "geometry": { "type": "Point", "coordinates": [ 26.7223417, 58.3742136 ] } },
{ "type": "Feature", "properties": { "adr_id": "n2521603003", "street": "Laulupeo pst", "housenumber": "17" }, "geometry": { "type": "Point", "coordinates": [ 26.7054378, 58.3855225 ] } },
{ "type": "Feature", "properties": { "adr_id": "n2558853606", "street": "Turu", "housenumber": "2" }, "geometry": { "type": "Point", "coordinates": [ 26.7324234, 58.3781802 ] } },
{ "type": "Feature", "properties": { "adr_id": "n2561096282", "street": "Ülikooli", "housenumber": "2" }, "geometry": { "type": "Point", "coordinates": [ 26.7241385, 58.3773193 ] } },
{ "type": "Feature", "properties": { "adr_id": "n2606836341", "street": "Võru", "housenumber": "55D" }, "geometry": { "type": "Point", "coordinates": [ 26.7206618, 58.3646168 ] } },
{ "type": "Feature", "properties": { "adr_id": "n2606836349", "street": "Võru", "housenumber": "55E" }, "geometry": { "type": "Point", "coordinates": [ 26.7204252, 58.3646903 ] } },
{ "type": "Feature", "properties": { "adr_id": "n2946038617", "street": "Rüütli", "housenumber": "11" }, "geometry": { "type": "Point", "coordinates": [ 26.721858, 58.381347 ] } },
{ "type": "Feature", "properties": { "adr_id": "n2957275969", "street": "Ravila", "housenumber": "14aa" }, "geometry": { "type": "Point", "coordinates": [ 26.6934877, 58.3668319 ] } },
{ "type": "Feature", "properties": { "adr_id": "n3374642293", "street": "Ülikooli", "housenumber": "4" }, "geometry": { "type": "Point", "coordinates": [ 26.723719, 58.378014 ] } },
{ "type": "Feature", "properties": { "adr_id": "n3646330979", "street": "Lai", "housenumber": "30" }, "geometry": { "type": "Point", "coordinates": [ 26.7193252, 58.38354 ] } },
{ "type": "Feature", "properties": { "adr_id": "n3680866702", "street": "Julius Kuperjanovi", "housenumber": "70" }, "geometry": { "type": "Point", "coordinates": [ 26.7079997, 58.3739256 ] } },
{ "type": "Feature", "properties": { "adr_id": "n3680866703", "street": "Vaksali", "housenumber": "17" }, "geometry": { "type": "Point", "coordinates": [ 26.7098665, 58.3726376 ] } },
{ "type": "Feature", "properties": { "adr_id": "n3680866704", "street": "Vaksali", "housenumber": "7" }, "geometry": { "type": "Point", "coordinates": [ 26.7116244, 58.3715343 ] } },
{ "type": "Feature", "properties": { "adr_id": "n3680866705", "street": "Vaksali", "housenumber": "17" }, "geometry": { "type": "Point", "coordinates": [ 26.7099424, 58.3725875 ] } },
{ "type": "Feature", "properties": { "adr_id": "n3680866706", "street": "Vaksali", "housenumber": "17" }, "geometry": { "type": "Point", "coordinates": [ 26.7100183, 58.3725374 ] } },
{ "type": "Feature", "properties": { "adr_id": "n3680866707", "street": "Vaksali", "housenumber": "17" }, "geometry": { "type": "Point", "coordinates": [ 26.7096961, 58.3726437 ] } },
{ "type": "Feature", "properties": { "adr_id": "n3680866715", "street": "Vaksali", "housenumber": "17" }, "geometry": { "type": "Point", "coordinates": [ 26.7097906, 58.3726877 ] } },
{ "type": "Feature", "properties": { "adr_id": "n3681336527", "street": "Lembitu", "housenumber": "2" }, "geometry": { "type": "Point", "coordinates": [ 26.709579, 58.369988 ] } },
{ "type": "Feature", "properties": { "adr_id": "n3681336529", "street": "Võru", "housenumber": "55f" }, "geometry": { "type": "Point", "coordinates": [ 26.7197396, 58.3646867 ] } },
{ "type": "Feature", "properties": { "adr_id": "n3684465328", "street": "Narva mnt", "housenumber": "27b" }, "geometry": { "type": "Point", "coordinates": [ 26.7276695, 58.3835581 ] } },
{ "type": "Feature", "properties": { "adr_id": "n3684465329", "street": "Narva mnt", "housenumber": "27b" }, "geometry": { "type": "Point", "coordinates": [ 26.7276555, 58.3834847 ] } },
{ "type": "Feature", "properties": { "adr_id": "n3684465344", "street": "Pepleri", "housenumber": "14" }, "geometry": { "type": "Point", "coordinates": [ 26.7192986, 58.3744592 ] } },
{ "type": "Feature", "properties": { "adr_id": "n3684690477", "street": "Kalda tee", "housenumber": "1c" }, "geometry": { "type": "Point", "coordinates": [ 26.7506658, 58.3736133 ] } },
{ "type": "Feature", "properties": { "adr_id": "n3684690479", "street": "Jaama", "housenumber": "173" }, "geometry": { "type": "Point", "coordinates": [ 26.764787, 58.3793479 ] } },
{ "type": "Feature", "properties": { "adr_id": "n3684690480", "street": "Narva mnt", "housenumber": "112" }, "geometry": { "type": "Point", "coordinates": [ 26.7298993, 58.39209 ] } },
{ "type": "Feature", "properties": { "adr_id": "n3684690481", "street": "Pikk", "housenumber": "60" }, "geometry": { "type": "Point", "coordinates": [ 26.7387202, 58.3803984 ] } },
{ "type": "Feature", "properties": { "adr_id": "n3741649627", "street": "Uppsala", "housenumber": "8" }, "geometry": { "type": "Point", "coordinates": [ 26.7200916, 58.3788574 ] } },
{ "type": "Feature", "properties": { "adr_id": "n3841421328", "street": "Herne", "housenumber": "6" }, "geometry": { "type": "Point", "coordinates": [ 26.7167233, 58.3848959 ] } },
{ "type": "Feature", "properties": { "adr_id": "n3841456839", "street": "Herne", "housenumber": "20" }, "geometry": { "type": "Point", "coordinates": [ 26.7159217, 58.3853058 ] } },
{ "type": "Feature", "properties": { "adr_id": "n4007652289", "street": "Ülikooli", "housenumber": "7" }, "geometry": { "type": "Point", "coordinates": [ 26.7220934, 58.379553 ] } },
{ "type": "Feature", "properties": { "adr_id": "n4007653265", "street": "Raekoja plats", "housenumber": "3" }, "geometry": { "type": "Point", "coordinates": [ 26.7224985, 58.3798947 ] } },
{ "type": "Feature", "properties": { "adr_id": "n4007656678", "street": "Küütri", "housenumber": "16" }, "geometry": { "type": "Point", "coordinates": [ 26.7230551, 58.3813183 ] } },
{ "type": "Feature", "properties": { "adr_id": "n4007656679", "street": "Gildi", "housenumber": "7" }, "geometry": { "type": "Point", "coordinates": [ 26.7222941, 58.381674 ] } },
{ "type": "Feature", "properties": { "adr_id": "n4007656681", "street": "Munga", "housenumber": "5" }, "geometry": { "type": "Point", "coordinates": [ 26.7217175, 58.3821296 ] } },
{ "type": "Feature", "properties": { "adr_id": "n4247172293", "street": "Veski", "housenumber": "5A" }, "geometry": { "type": "Point", "coordinates": [ 26.7094408, 58.3821238 ] } },
{ "type": "Feature", "properties": { "adr_id": "n4247524839", "street": "Tuglase", "housenumber": "14" }, "geometry": { "type": "Point", "coordinates": [ 26.6946706, 58.3852611 ] } },
{ "type": "Feature", "properties": { "adr_id": "n4255823178", "street": "Kalda tee", "housenumber": "24" }, "geometry": { "type": "Point", "coordinates": [ 26.7623592, 58.3724065 ] } },
{ "type": "Feature", "properties": { "adr_id": "n4260173665", "street": "Poe", "housenumber": "10" }, "geometry": { "type": "Point", "coordinates": [ 26.7251061, 58.3799968 ] } },
{ "type": "Feature", "properties": { "adr_id": "n4260173666", "street": "Rüütli", "housenumber": "4" }, "geometry": { "type": "Point", "coordinates": [ 26.7220698, 58.3806591 ] } },
{ "type": "Feature", "properties": { "adr_id": "n4270950492", "street": "Jaama", "housenumber": "68a" }, "geometry": { "type": "Point", "coordinates": [ 26.7465262, 58.3827105 ] } },
{ "type": "Feature", "properties": { "adr_id": "n4303708970", "street": "Riia", "housenumber": "26" }, "geometry": { "type": "Point", "coordinates": [ 26.7145735, 58.3703906 ] } },
{ "type": "Feature", "properties": { "adr_id": "n4312326935", "street": "Ludvig Puusepa", "housenumber": "1a" }, "geometry": { "type": "Point", "coordinates": [ 26.7044024, 58.3674376 ] } },
{ "type": "Feature", "properties": { "adr_id": "n4312326936", "street": "Ludvig Puusepa", "housenumber": "8" }, "geometry": { "type": "Point", "coordinates": [ 26.6997491, 58.3694867 ] } },
{ "type": "Feature", "properties": { "adr_id": "n4355560742", "street": "Riia", "housenumber": "12" }, "geometry": { "type": "Point", "coordinates": [ 26.7223005, 58.3734777 ] } },
{ "type": "Feature", "properties": { "adr_id": "n4404067089", "street": "Rüütli", "housenumber": "4" }, "geometry": { "type": "Point", "coordinates": [ 26.7219847, 58.3807571 ] } },
{ "type": "Feature", "properties": { "adr_id": "n4414459493", "street": "Rüütli", "housenumber": "8" }, "geometry": { "type": "Point", "coordinates": [ 26.7217951, 58.3811086 ] } },
{ "type": "Feature", "properties": { "adr_id": "n4414529090", "street": "Rüütli", "housenumber": "8" }, "geometry": { "type": "Point", "coordinates": [ 26.7218146, 58.3810718 ] } },
{ "type": "Feature", "properties": { "adr_id": "n4469405590", "street": "Näituse", "housenumber": "26" }, "geometry": { "type": "Point", "coordinates": [ 26.7002173, 58.3767466 ] } },
{ "type": "Feature", "properties": { "adr_id": "n4560304991", "street": "Kalda tee", "housenumber": "70" }, "geometry": { "type": "Point", "coordinates": [ 26.7669203, 58.3744448 ] } },
{ "type": "Feature", "properties": { "adr_id": "n4642071492", "street": "Rüütli", "housenumber": "12" }, "geometry": { "type": "Point", "coordinates": [ 26.7214874, 58.3815699 ] } },
{ "type": "Feature", "properties": { "adr_id": "n4729082038", "street": "Küüni", "housenumber": "5A" }, "geometry": { "type": "Point", "coordinates": [ 26.7230957, 58.3791902 ] } },
{ "type": "Feature", "properties": { "adr_id": "n4738016688", "street": "Puiestee", "housenumber": "17" }, "geometry": { "type": "Point", "coordinates": [ 26.7211047, 58.39209 ] } },
{ "type": "Feature", "properties": { "adr_id": "n4811521883", "street": "Võru", "housenumber": "55" }, "geometry": { "type": "Point", "coordinates": [ 26.7198072, 58.3642571 ] } },
{ "type": "Feature", "properties": { "adr_id": "n4811562188", "street": "Rüütli", "housenumber": "18" }, "geometry": { "type": "Point", "coordinates": [ 26.7212473, 58.3819551 ] } },
{ "type": "Feature", "properties": { "adr_id": "n4813033694", "street": "Kastani", "housenumber": "42" }, "geometry": { "type": "Point", "coordinates": [ 26.7158006, 58.3709945 ] } },
{ "type": "Feature", "properties": { "adr_id": "n4813236524", "street": "Kastani", "housenumber": "48" }, "geometry": { "type": "Point", "coordinates": [ 26.7168334, 58.3697746 ] } },
{ "type": "Feature", "properties": { "adr_id": "n4920220938", "street": "Vallikraavi", "housenumber": "6" }, "geometry": { "type": "Point", "coordinates": [ 26.7216213, 58.3778865 ] } },
{ "type": "Feature", "properties": { "adr_id": "n4934646427", "street": "Gildi", "housenumber": "8" }, "geometry": { "type": "Point", "coordinates": [ 26.7218333, 58.3817742 ] } },
{ "type": "Feature", "properties": { "adr_id": "n4947542690", "street": "Rüütli", "housenumber": "9" }, "geometry": { "type": "Point", "coordinates": [ 26.722183, 58.381145 ] } },
{ "type": "Feature", "properties": { "adr_id": "n5473200534", "street": "Raekoja plats", "housenumber": "9" }, "geometry": { "type": "Point", "coordinates": [ 26.7235639, 58.3801374 ] } },
{ "type": "Feature", "properties": { "adr_id": "n5600728156", "street": "Tähe", "housenumber": "91A" }, "geometry": { "type": "Point", "coordinates": [ 26.7301712, 58.3629278 ] } },
{ "type": "Feature", "properties": { "adr_id": "n5600736850", "street": "Saekoja", "housenumber": "36A" }, "geometry": { "type": "Point", "coordinates": [ 26.7289903, 58.3631972 ] } },
{ "type": "Feature", "properties": { "adr_id": "n5628010453", "street": "Võru", "housenumber": "57" }, "geometry": { "type": "Point", "coordinates": [ 26.720679, 58.3635525 ] } },
{ "type": "Feature", "properties": { "adr_id": "n5628010454", "street": "Side", "housenumber": "1a" }, "geometry": { "type": "Point", "coordinates": [ 26.7214127, 58.3632295 ] } },
{ "type": "Feature", "properties": { "adr_id": "n5666115145", "street": "Raekoja plats", "housenumber": "16" }, "geometry": { "type": "Point", "coordinates": [ 26.7239535, 58.3807088 ] } },
{ "type": "Feature", "properties": { "adr_id": "n5811757957", "street": "Vanemuise", "housenumber": "52" }, "geometry": { "type": "Point", "coordinates": [ 26.7146021, 58.3729817 ] } },
{ "type": "Feature", "properties": { "adr_id": "n5875632594", "street": "Riia", "housenumber": "1" }, "geometry": { "type": "Point", "coordinates": [ 26.7270649, 58.3779682 ] } },
{ "type": "Feature", "properties": { "adr_id": "n5884531309", "street": "Kompanii", "housenumber": "1C" }, "geometry": { "type": "Point", "coordinates": [ 26.7239486, 58.3810447 ] } },
{ "type": "Feature", "properties": { "adr_id": "n5884533172", "street": "Julius Kuperjanovi", "housenumber": "20" }, "geometry": { "type": "Point", "coordinates": [ 26.7116584, 58.3761555 ] } },
{ "type": "Feature", "properties": { "adr_id": "n5965698947", "street": "Kastani", "housenumber": "42" }, "geometry": { "type": "Point", "coordinates": [ 26.7166144, 58.3703897 ] } },
{ "type": "Feature", "properties": { "adr_id": "n5983199213", "street": "Anne", "housenumber": "38" }, "geometry": { "type": "Point", "coordinates": [ 26.7510864, 58.3781561 ] } },
{ "type": "Feature", "properties": { "adr_id": "n6304094838", "street": "Kalda tee", "housenumber": "1c/1d" }, "geometry": { "type": "Point", "coordinates": [ 26.7503735, 58.3728084 ] } },
{ "type": "Feature", "properties": { "adr_id": "n6400974007", "street": "Nooruse", "housenumber": "1" }, "geometry": { "type": "Point", "coordinates": [ 26.6949687, 58.3660706 ] } },
{ "type": "Feature", "properties": { "adr_id": "n6418863985", "street": "Kaunase pst", "housenumber": "21" }, "geometry": { "type": "Point", "coordinates": [ 26.7677319, 58.3739586 ] } },
{ "type": "Feature", "properties": { "adr_id": "n6466419986", "street": "Kalda tee", "housenumber": "28a" }, "geometry": { "type": "Point", "coordinates": [ 26.7653891, 58.3716474 ] } },
{ "type": "Feature", "properties": { "adr_id": "n6577678985", "street": "Rüütli", "housenumber": "4" }, "geometry": { "type": "Point", "coordinates": [ 26.722043, 58.3807033 ] } },
{ "type": "Feature", "properties": { "adr_id": "n6612731125", "street": "Rebase", "housenumber": "18a" }, "geometry": { "type": "Point", "coordinates": [ 26.7457364, 58.3690923 ] } },
{ "type": "Feature", "properties": { "adr_id": "n6646860001", "street": "Ülikooli", "housenumber": "10" }, "geometry": { "type": "Point", "coordinates": [ 26.7225014, 58.3789659 ] } },
{ "type": "Feature", "properties": { "adr_id": "n6652810384", "street": "Võru", "housenumber": "47a" }, "geometry": { "type": "Point", "coordinates": [ 26.7210205, 58.3681256 ] } },
{ "type": "Feature", "properties": { "adr_id": "n6669530430", "street": "Kastani", "housenumber": "42" }, "geometry": { "type": "Point", "coordinates": [ 26.7155407, 58.3708273 ] } },
{ "type": "Feature", "properties": { "adr_id": "n6669530439", "street": "Narva mnt", "housenumber": "3" }, "geometry": { "type": "Point", "coordinates": [ 26.7298928, 58.3811632 ] } },
{ "type": "Feature", "properties": { "adr_id": "n6669570499", "street": "Küüni", "housenumber": "4" }, "geometry": { "type": "Point", "coordinates": [ 26.7236891, 58.3794868 ] } },
{ "type": "Feature", "properties": { "adr_id": "n6669570500", "street": "Küüni", "housenumber": "4" }, "geometry": { "type": "Point", "coordinates": [ 26.7238251, 58.3795619 ] } },
{ "type": "Feature", "properties": { "adr_id": "n6669645875", "street": "Kastani", "housenumber": "48" }, "geometry": { "type": "Point", "coordinates": [ 26.7187552, 58.3695165 ] } },
{ "type": "Feature", "properties": { "adr_id": "n6669645876", "street": "Võru", "housenumber": "47e" }, "geometry": { "type": "Point", "coordinates": [ 26.7201806, 58.3685819 ] } },
{ "type": "Feature", "properties": { "adr_id": "n6690778424", "street": "Anne", "housenumber": "44" }, "geometry": { "type": "Point", "coordinates": [ 26.7527576, 58.3781764 ] } },
{ "type": "Feature", "properties": { "adr_id": "n6694556805", "street": "Vanemuise", "housenumber": "19" }, "geometry": { "type": "Point", "coordinates": [ 26.721416, 58.3762305 ] } },
{ "type": "Feature", "properties": { "adr_id": "n6793189036", "street": "Kalda tee", "housenumber": "43" }, "geometry": { "type": "Point", "coordinates": [ 26.7664697, 58.3685873 ] } },
{ "type": "Feature", "properties": { "adr_id": "n6793282840", "street": "Sõpruse pst", "housenumber": "4" }, "geometry": { "type": "Point", "coordinates": [ 26.75347, 58.379094 ] } },
{ "type": "Feature", "properties": { "adr_id": "n6822397852", "street": "Paju", "housenumber": "2" }, "geometry": { "type": "Point", "coordinates": [ 26.7392243, 58.37902 ] } },
{ "type": "Feature", "properties": { "adr_id": "n6856840944", "street": "Kalevi", "housenumber": "1" }, "geometry": { "type": "Point", "coordinates": [ 26.7264957, 58.3756426 ] } },
{ "type": "Feature", "properties": { "adr_id": "n6856840945", "street": "Kalevi", "housenumber": "1" }, "geometry": { "type": "Point", "coordinates": [ 26.725789, 58.3756876 ] } },
{ "type": "Feature", "properties": { "adr_id": "n6900879170", "street": "Riia", "housenumber": "1" }, "geometry": { "type": "Point", "coordinates": [ 26.7275486, 58.3780484 ] } },
{ "type": "Feature", "properties": { "adr_id": "n6900879171", "street": "Riia", "housenumber": "1" }, "geometry": { "type": "Point", "coordinates": [ 26.7268825, 58.3778128 ] } },
{ "type": "Feature", "properties": { "adr_id": "n6900879174", "street": "Riia", "housenumber": "1" }, "geometry": { "type": "Point", "coordinates": [ 26.7269096, 58.3776687 ] } },
{ "type": "Feature", "properties": { "adr_id": "n7001892530", "street": "Raatuse", "housenumber": "20" }, "geometry": { "type": "Point", "coordinates": [ 26.7303406, 58.382339 ] } },
{ "type": "Feature", "properties": { "adr_id": "n7072382594", "street": "Aleksandri", "housenumber": "4-2" }, "geometry": { "type": "Point", "coordinates": [ 26.7293104, 58.3763384 ] } },
{ "type": "Feature", "properties": { "adr_id": "n7077284765", "street": "Ravila", "housenumber": "19" }, "geometry": { "type": "Point", "coordinates": [ 26.695127, 58.3682172 ] } },
{ "type": "Feature", "properties": { "adr_id": "n7080353674", "street": "Pepleri", "housenumber": "35" }, "geometry": { "type": "Point", "coordinates": [ 26.7195814, 58.3735072 ] } },
{ "type": "Feature", "properties": { "adr_id": "n7130826971", "street": "Küüni", "housenumber": "7" }, "geometry": { "type": "Point", "coordinates": [ 26.7248373, 58.3782659 ] } },
{ "type": "Feature", "properties": { "adr_id": "n7204146278", "street": "Narva mnt", "housenumber": "18" }, "geometry": { "type": "Point", "coordinates": [ 26.7254328, 58.3849186 ] } },
{ "type": "Feature", "properties": { "adr_id": "n7204146279", "street": "Narva mnt", "housenumber": "18" }, "geometry": { "type": "Point", "coordinates": [ 26.7249959, 58.3853466 ] } },
{ "type": "Feature", "properties": { "adr_id": "n7204146280", "street": "Narva mnt", "housenumber": "18" }, "geometry": { "type": "Point", "coordinates": [ 26.7258583, 58.3857535 ] } },
{ "type": "Feature", "properties": { "adr_id": "n7214337160", "street": "Lossi", "housenumber": "3" }, "geometry": { "type": "Point", "coordinates": [ 26.719338, 58.3800403 ] } },
{ "type": "Feature", "properties": { "adr_id": "n7214519381", "street": "Juhan Liivi", "housenumber": "2d" }, "geometry": { "type": "Point", "coordinates": [ 26.7139413, 58.3775029 ] } },
{ "type": "Feature", "properties": { "adr_id": "n7230593960", "street": "Rüütli", "housenumber": "7" }, "geometry": { "type": "Point", "coordinates": [ 26.7222327, 58.380964 ] } },
{ "type": "Feature", "properties": { "adr_id": "n7404367049", "street": "Narva mnt", "housenumber": "112" }, "geometry": { "type": "Point", "coordinates": [ 26.7297884, 58.3919351 ] } },
{ "type": "Feature", "properties": { "adr_id": "n7404395590", "street": "Turu", "housenumber": "2" }, "geometry": { "type": "Point", "coordinates": [ 26.7304532, 58.3778925 ] } },
{ "type": "Feature", "properties": { "adr_id": "n7404444994", "street": "Kalda tee", "housenumber": "1с" }, "geometry": { "type": "Point", "coordinates": [ 26.7498543, 58.3733554 ] } },
{ "type": "Feature", "properties": { "adr_id": "n7447331272", "street": "Jakobi", "housenumber": "1" }, "geometry": { "type": "Point", "coordinates": [ 26.7191102, 58.3810268 ] } },
{ "type": "Feature", "properties": { "adr_id": "n7491795267", "street": "Ülikooli", "housenumber": "2A" }, "geometry": { "type": "Point", "coordinates": [ 26.7239263, 58.3774646 ] } },
{ "type": "Feature", "properties": { "adr_id": "n7491804011", "street": "Ülikooli", "housenumber": "2A" }, "geometry": { "type": "Point", "coordinates": [ 26.724337, 58.3775933 ] } },
{ "type": "Feature", "properties": { "adr_id": "n7491935970", "street": "Ülikooli", "housenumber": "2A" }, "geometry": { "type": "Point", "coordinates": [ 26.7239119, 58.3775065 ] } },
{ "type": "Feature", "properties": { "adr_id": "n7618519451", "street": "Jaama", "housenumber": "143" }, "geometry": { "type": "Point", "coordinates": [ 26.7559363, 58.3804357 ] } },
{ "type": "Feature", "properties": { "adr_id": "n7746427620", "street": "Poe", "housenumber": "10" }, "geometry": { "type": "Point", "coordinates": [ 26.7249218, 58.3799146 ] } },
{ "type": "Feature", "properties": { "adr_id": "n7746427621", "street": "Poe", "housenumber": "10" }, "geometry": { "type": "Point", "coordinates": [ 26.7247581, 58.3798549 ] } },
{ "type": "Feature", "properties": { "adr_id": "n7746642861", "street": "Jaama", "housenumber": "173" }, "geometry": { "type": "Point", "coordinates": [ 26.7641736, 58.3793827 ] } },
{ "type": "Feature", "properties": { "adr_id": "n7746642862", "street": "Jaama", "housenumber": "173" }, "geometry": { "type": "Point", "coordinates": [ 26.7640361, 58.3793765 ] } },
{ "type": "Feature", "properties": { "adr_id": "n7746642863", "street": "Jaama", "housenumber": "173" }, "geometry": { "type": "Point", "coordinates": [ 26.7643515, 58.3793678 ] } },
{ "type": "Feature", "properties": { "adr_id": "n7746642864", "street": "Jaama", "housenumber": "173" }, "geometry": { "type": "Point", "coordinates": [ 26.7644621, 58.3793757 ] } },
{ "type": "Feature", "properties": { "adr_id": "n7746642865", "street": "Jaama", "housenumber": "173" }, "geometry": { "type": "Point", "coordinates": [ 26.7645727, 58.3793835 ] } },
{ "type": "Feature", "properties": { "adr_id": "n7746642866", "street": "Jaama", "housenumber": "173" }, "geometry": { "type": "Point", "coordinates": [ 26.7646833, 58.3793913 ] } },
{ "type": "Feature", "properties": { "adr_id": "n7746642868", "street": "Jaama", "housenumber": "173a" }, "geometry": { "type": "Point", "coordinates": [ 26.7657977, 58.3795105 ] } },
{ "type": "Feature", "properties": { "adr_id": "n7746662277", "street": "Jaama", "housenumber": "173b" }, "geometry": { "type": "Point", "coordinates": [ 26.767356, 58.3796429 ] } },
{ "type": "Feature", "properties": { "adr_id": "n7752614831", "street": "Vitamiini", "housenumber": "1" }, "geometry": { "type": "Point", "coordinates": [ 26.6971336, 58.3761375 ] } },
{ "type": "Feature", "properties": { "adr_id": "n7752614836", "street": "Vitamiini", "housenumber": "1" }, "geometry": { "type": "Point", "coordinates": [ 26.6973128, 58.3761897 ] } },
{ "type": "Feature", "properties": { "adr_id": "n7752614838", "street": "Vitamiini", "housenumber": "1" }, "geometry": { "type": "Point", "coordinates": [ 26.6974468, 58.3762495 ] } },
{ "type": "Feature", "properties": { "adr_id": "n7752614839", "street": "Vitamiini", "housenumber": "1" }, "geometry": { "type": "Point", "coordinates": [ 26.6975359, 58.3764017 ] } },
{ "type": "Feature", "properties": { "adr_id": "n7752614840", "street": "Vitamiini", "housenumber": "1" }, "geometry": { "type": "Point", "coordinates": [ 26.6975138, 58.3762794 ] } },
{ "type": "Feature", "properties": { "adr_id": "n7752614841", "street": "Vitamiini", "housenumber": "1" }, "geometry": { "type": "Point", "coordinates": [ 26.6975808, 58.3763094 ] } },
{ "type": "Feature", "properties": { "adr_id": "n7770673585", "street": "Kalda tee", "housenumber": "41" }, "geometry": { "type": "Point", "coordinates": [ 26.7651959, 58.3696034 ] } },
{ "type": "Feature", "properties": { "adr_id": "n7770673586", "street": "Riia", "housenumber": "11" }, "geometry": { "type": "Point", "coordinates": [ 26.7220607, 58.374097 ] } },
{ "type": "Feature", "properties": { "adr_id": "n7770673587", "street": "Kalda tee", "housenumber": "24" }, "geometry": { "type": "Point", "coordinates": [ 26.762338, 58.3721855 ] } },
{ "type": "Feature", "properties": { "adr_id": "n7795404753", "street": "Suur kaar", "housenumber": "53" }, "geometry": { "type": "Point", "coordinates": [ 26.7048187, 58.3623498 ] } },
{ "type": "Feature", "properties": { "adr_id": "n7795404754", "street": "Suur kaar", "housenumber": "53" }, "geometry": { "type": "Point", "coordinates": [ 26.705094, 58.362471 ] } },
{ "type": "Feature", "properties": { "adr_id": "n7796373816", "street": "Võru", "housenumber": "55f" }, "geometry": { "type": "Point", "coordinates": [ 26.7192275, 58.3657567 ] } },
{ "type": "Feature", "properties": { "adr_id": "n7796373817", "street": "Kastani", "housenumber": "183c" }, "geometry": { "type": "Point", "coordinates": [ 26.7187699, 58.3660586 ] } },
{ "type": "Feature", "properties": { "adr_id": "n7796373818", "street": "Võru", "housenumber": "55f" }, "geometry": { "type": "Point", "coordinates": [ 26.7197911, 58.3657567 ] } },
{ "type": "Feature", "properties": { "adr_id": "n7796373819", "street": "Võru", "housenumber": "55f" }, "geometry": { "type": "Point", "coordinates": [ 26.7196972, 58.3658527 ] } },
{ "type": "Feature", "properties": { "adr_id": "n7796373820", "street": "Võru", "housenumber": "55f" }, "geometry": { "type": "Point", "coordinates": [ 26.7192781, 58.3655609 ] } },
{ "type": "Feature", "properties": { "adr_id": "n7796373821", "street": "Võru", "housenumber": "55f" }, "geometry": { "type": "Point", "coordinates": [ 26.7196442, 58.3655634 ] } },
{ "type": "Feature", "properties": { "adr_id": "n7796373822", "street": "Võru", "housenumber": "55f" }, "geometry": { "type": "Point", "coordinates": [ 26.7198321, 58.3653639 ] } },
{ "type": "Feature", "properties": { "adr_id": "n7796373823", "street": "Võru", "housenumber": "55f" }, "geometry": { "type": "Point", "coordinates": [ 26.7194034, 58.3655382 ] } },
{ "type": "Feature", "properties": { "adr_id": "n7796373824", "street": "Võru", "housenumber": "55f" }, "geometry": { "type": "Point", "coordinates": [ 26.7194491, 58.3654106 ] } },
{ "type": "Feature", "properties": { "adr_id": "n7796373825", "street": "Võru", "housenumber": "55f" }, "geometry": { "type": "Point", "coordinates": [ 26.7194564, 58.3653474 ] } },
{ "type": "Feature", "properties": { "adr_id": "n7796373826", "street": "Võru", "housenumber": "55f" }, "geometry": { "type": "Point", "coordinates": [ 26.7188952, 58.3653727 ] } },
{ "type": "Feature", "properties": { "adr_id": "n7796373829", "street": "Võru", "housenumber": "55f" }, "geometry": { "type": "Point", "coordinates": [ 26.7197044, 58.3655458 ] } },
{ "type": "Feature", "properties": { "adr_id": "n7796373831", "street": "Võru", "housenumber": "55f" }, "geometry": { "type": "Point", "coordinates": [ 26.7198634, 58.3650089 ] } },
{ "type": "Feature", "properties": { "adr_id": "n7796373833", "street": "Võru", "housenumber": "55f" }, "geometry": { "type": "Point", "coordinates": [ 26.7196852, 58.3649318 ] } },
{ "type": "Feature", "properties": { "adr_id": "n7796373834", "street": "Võru", "housenumber": "55f" }, "geometry": { "type": "Point", "coordinates": [ 26.719796, 58.3651213 ] } },
{ "type": "Feature", "properties": { "adr_id": "n7796373844", "street": "Võru", "housenumber": "55f" }, "geometry": { "type": "Point", "coordinates": [ 26.7196514, 58.3651163 ] } },
{ "type": "Feature", "properties": { "adr_id": "n7798306997", "street": "Kastani", "housenumber": "42" }, "geometry": { "type": "Point", "coordinates": [ 26.7156053, 58.3707828 ] } },
{ "type": "Feature", "properties": { "adr_id": "n7810323485", "street": "Kalda tee", "housenumber": "41" }, "geometry": { "type": "Point", "coordinates": [ 26.7650445, 58.3695405 ] } },
{ "type": "Feature", "properties": { "adr_id": "n7810323486", "street": "Kalda tee", "housenumber": "41" }, "geometry": { "type": "Point", "coordinates": [ 26.7650485, 58.3697044 ] } },
{ "type": "Feature", "properties": { "adr_id": "n7810323487", "street": "Kalda tee", "housenumber": "41" }, "geometry": { "type": "Point", "coordinates": [ 26.7654724, 58.3692378 ] } },
{ "type": "Feature", "properties": { "adr_id": "n7813445275", "street": "Raekoja plats", "housenumber": "8" }, "geometry": { "type": "Point", "coordinates": [ 26.7227701, 58.3803832 ] } },
{ "type": "Feature", "properties": { "adr_id": "n7816105657", "street": "Anne", "housenumber": "47" }, "geometry": { "type": "Point", "coordinates": [ 26.7498768, 58.3780815 ] } },
{ "type": "Feature", "properties": { "adr_id": "n7816105660", "street": "Anne", "housenumber": "47" }, "geometry": { "type": "Point", "coordinates": [ 26.7497882, 58.3781282 ] } },
{ "type": "Feature", "properties": { "adr_id": "n7816105664", "street": "Anne", "housenumber": "47" }, "geometry": { "type": "Point", "coordinates": [ 26.7501847, 58.3779194 ] } },
{ "type": "Feature", "properties": { "adr_id": "n7843469003", "street": "Turu", "housenumber": "14" }, "geometry": { "type": "Point", "coordinates": [ 26.7357934, 58.3748945 ] } },
{ "type": "Feature", "properties": { "adr_id": "n7862078008", "street": "Fortuuna", "housenumber": "35" }, "geometry": { "type": "Point", "coordinates": [ 26.7363514, 58.3808462 ] } },
{ "type": "Feature", "properties": { "adr_id": "n7914189461", "street": "Ülikooli", "housenumber": "18" }, "geometry": { "type": "Point", "coordinates": [ 26.7198434, 58.3813337 ] } },
{ "type": "Feature", "properties": { "adr_id": "n7914189462", "street": "Ülikooli", "housenumber": "16" }, "geometry": { "type": "Point", "coordinates": [ 26.7206305, 58.3804061 ] } },
{ "type": "Feature", "properties": { "adr_id": "n7914189463", "street": "Jakobi", "housenumber": "2" }, "geometry": { "type": "Point", "coordinates": [ 26.7200405, 58.3805573 ] } },
{ "type": "Feature", "properties": { "adr_id": "n7914189464", "street": "Jakobi", "housenumber": "2" }, "geometry": { "type": "Point", "coordinates": [ 26.7192656, 58.380465 ] } },
{ "type": "Feature", "properties": { "adr_id": "n7914189465", "street": "Jakobi", "housenumber": "2" }, "geometry": { "type": "Point", "coordinates": [ 26.7192237, 58.3802584 ] } },
{ "type": "Feature", "properties": { "adr_id": "n7914189466", "street": "Lossi", "housenumber": "3" }, "geometry": { "type": "Point", "coordinates": [ 26.7198489, 58.3801476 ] } },
{ "type": "Feature", "properties": { "adr_id": "n7914189467", "street": "Lossi", "housenumber": "36" }, "geometry": { "type": "Point", "coordinates": [ 26.716654, 58.3791587 ] } },
{ "type": "Feature", "properties": { "adr_id": "n7914189468", "street": "Lossi", "housenumber": "36" }, "geometry": { "type": "Point", "coordinates": [ 26.7173125, 58.378979 ] } },
{ "type": "Feature", "properties": { "adr_id": "n7914227273", "street": "Riia", "housenumber": "23" }, "geometry": { "type": "Point", "coordinates": [ 26.7183328, 58.3726835 ] } },
{ "type": "Feature", "properties": { "adr_id": "n7914227274", "street": "Vanemuise", "housenumber": "46" }, "geometry": { "type": "Point", "coordinates": [ 26.7164002, 58.3732913 ] } },
{ "type": "Feature", "properties": { "adr_id": "n7914308916", "street": "Nooruse", "housenumber": "1" }, "geometry": { "type": "Point", "coordinates": [ 26.6943529, 58.3658648 ] } },
{ "type": "Feature", "properties": { "adr_id": "n7914308917", "street": "Wilhelm Ostwaldi", "housenumber": "1" }, "geometry": { "type": "Point", "coordinates": [ 26.6905445, 58.366265 ] } },
{ "type": "Feature", "properties": { "adr_id": "n7914308918", "street": "Ravila", "housenumber": "14a" }, "geometry": { "type": "Point", "coordinates": [ 26.6931971, 58.36715 ] } },
{ "type": "Feature", "properties": { "adr_id": "n7914308919", "street": "Nooruse", "housenumber": "1" }, "geometry": { "type": "Point", "coordinates": [ 26.6946067, 58.3660313 ] } },
{ "type": "Feature", "properties": { "adr_id": "n7914308920", "street": "Ravila", "housenumber": "19" }, "geometry": { "type": "Point", "coordinates": [ 26.6937942, 58.36822 ] } },
{ "type": "Feature", "properties": { "adr_id": "n7914308921", "street": "Ravila", "housenumber": "19" }, "geometry": { "type": "Point", "coordinates": [ 26.6945604, 58.368094 ] } },
{ "type": "Feature", "properties": { "adr_id": "n7914308922", "street": "Ludvig Puusepa", "housenumber": "8" }, "geometry": { "type": "Point", "coordinates": [ 26.7008139, 58.3700212 ] } },
{ "type": "Feature", "properties": { "adr_id": "n7985792295", "street": "Ujula", "housenumber": "4" }, "geometry": { "type": "Point", "coordinates": [ 26.7214327, 58.3879812 ] } },
{ "type": "Feature", "properties": { "adr_id": "n8118296067", "street": "Kastani", "housenumber": "42" }, "geometry": { "type": "Point", "coordinates": [ 26.7165816, 58.3702621 ] } },
{ "type": "Feature", "properties": { "adr_id": "n8118296068", "street": "Kastani", "housenumber": "42" }, "geometry": { "type": "Point", "coordinates": [ 26.7166425, 58.3702218 ] } },
{ "type": "Feature", "properties": { "adr_id": "n8118350909", "street": "Kastani", "housenumber": "42" }, "geometry": { "type": "Point", "coordinates": [ 26.7153414, 58.3708191 ] } },
{ "type": "Feature", "properties": { "adr_id": "n8118434224", "street": "Kastani", "housenumber": "42" }, "geometry": { "type": "Point", "coordinates": [ 26.7160163, 58.3700971 ] } },
{ "type": "Feature", "properties": { "adr_id": "n8510441404", "street": "Ludvig Puusepa", "housenumber": "8" }, "geometry": { "type": "Point", "coordinates": [ 26.6995656, 58.3704454 ] } },
{ "type": "Feature", "properties": { "adr_id": "n8511577367", "street": "Riia", "housenumber": "23b" }, "geometry": { "type": "Point", "coordinates": [ 26.7177377, 58.3730407 ] } },
{ "type": "Feature", "properties": { "adr_id": "n8511611430", "street": "Raekoja plats", "housenumber": "5" }, "geometry": { "type": "Point", "coordinates": [ 26.7219842, 58.3803171 ] } },
{ "type": "Feature", "properties": { "adr_id": "n8760618082", "street": "Tähe", "housenumber": "61" }, "geometry": { "type": "Point", "coordinates": [ 26.72951, 58.3668587 ] } },
{ "type": "Feature", "properties": { "adr_id": "n8775800134", "street": "Vallikraavi", "housenumber": "23" }, "geometry": { "type": "Point", "coordinates": [ 26.715005, 58.3777521 ] } },
{ "type": "Feature", "properties": { "adr_id": "n8785143638", "street": "Vaksali", "housenumber": "14" }, "geometry": { "type": "Point", "coordinates": [ 26.704555, 58.3754421 ] } },
{ "type": "Feature", "properties": { "adr_id": "n8789351805", "street": "Kastani", "housenumber": "42" }, "geometry": { "type": "Point", "coordinates": [ 26.7160788, 58.3701129 ] } },
{ "type": "Feature", "properties": { "adr_id": "n8980723684", "street": "Võru", "housenumber": "50" }, "geometry": { "type": "Point", "coordinates": [ 26.7219064, 58.3708792 ] } },
{ "type": "Feature", "properties": { "adr_id": "n9210849014", "street": "Veski", "housenumber": "4" }, "geometry": { "type": "Point", "coordinates": [ 26.7101056, 58.3811893 ] } },
{ "type": "Feature", "properties": { "adr_id": "n9365268539", "street": "Kastani", "housenumber": "48" }, "geometry": { "type": "Point", "coordinates": [ 26.7188353, 58.3694656 ] } },
{ "type": "Feature", "properties": { "adr_id": "n9365659776", "street": "Võru", "housenumber": "47a" }, "geometry": { "type": "Point", "coordinates": [ 26.721085, 58.3681751 ] } },
{ "type": "Feature", "properties": { "adr_id": "n9534130783", "street": "Tehase", "housenumber": "21" }, "geometry": { "type": "Point", "coordinates": [ 26.7389839, 58.3613305 ] } },
{ "type": "Feature", "properties": { "adr_id": "n9663193378", "street": "Riia", "housenumber": "4" }, "geometry": { "type": "Point", "coordinates": [ 26.7273663, 58.376808 ] } },
{ "type": "Feature", "properties": { "adr_id": "n9663295196", "street": "Paju", "housenumber": "2" }, "geometry": { "type": "Point", "coordinates": [ 26.7392256, 58.3788751 ] } },
{ "type": "Feature", "properties": { "adr_id": "n9718494226", "street": "Riia", "housenumber": "2" }, "geometry": { "type": "Point", "coordinates": [ 26.7288304, 58.3765234 ] } },
{ "type": "Feature", "properties": { "adr_id": "n9751032878", "street": "Lossi", "housenumber": "36" }, "geometry": { "type": "Point", "coordinates": [ 26.7167453, 58.3789667 ] } },
{ "type": "Feature", "properties": { "adr_id": "n9898259380", "street": "Paju", "housenumber": "2" }, "geometry": { "type": "Point", "coordinates": [ 26.7390594, 58.3788818 ] } },
{ "type": "Feature", "properties": { "adr_id": "n10047362759", "street": "Lembitu", "housenumber": "2" }, "geometry": { "type": "Point", "coordinates": [ 26.7099271, 58.3700815 ] } },
{ "type": "Feature", "properties": { "adr_id": "n10057393220", "street": "Riia", "housenumber": "5" }, "geometry": { "type": "Point", "coordinates": [ 26.7243789, 58.375327 ] } },
{ "type": "Feature", "properties": { "adr_id": "n10160312798", "street": "Akadeemia", "housenumber": "3" }, "geometry": { "type": "Point", "coordinates": [ 26.7217702, 58.3755121 ] } },
{ "type": "Feature", "properties": { "adr_id": "n10188199627", "street": "Riia", "housenumber": "24" }, "geometry": { "type": "Point", "coordinates": [ 26.717268, 58.3716731 ] } },
{ "type": "Feature", "properties": { "adr_id": "n10188199628", "street": "Riia", "housenumber": "24" }, "geometry": { "type": "Point", "coordinates": [ 26.7168819, 58.3714637 ] } },
{ "type": "Feature", "properties": { "adr_id": "n10188277225", "street": "Kastani", "housenumber": "42" }, "geometry": { "type": "Point", "coordinates": [ 26.7158522, 58.3708989 ] } },
{ "type": "Feature", "properties": { "adr_id": "n10188277226", "street": "Kastani", "housenumber": "42" }, "geometry": { "type": "Point", "coordinates": [ 26.7157279, 58.3709475 ] } },
{ "type": "Feature", "properties": { "adr_id": "n10188811194", "street": "Vanemuise", "housenumber": "26" }, "geometry": { "type": "Point", "coordinates": [ 26.7207563, 58.3753972 ] } },
{ "type": "Feature", "properties": { "adr_id": "n10226282525", "street": "Ludvig Puusepa", "housenumber": "1a" }, "geometry": { "type": "Point", "coordinates": [ 26.7044891, 58.3676185 ] } },
{ "type": "Feature", "properties": { "adr_id": "n10226349713", "street": "Juhan Liivi", "housenumber": "2" }, "geometry": { "type": "Point", "coordinates": [ 26.7147338, 58.3782482 ] } },
{ "type": "Feature", "properties": { "adr_id": "n10259275184", "street": "Kroonuaia", "housenumber": "76" }, "geometry": { "type": "Point", "coordinates": [ 26.7209278, 58.3860682 ] } },
{ "type": "Feature", "properties": { "adr_id": "n10280555137", "street": "Julius Kuperjanovi", "housenumber": "70" }, "geometry": { "type": "Point", "coordinates": [ 26.7079574, 58.373951 ] } },
{ "type": "Feature", "properties": { "adr_id": "n10280555139", "street": "Julius Kuperjanovi", "housenumber": "70" }, "geometry": { "type": "Point", "coordinates": [ 26.7077319, 58.3740832 ] } },
{ "type": "Feature", "properties": { "adr_id": "n10280589374", "street": "Julius Kuperjanovi", "housenumber": "5a" }, "geometry": { "type": "Point", "coordinates": [ 26.7137043, 58.3766156 ] } },
{ "type": "Feature", "properties": { "adr_id": "n10280597819", "street": "Julius Kuperjanovi", "housenumber": "62" }, "geometry": { "type": "Point", "coordinates": [ 26.7085145, 58.3745918 ] } },
{ "type": "Feature", "properties": { "adr_id": "n10280597820", "street": "Julius Kuperjanovi", "housenumber": "18a" }, "geometry": { "type": "Point", "coordinates": [ 26.712787, 58.3763498 ] } },
{ "type": "Feature", "properties": { "adr_id": "n10280609670", "street": "Tiigi", "housenumber": "6" }, "geometry": { "type": "Point", "coordinates": [ 26.7181752, 58.3762203 ] } },
{ "type": "Feature", "properties": { "adr_id": "n10280609671", "street": "Tiigi", "housenumber": "6" }, "geometry": { "type": "Point", "coordinates": [ 26.7185236, 58.3763962 ] } },
{ "type": "Feature", "properties": { "adr_id": "n10280643831", "street": "Akadeemia", "housenumber": "4" }, "geometry": { "type": "Point", "coordinates": [ 26.7192064, 58.3765859 ] } },
{ "type": "Feature", "properties": { "adr_id": "n10280643832", "street": "Vallikraavi", "housenumber": "8" }, "geometry": { "type": "Point", "coordinates": [ 26.7208417, 58.3779311 ] } },
{ "type": "Feature", "properties": { "adr_id": "n10305115661", "street": "Gildi", "housenumber": "9" }, "geometry": { "type": "Point", "coordinates": [ 26.722457, 58.3817034 ] } },
{ "type": "Feature", "properties": { "adr_id": "n10305115662", "street": "Rüütli", "housenumber": "11" }, "geometry": { "type": "Point", "coordinates": [ 26.7218058, 58.381509 ] } },
{ "type": "Feature", "properties": { "adr_id": "n10305115663", "street": "Rüütli", "housenumber": "12" }, "geometry": { "type": "Point", "coordinates": [ 26.7215142, 58.3815154 ] } },
{ "type": "Feature", "properties": { "adr_id": "n10305115664", "street": "Rüütli", "housenumber": "12" }, "geometry": { "type": "Point", "coordinates": [ 26.7215663, 58.381428 ] } },
{ "type": "Feature", "properties": { "adr_id": "n10305115665", "street": "Rüütli", "housenumber": "10" }, "geometry": { "type": "Point", "coordinates": [ 26.7216088, 58.3813135 ] } },
{ "type": "Feature", "properties": { "adr_id": "n10305485921", "street": "Kastani", "housenumber": "64a" }, "geometry": { "type": "Point", "coordinates": [ 26.7193777, 58.3688642 ] } },
{ "type": "Feature", "properties": { "adr_id": "n10305485922", "street": "Kompanii", "housenumber": "4" }, "geometry": { "type": "Point", "coordinates": [ 26.7231322, 58.3814693 ] } },
{ "type": "Feature", "properties": { "adr_id": "n10305485923", "street": "Küütri", "housenumber": "16" }, "geometry": { "type": "Point", "coordinates": [ 26.7231676, 58.3813327 ] } },
{ "type": "Feature", "properties": { "adr_id": "n10305485924", "street": "Kompanii", "housenumber": "2" }, "geometry": { "type": "Point", "coordinates": [ 26.7237152, 58.3809011 ] } },
{ "type": "Feature", "properties": { "adr_id": "n10305485925", "street": "Raekoja plats", "housenumber": "11" }, "geometry": { "type": "Point", "coordinates": [ 26.7242223, 58.3802793 ] } },
{ "type": "Feature", "properties": { "adr_id": "n10305485926", "street": "Raekoja plats", "housenumber": "14" }, "geometry": { "type": "Point", "coordinates": [ 26.7237449, 58.3805259 ] } },
{ "type": "Feature", "properties": { "adr_id": "n10305485928", "street": "Raekoja plats", "housenumber": "8" }, "geometry": { "type": "Point", "coordinates": [ 26.7226603, 58.3803805 ] } },
{ "type": "Feature", "properties": { "adr_id": "n10305485929", "street": "Raekoja plats", "housenumber": "8" }, "geometry": { "type": "Point", "coordinates": [ 26.7224572, 58.3804268 ] } },
{ "type": "Feature", "properties": { "adr_id": "n10306513379", "street": "Rüütli", "housenumber": "5" }, "geometry": { "type": "Point", "coordinates": [ 26.7223093, 58.3806532 ] } },
{ "type": "Feature", "properties": { "adr_id": "n10306513380", "street": "Rüütli", "housenumber": "7" }, "geometry": { "type": "Point", "coordinates": [ 26.7222149, 58.3808408 ] } },
{ "type": "Feature", "properties": { "adr_id": "n10308501840", "street": "Gildi", "housenumber": "9" }, "geometry": { "type": "Point", "coordinates": [ 26.7226754, 58.3816181 ] } },
{ "type": "Feature", "properties": { "adr_id": "n10308503624", "street": "Turu", "housenumber": "2" }, "geometry": { "type": "Point", "coordinates": [ 26.7305049, 58.3781015 ] } },
{ "type": "Feature", "properties": { "adr_id": "n10687606966", "street": "Lepiku", "housenumber": "7a/1" }, "geometry": { "type": "Point", "coordinates": [ 26.713546, 58.3852606 ] } },
{ "type": "Feature", "properties": { "adr_id": "n10720694072", "street": "Ihaste tee", "housenumber": "7" }, "geometry": { "type": "Point", "coordinates": [ 26.7529377, 58.3706343 ] } },
{ "type": "Feature", "properties": { "adr_id": "n10743246087", "street": "Jaama", "housenumber": "74" }, "geometry": { "type": "Point", "coordinates": [ 26.7511777, 58.38175 ] } },
{ "type": "Feature", "properties": { "adr_id": "n10743246099", "street": "Kalda tee", "housenumber": "43" }, "geometry": { "type": "Point", "coordinates": [ 26.7666388, 58.368422 ] } },
{ "type": "Feature", "properties": { "adr_id": "n10743260812", "street": "Raatuse", "housenumber": "21" }, "geometry": { "type": "Point", "coordinates": [ 26.7307509, 58.3818225 ] } },
{ "type": "Feature", "properties": { "adr_id": "n10743260820", "street": "Ujula", "housenumber": "2" }, "geometry": { "type": "Point", "coordinates": [ 26.7238343, 58.3868028 ] } },
{ "type": "Feature", "properties": { "adr_id": "n10743260826", "street": "Kalda tee", "housenumber": "32" }, "geometry": { "type": "Point", "coordinates": [ 26.7687183, 58.3699535 ] } },
{ "type": "Feature", "properties": { "adr_id": "n10743260830", "street": "Anne", "housenumber": "57" }, "geometry": { "type": "Point", "coordinates": [ 26.7565718, 58.3750586 ] } },
{ "type": "Feature", "properties": { "adr_id": "n10743260831", "street": "Kalda tee", "housenumber": "15" }, "geometry": { "type": "Point", "coordinates": [ 26.763045, 58.3709881 ] } },
{ "type": "Feature", "properties": { "adr_id": "n10743260834", "street": "F. R. Kreutzwaldi", "housenumber": "62" }, "geometry": { "type": "Point", "coordinates": [ 26.6881148, 58.3921296 ] } },
{ "type": "Feature", "properties": { "adr_id": "n10956838295", "street": "Narva mnt", "housenumber": "27a" }, "geometry": { "type": "Point", "coordinates": [ 26.7271983, 58.3842984 ] } },
{ "type": "Feature", "properties": { "adr_id": "n10976100280", "street": "Kroonuaia", "housenumber": "76" }, "geometry": { "type": "Point", "coordinates": [ 26.7209766, 58.386078 ] } },
{ "type": "Feature", "properties": { "adr_id": "n11057097971", "street": "Kroonuaia", "housenumber": "76" }, "geometry": { "type": "Point", "coordinates": [ 26.720858, 58.386087 ] } },
{ "type": "Feature", "properties": { "adr_id": "n11129640178", "street": "Kaunase pst", "housenumber": "21" }, "geometry": { "type": "Point", "coordinates": [ 26.7679274, 58.3741707 ] } },
{ "type": "Feature", "properties": { "adr_id": "n11129640179", "street": "Kaunase pst", "housenumber": "21" }, "geometry": { "type": "Point", "coordinates": [ 26.7679138, 58.3743101 ] } },
{ "type": "Feature", "properties": { "adr_id": "n11155591147", "street": "Turu", "housenumber": "14" }, "geometry": { "type": "Point", "coordinates": [ 26.7360339, 58.3743635 ] } },
{ "type": "Feature", "properties": { "adr_id": "n11160680343", "street": "Wilhelm Struve", "housenumber": "1" }, "geometry": { "type": "Point", "coordinates": [ 26.7212086, 58.376653 ] } },
{ "type": "Feature", "properties": { "adr_id": "n11162944628", "street": "Lai", "housenumber": "29" }, "geometry": { "type": "Point", "coordinates": [ 26.7202286, 58.3834904 ] } },
{ "type": "Feature", "properties": { "adr_id": "n11292538172", "street": "Puiestee", "housenumber": "110a" }, "geometry": { "type": "Point", "coordinates": [ 26.7379817, 58.3864641 ] } },
{ "type": "Feature", "properties": { "adr_id": "n11351234190", "street": "Tiigi", "housenumber": "12" }, "geometry": { "type": "Point", "coordinates": [ 26.7149003, 58.375006 ] } },
{ "type": "Feature", "properties": { "adr_id": "n11351234191", "street": "Tiigi", "housenumber": "19" }, "geometry": { "type": "Point", "coordinates": [ 26.7137679, 58.3750926 ] } },
{ "type": "Feature", "properties": { "adr_id": "n11351234193", "street": "Tiigi", "housenumber": "78" }, "geometry": { "type": "Point", "coordinates": [ 26.7111265, 58.3737819 ] } },
{ "type": "Feature", "properties": { "adr_id": "n11351234198", "street": "Vaksali", "housenumber": "17a" }, "geometry": { "type": "Point", "coordinates": [ 26.7094612, 58.3731635 ] } },
{ "type": "Feature", "properties": { "adr_id": "n11351234199", "street": "Vaksali", "housenumber": "17a" }, "geometry": { "type": "Point", "coordinates": [ 26.7095352, 58.3730978 ] } },
{ "type": "Feature", "properties": { "adr_id": "n11351234200", "street": "Vaksali", "housenumber": "17a" }, "geometry": { "type": "Point", "coordinates": [ 26.7095519, 58.3731428 ] } },
{ "type": "Feature", "properties": { "adr_id": "n11351234201", "street": "Riia", "housenumber": "2" }, "geometry": { "type": "Point", "coordinates": [ 26.7296866, 58.3768776 ] } },
{ "type": "Feature", "properties": { "adr_id": "n11351234202", "street": "Vaksali", "housenumber": "17a" }, "geometry": { "type": "Point", "coordinates": [ 26.7096904, 58.3727827 ] } },
{ "type": "Feature", "properties": { "adr_id": "n11351234203", "street": "Vaksali", "housenumber": "17a" }, "geometry": { "type": "Point", "coordinates": [ 26.7098013, 58.372796 ] } },
{ "type": "Feature", "properties": { "adr_id": "n11351234204", "street": "Vaksali", "housenumber": "17a" }, "geometry": { "type": "Point", "coordinates": [ 26.7097244, 58.3728207 ] } },
{ "type": "Feature", "properties": { "adr_id": "n11351234205", "street": "Vaksali", "housenumber": "17a" }, "geometry": { "type": "Point", "coordinates": [ 26.7098511, 58.3728614 ] } },
{ "type": "Feature", "properties": { "adr_id": "n11494308816", "street": "Riia", "housenumber": "1" }, "geometry": { "type": "Point", "coordinates": [ 26.7267524, 58.3778356 ] } },
{ "type": "Feature", "properties": { "adr_id": "n11494604004", "street": "Riia", "housenumber": "1" }, "geometry": { "type": "Point", "coordinates": [ 26.7272183, 58.3780646 ] } },
{ "type": "Feature", "properties": { "adr_id": "n11494604005", "street": "Riia", "housenumber": "1" }, "geometry": { "type": "Point", "coordinates": [ 26.727392, 58.3776714 ] } },
{ "type": "Feature", "properties": { "adr_id": "n11494604006", "street": "Riia", "housenumber": "1" }, "geometry": { "type": "Point", "coordinates": [ 26.7273287, 58.3775824 ] } },
{ "type": "Feature", "properties": { "adr_id": "n11573330630", "street": "Kastani", "housenumber": "42" }, "geometry": { "type": "Point", "coordinates": [ 26.7160094, 58.3707704 ] } },
{ "type": "Feature", "properties": { "adr_id": "n11676763457", "street": "Narva mnt", "housenumber": "18" }, "geometry": { "type": "Point", "coordinates": [ 26.7255472, 58.3847689 ] } },
{ "type": "Feature", "properties": { "adr_id": "n11685092822", "street": "Jaama", "housenumber": "161" }, "geometry": { "type": "Point", "coordinates": [ 26.7615044, 58.3800122 ] } },
{ "type": "Feature", "properties": { "adr_id": "n11711197877", "street": "Kalda tee", "housenumber": "13" }, "geometry": { "type": "Point", "coordinates": [ 26.761274, 58.3715661 ] } },
{ "type": "Feature", "properties": { "adr_id": "n11769892906", "street": "Narva mnt", "housenumber": "3" }, "geometry": { "type": "Point", "coordinates": [ 26.7303577, 58.3809351 ] } },
{ "type": "Feature", "properties": { "adr_id": "n11873804792", "street": "Karl Ernst von Baeri", "housenumber": "1" }, "geometry": { "type": "Point", "coordinates": [ 26.7139452, 58.3821255 ] } },
{ "type": "Feature", "properties": { "adr_id": "n11917563028", "street": "Turu", "housenumber": "14" }, "geometry": { "type": "Point", "coordinates": [ 26.7359384, 58.3749679 ] } },
{ "type": "Feature", "properties": { "adr_id": "n11917595153", "street": "Aleksandri", "housenumber": "9" }, "geometry": { "type": "Point", "coordinates": [ 26.7306992, 58.374813 ] } },
{ "type": "Feature", "properties": { "adr_id": "n11937487249", "street": "Kalda tee", "housenumber": "1c" }, "geometry": { "type": "Point", "coordinates": [ 26.7489183, 58.3734886 ] } },
{ "type": "Feature", "properties": { "adr_id": "n11990114760", "street": "Vitamiini", "housenumber": "1" }, "geometry": { "type": "Point", "coordinates": [ 26.6968952, 58.3761302 ] } },
{ "type": "Feature", "properties": { "adr_id": "n11990114761", "street": "vita", "housenumber": "1" }, "geometry": { "type": "Point", "coordinates": [ 26.6970211, 58.3761312 ] } },
{ "type": "Feature", "properties": { "adr_id": "n12022893794", "street": "Näituse", "housenumber": "29" }, "geometry": { "type": "Point", "coordinates": [ 26.7023251, 58.3779675 ] } },
{ "type": "Feature", "properties": { "adr_id": "n12028940192", "street": "Võru", "housenumber": "65" }, "geometry": { "type": "Point", "coordinates": [ 26.7208636, 58.3625871 ] } },
{ "type": "Feature", "properties": { "adr_id": "n12028940193", "street": "Võru", "housenumber": "65" }, "geometry": { "type": "Point", "coordinates": [ 26.7208772, 58.3624665 ] } },
{ "type": "Feature", "properties": { "adr_id": "n12028940194", "street": "Võru", "housenumber": "65b" }, "geometry": { "type": "Point", "coordinates": [ 26.7205695, 58.3623677 ] } },
{ "type": "Feature", "properties": { "adr_id": "n12028940195", "street": "Võru", "housenumber": "67" }, "geometry": { "type": "Point", "coordinates": [ 26.7206019, 58.3620804 ] } },
{ "type": "Feature", "properties": { "adr_id": "n12028940196", "street": "Võru", "housenumber": "148a" }, "geometry": { "type": "Point", "coordinates": [ 26.7217026, 58.3613558 ] } },
{ "type": "Feature", "properties": { "adr_id": "n12029165419", "street": "Võru", "housenumber": "55f" }, "geometry": { "type": "Point", "coordinates": [ 26.7192354, 58.3653286 ] } },
{ "type": "Feature", "properties": { "adr_id": "n12029165420", "street": "Võru", "housenumber": "55f" }, "geometry": { "type": "Point", "coordinates": [ 26.719736, 58.3653168 ] } },
{ "type": "Feature", "properties": { "adr_id": "n12029165421", "street": "Võru", "housenumber": "55f" }, "geometry": { "type": "Point", "coordinates": [ 26.7195869, 58.3658088 ] } },
{ "type": "Feature", "properties": { "adr_id": "n12029165422", "street": "Võru", "housenumber": "55f" }, "geometry": { "type": "Point", "coordinates": [ 26.7195296, 58.3650489 ] } },
{ "type": "Feature", "properties": { "adr_id": "n12029165423", "street": "Võru", "housenumber": "55" }, "geometry": { "type": "Point", "coordinates": [ 26.7199153, 58.3642187 ] } },
{ "type": "Feature", "properties": { "adr_id": "n12029165424", "street": "Võru", "housenumber": "55" }, "geometry": { "type": "Point", "coordinates": [ 26.7198509, 58.364254 ] } },
{ "type": "Feature", "properties": { "adr_id": "n12029165425", "street": "Võru", "housenumber": "55" }, "geometry": { "type": "Point", "coordinates": [ 26.7196282, 58.3642436 ] } },
{ "type": "Feature", "properties": { "adr_id": "n12029165426", "street": "Võru", "housenumber": "55" }, "geometry": { "type": "Point", "coordinates": [ 26.7193635, 58.3642513 ] } },
{ "type": "Feature", "properties": { "adr_id": "n12029181262", "street": "Võru", "housenumber": "57" }, "geometry": { "type": "Point", "coordinates": [ 26.7207251, 58.3634635 ] } },
{ "type": "Feature", "properties": { "adr_id": "n12030565278", "street": "Kastani", "housenumber": "44" }, "geometry": { "type": "Point", "coordinates": [ 26.7162502, 58.3699 ] } },
{ "type": "Feature", "properties": { "adr_id": "n12032709936", "street": "Filosoofi", "housenumber": "1" }, "geometry": { "type": "Point", "coordinates": [ 26.7174342, 58.371437 ] } },
{ "type": "Feature", "properties": { "adr_id": "n12032732641", "street": "Vaksali", "housenumber": "7" }, "geometry": { "type": "Point", "coordinates": [ 26.7120259, 58.3713036 ] } },
{ "type": "Feature", "properties": { "adr_id": "n12032744464", "street": "Vanemuise", "housenumber": "64" }, "geometry": { "type": "Point", "coordinates": [ 26.7114991, 58.3723583 ] } },
{ "type": "Feature", "properties": { "adr_id": "n12033685347", "street": "Väike-Tähe", "housenumber": "20" }, "geometry": { "type": "Point", "coordinates": [ 26.7202284, 58.3724409 ] } },
{ "type": "Feature", "properties": { "adr_id": "n12037143746", "street": "Võru", "housenumber": "126a" }, "geometry": { "type": "Point", "coordinates": [ 26.7216463, 58.3656055 ] } },
{ "type": "Feature", "properties": { "adr_id": "n12040152430", "street": "Jaani", "housenumber": "16" }, "geometry": { "type": "Point", "coordinates": [ 26.7187881, 58.3829237 ] } },
{ "type": "Feature", "properties": { "adr_id": "n12057747269", "street": "Väike-Tähe", "housenumber": "20" }, "geometry": { "type": "Point", "coordinates": [ 26.7204727, 58.3722857 ] } },
{ "type": "Feature", "properties": { "adr_id": "n12087237373", "street": "Lutsu", "housenumber": "3" }, "geometry": { "type": "Point", "coordinates": [ 26.7184914, 58.3822011 ] } },
{ "type": "Feature", "properties": { "adr_id": "n12133861268", "street": "Julius Kuperjanovi", "housenumber": "18a" }, "geometry": { "type": "Point", "coordinates": [ 26.7131437, 58.376382 ] } },
{ "type": "Feature", "properties": { "adr_id": "n12133861269", "street": "Julius Kuperjanovi", "housenumber": "18a" }, "geometry": { "type": "Point", "coordinates": [ 26.7129769, 58.3763712 ] } },
{ "type": "Feature", "properties": { "adr_id": "n12186075707", "street": "Veski", "housenumber": "35" }, "geometry": { "type": "Point", "coordinates": [ 26.7091487, 58.3795997 ] } },
{ "type": "Feature", "properties": { "adr_id": "n12254927630", "street": "Aleksandri", "housenumber": "14" }, "geometry": { "type": "Point", "coordinates": [ 26.7325384, 58.3743165 ] } },
{ "type": "Feature", "properties": { "adr_id": "n12293814145", "street": "Kastani", "housenumber": "48" }, "geometry": { "type": "Point", "coordinates": [ 26.7168017, 58.369665 ] } },
{ "type": "Feature", "properties": { "adr_id": "n12301296065", "street": "Herne", "housenumber": "6" }, "geometry": { "type": "Point", "coordinates": [ 26.7168194, 58.3848508 ] } },
{ "type": "Feature", "properties": { "adr_id": "n12301296077", "street": "Herne", "housenumber": "6" }, "geometry": { "type": "Point", "coordinates": [ 26.7167441, 58.3849077 ] } },
{ "type": "Feature", "properties": { "adr_id": "n12301296088", "street": "Herne", "housenumber": "6" }, "geometry": { "type": "Point", "coordinates": [ 26.7168314, 58.3848629 ] } },
{ "type": "Feature", "properties": { "adr_id": "n12379263436", "street": "Väike-Tähe", "housenumber": "20" }, "geometry": { "type": "Point", "coordinates": [ 26.7201542, 58.3724705 ] } },
{ "type": "Feature", "properties": { "adr_id": "n12379263437", "street": "Väike-Tähe", "housenumber": "20" }, "geometry": { "type": "Point", "coordinates": [ 26.7201303, 58.3724084 ] } },
{ "type": "Feature", "properties": { "adr_id": "n12379263448", "street": "Väike-Tähe", "housenumber": "20" }, "geometry": { "type": "Point", "coordinates": [ 26.7202359, 58.372375 ] } },
{ "type": "Feature", "properties": { "adr_id": "n12379285048", "street": "Riia", "housenumber": "37" }, "geometry": { "type": "Point", "coordinates": [ 26.7136188, 58.3705644 ] } },
{ "type": "Feature", "properties": { "adr_id": "n12379285049", "street": "Pepleri", "housenumber": "32" }, "geometry": { "type": "Point", "coordinates": [ 26.7199318, 58.3738739 ] } },
{ "type": "Feature", "properties": { "adr_id": "n12382349925", "street": "Riia", "housenumber": "24A" }, "geometry": { "type": "Point", "coordinates": [ 26.7165429, 58.3713207 ] } },
{ "type": "Feature", "properties": { "adr_id": "n12453093609", "street": "Vaksali", "housenumber": "4" }, "geometry": { "type": "Point", "coordinates": [ 26.7076457, 58.373485 ] } },
{ "type": "Feature", "properties": { "adr_id": "n12458826998", "street": "Raatuse", "housenumber": "20" }, "geometry": { "type": "Point", "coordinates": [ 26.7301601, 58.3821599 ] } },
{ "type": "Feature", "properties": { "adr_id": "n12458826999", "street": "Raatuse", "housenumber": "21" }, "geometry": { "type": "Point", "coordinates": [ 26.7310523, 58.381825 ] } },
{ "type": "Feature", "properties": { "adr_id": "n12458833610", "street": "Raatuse", "housenumber": "21" }, "geometry": { "type": "Point", "coordinates": [ 26.7310648, 58.3817707 ] } },
{ "type": "Feature", "properties": { "adr_id": "n12458833611", "street": "Raatuse", "housenumber": "21" }, "geometry": { "type": "Point", "coordinates": [ 26.7309175, 58.3817033 ] } },
{ "type": "Feature", "properties": { "adr_id": "n12458833612", "street": "Raatuse", "housenumber": "21" }, "geometry": { "type": "Point", "coordinates": [ 26.7309337, 58.3814384 ] } },
{ "type": "Feature", "properties": { "adr_id": "n12458833613", "street": "Raatuse", "housenumber": "21" }, "geometry": { "type": "Point", "coordinates": [ 26.7311109, 58.3815986 ] } },
{ "type": "Feature", "properties": { "adr_id": "n12458833614", "street": "Raatuse", "housenumber": "21" }, "geometry": { "type": "Point", "coordinates": [ 26.7310797, 58.381649 ] } },
{ "type": "Feature", "properties": { "adr_id": "n12458833615", "street": "Raatuse", "housenumber": "21" }, "geometry": { "type": "Point", "coordinates": [ 26.7311184, 58.3817223 ] } },
{ "type": "Feature", "properties": { "adr_id": "n12458833616", "street": "Raatuse", "housenumber": "21" }, "geometry": { "type": "Point", "coordinates": [ 26.7310751, 58.3815451 ] } },
{ "type": "Feature", "properties": { "adr_id": "n12458833617", "street": "Raatuse", "housenumber": "21" }, "geometry": { "type": "Point", "coordinates": [ 26.7310498, 58.3814992 ] } },
{ "type": "Feature", "properties": { "adr_id": "n12465397533", "street": "Kalda tee", "housenumber": "1c" }, "geometry": { "type": "Point", "coordinates": [ 26.7507422, 58.3735625 ] } },
{ "type": "Feature", "properties": { "adr_id": "n12465397534", "street": "Ujula", "housenumber": "2" }, "geometry": { "type": "Point", "coordinates": [ 26.7243528, 58.3864033 ] } },
{ "type": "Feature", "properties": { "adr_id": "n12543421981", "street": "Jakobi", "housenumber": "23" }, "geometry": { "type": "Point", "coordinates": [ 26.7140192, 58.3826074 ] } },
{ "type": "Feature", "properties": { "adr_id": "n12543421987", "street": "Jakobi", "housenumber": "23" }, "geometry": { "type": "Point", "coordinates": [ 26.713954, 58.3826006 ] } },
{ "type": "Feature", "properties": { "adr_id": "n12587736173", "street": "Jaama", "housenumber": "71" }, "geometry": { "type": "Point", "coordinates": [ 26.7406719, 58.3837594 ] } },
{ "type": "Feature", "properties": { "adr_id": "n12629851452", "street": "Magasini", "housenumber": "5" }, "geometry": { "type": "Point", "coordinates": [ 26.7220275, 58.3834972 ] } },
{ "type": "Feature", "properties": { "adr_id": "n12662111673", "street": "Munga", "housenumber": "4" }, "geometry": { "type": "Point", "coordinates": [ 26.7185485, 58.381748 ] } },
{ "type": "Feature", "properties": { "adr_id": "n12829761460", "street": "Puiestee", "housenumber": "73A" }, "geometry": { "type": "Point", "coordinates": [ 26.7363882, 58.3864531 ] } },
{ "type": "Feature", "properties": { "adr_id": "n12872923001", "street": "Rüütli", "housenumber": "18" }, "geometry": { "type": "Point", "coordinates": [ 26.7212235, 58.3820074 ] } },
{ "type": "Feature", "properties": { "adr_id": "n12872951501", "street": "Kalda tee", "housenumber": "43" }, "geometry": { "type": "Point", "coordinates": [ 26.7667403, 58.3683538 ] } },
{ "type": "Feature", "properties": { "adr_id": "n12984145501", "street": "Peetri", "housenumber": "26a" }, "geometry": { "type": "Point", "coordinates": [ 26.7267249, 58.391721 ] } },
{ "type": "Feature", "properties": { "adr_id": "n13040058285", "street": "Gildi", "housenumber": "7" }, "geometry": { "type": "Point", "coordinates": [ 26.7222899, 58.3817027 ] } },
{ "type": "Feature", "properties": { "adr_id": "n13040080385", "street": "Rüütli", "housenumber": "12" }, "geometry": { "type": "Point", "coordinates": [ 26.7213225, 58.3814887 ] } },
{ "type": "Feature", "properties": { "adr_id": "n13064056801", "street": "Raekoja plats", "housenumber": "6" }, "geometry": { "type": "Point", "coordinates": [ 26.722152, 58.3803158 ] } },
{ "type": "Feature", "properties": { "adr_id": "n13114197202", "street": "Lai", "housenumber": "30" }, "geometry": { "type": "Point", "coordinates": [ 26.7192652, 58.3835268 ] } },
{ "type": "Feature", "properties": { "adr_id": "n13116662801", "street": "Tähe", "housenumber": "21" }, "geometry": { "type": "Point", "coordinates": [ 26.7274201, 58.3700229 ] } },
{ "type": "Feature", "properties": { "adr_id": "n13118797908", "street": "Ülikooli", "housenumber": "2A" }, "geometry": { "type": "Point", "coordinates": [ 26.7243332, 58.3775613 ] } },
{ "type": "Feature", "properties": { "adr_id": "n13121582801", "street": "Tähe", "housenumber": "29" }, "geometry": { "type": "Point", "coordinates": [ 26.727636, 58.369817 ] } },
{ "type": "Feature", "properties": { "adr_id": "n13125524162", "street": "Vaksali", "housenumber": "6" }, "geometry": { "type": "Point", "coordinates": [ 26.706989, 58.3736349 ] } },
{ "type": "Feature", "properties": { "adr_id": "n13169447801", "street": "Pepleri", "housenumber": "34" }, "geometry": { "type": "Point", "coordinates": [ 26.7201234, 58.373464 ] } },
{ "type": "Feature", "properties": { "adr_id": "n13169463001", "street": "Soola", "housenumber": "8" }, "geometry": { "type": "Point", "coordinates": [ 26.7321627, 58.378567 ] } },
{ "type": "Feature", "properties": { "adr_id": "n13169464501", "street": "Võru", "housenumber": "10" }, "geometry": { "type": "Point", "coordinates": [ 26.7230842, 58.3732579 ] } },
{ "type": "Feature", "properties": { "adr_id": "n13169464901", "street": "Võru", "housenumber": "10" }, "geometry": { "type": "Point", "coordinates": [ 26.7230842, 58.3732579 ] } },
{ "type": "Feature", "properties": { "adr_id": "n13243167118", "street": "Koidu", "housenumber": "13" }, "geometry": { "type": "Point", "coordinates": [ 26.7237926, 58.3712796 ] } },
{ "type": "Feature", "properties": { "adr_id": "n13255849301", "street": "Tähe", "housenumber": "19" }, "geometry": { "type": "Point", "coordinates": [ 26.72729, 58.370263 ] } },
{ "type": "Feature", "properties": { "adr_id": "n13255849501", "street": "Tähe", "housenumber": "21" }, "geometry": { "type": "Point", "coordinates": [ 26.7275234, 58.3699534 ] } },
{ "type": "Feature", "properties": { "adr_id": "n13255849601", "street": "Tähe", "housenumber": "26" }, "geometry": { "type": "Point", "coordinates": [ 26.7279821, 58.3698396 ] } },
{ "type": "Feature", "properties": { "adr_id": "n13255849701", "street": "Tähe", "housenumber": "39" }, "geometry": { "type": "Point", "coordinates": [ 26.7283004, 58.3687274 ] } },
{ "type": "Feature", "properties": { "adr_id": "n13262636001", "street": "Ülikooli", "housenumber": "2a" }, "geometry": { "type": "Point", "coordinates": [ 26.7242333, 58.3776772 ] } },
{ "type": "Feature", "properties": { "adr_id": "n13266928402", "street": "Tiigi", "housenumber": "55" }, "geometry": { "type": "Point", "coordinates": [ 26.7129165, 58.375262 ] } },
{ "type": "Feature", "properties": { "adr_id": "n13273653902", "street": "Puiestee", "housenumber": "2f" }, "geometry": { "type": "Point", "coordinates": [ 26.7172192, 58.3940427 ] } },
{ "type": "Feature", "properties": { "adr_id": "n13286955801", "street": "Tiigi", "housenumber": "11" }, "geometry": { "type": "Point", "coordinates": [ 26.7178669, 58.3770913 ] } },
{ "type": "Feature", "properties": { "adr_id": "n13322514701", "street": "Jakobi", "housenumber": "17" }, "geometry": { "type": "Point", "coordinates": [ 26.7156765, 58.3822867 ] } },
{ "type": "Feature", "properties": { "adr_id": "n13390917101", "street": "Riia", "housenumber": "2" }, "geometry": { "type": "Point", "coordinates": [ 26.7291894, 58.376881 ] } },
{ "type": "Feature", "properties": { "adr_id": "n13390917201", "street": "Riia", "housenumber": "2" }, "geometry": { "type": "Point", "coordinates": [ 26.7291423, 58.3768623 ] } },
{ "type": "Feature", "properties": { "adr_id": "n13463764436", "street": "Kalda tee", "housenumber": "32" }, "geometry": { "type": "Point", "coordinates": [ 26.7684955, 58.3700293 ] } },
{ "type": "Feature", "properties": { "adr_id": "n13463817159", "street": "Turu", "housenumber": "14" }, "geometry": { "type": "Point", "coordinates": [ 26.7362493, 58.3747275 ] } },
{ "type": "Feature", "properties": { "adr_id": "n13463817161", "street": "Turu", "housenumber": "14" }, "geometry": { "type": "Point", "coordinates": [ 26.7359201, 58.3744442 ] } },
{ "type": "Feature", "properties": { "adr_id": "n13463817162", "street": "Turu", "housenumber": "14" }, "geometry": { "type": "Point", "coordinates": [ 26.7361122, 58.3745277 ] } },
{ "type": "Feature", "properties": { "adr_id": "n13463817163", "street": "Turu", "housenumber": "14" }, "geometry": { "type": "Point", "coordinates": [ 26.7357271, 58.3745373 ] } },
{ "type": "Feature", "properties": { "adr_id": "n13463817165", "street": "Turu", "housenumber": "14" }, "geometry": { "type": "Point", "coordinates": [ 26.7358825, 58.3749413 ] } },
{ "type": "Feature", "properties": { "adr_id": "n13540095515", "street": "Fortuuna", "housenumber": "35" }, "geometry": { "type": "Point", "coordinates": [ 26.7361782, 58.3808573 ] } },
{ "type": "Feature", "properties": { "adr_id": "n13688946420", "street": "Küüni", "housenumber": "7" }, "geometry": { "type": "Point", "coordinates": [ 26.7250135, 58.3780118 ] } },
{ "type": "Feature", "properties": { "adr_id": "n13688946422", "street": "Turu", "housenumber": "2" }, "geometry": { "type": "Point", "coordinates": [ 26.7309714, 58.3783271 ] } },
{ "type": "Feature", "properties": { "adr_id": "n13701963502", "street": "Kastani", "housenumber": "42" }, "geometry": { "type": "Point", "coordinates": [ 26.7153479, 58.3707448 ] } },
{ "type": "Feature", "properties": { "adr_id": "n13702181379", "street": "Anne", "housenumber": "53a" }, "geometry": { "type": "Point", "coordinates": [ 26.7559532, 58.376776 ] } },
{ "type": "Feature", "properties": { "adr_id": "n13702181380", "street": "Kastani", "housenumber": "183a" }, "geometry": { "type": "Point", "coordinates": [ 26.7201544, 58.3662292 ] } },
{ "type": "Feature", "properties": { "adr_id": "n13742569101", "street": "Rebase", "housenumber": "12a" }, "geometry": { "type": "Point", "coordinates": [ 26.7404941, 58.3686007 ] } },
{ "type": "Feature", "properties": { "adr_id": "n13807905611", "street": "Promenaadi", "housenumber": "5" }, "geometry": { "type": "Point", "coordinates": [ 26.7241424, 58.3782212 ] } },
{ "type": "Feature", "properties": { "adr_id": "n13893869017", "street": "Vaksali", "housenumber": "6" }, "geometry": { "type": "Point", "coordinates": [ 26.7066108, 58.373779 ] } },
{ "type": "Feature", "properties": { "adr_id": "n13894385727", "street": "Turu", "housenumber": "2" }, "geometry": { "type": "Point", "coordinates": [ 26.7319813, 58.3785152 ] } },
{ "type": "Feature", "properties": { "adr_id": "n14051426401", "street": "Kalda tee", "housenumber": "39" }, "geometry": { "type": "Point", "coordinates": [ 26.7638194, 58.3703153 ] } },
{ "type": "Feature", "properties": { "adr_id": "n14085333780", "street": "Raekoja plats", "housenumber": "12" }, "geometry": { "type": "Point", "coordinates": [ 26.7233714, 58.3805496 ] } },
{ "type": "Feature", "properties": { "adr_id": "n14122396220", "street": "Riia", "housenumber": "11" }, "geometry": { "type": "Point", "coordinates": [ 26.7223181, 58.374459 ] } },
{ "type": "Feature", "properties": { "adr_id": "n14122396221", "street": "Riia", "housenumber": "11" }, "geometry": { "type": "Point", "coordinates": [ 26.7220949, 58.3745731 ] } }
]
}
