{
"type": "FeatureCollection",
"name": "boundary",
"crs": { "type": "name", "properties": { "name": "urn:ogc:def:crs:EPSG::3301" } },
"xy_coordinate_resolution": 0.01,
"features": [
{ "type": "Feature", "properties": { "boundary_id": "0784", "name": "Tallinn" }, "geometry": { "type": "MultiPolygon", "coordinates": [ [ [ [ 542644.29, 6590573.54 ], [ 542642.29, 6590586.03 ], [ 542680.64, 6590588.84 ], [ 542715.94, 6590555.55 ], [ 542644.29, 6590573.54 ] ] ], [ [ [ 541679.76, 6590999.82 ], [ 541684.71, 6590984.35 ], [ 541675.53, 6590988.13 ], [ 541679.76, 6590999.82 ] ] ], [ [ [ 541638.04, 6591064.59 ], [ 541697.08, 6591013.07 ], [ 541693.02, 6591003.13 ], [ 541682.75, 6591007.53 ], [ 541638.04, 6591064.59 ] ] ], [ [ [ 537328.06, 6591074.04 ], [ 537405.14, 6590987.59 ], [ 537321.61, 6591066.9 ], [ 537328.06, 6591074.04 ] ] ], [ [ [ 541701.5, 6591106.06 ], [ 541573.76, 6591137.22 ], [ 541566.14, 6591143.78 ], [ 541626.59, 6591134.3 ], [ 541701.5, 6591106.06 ] ] ], [ [ [ 541276.66, 6591246.69 ], [ 541429.92, 6591161.44 ], [ 541427.67, 6591156.39 ], [ 541276.66, 6591246.69 ] ] ], [ [ [ 541096.48, 6591360.29 ], [ 541232.98, 6591284.94 ], [ 541230.92, 6591279.91 ], [ 541096.48, 6591360.29 ] ] ], [ [ [ 533133.98, 6591648.95 ], [ 533098.98, 6591709.95 ], [ 533099.92, 6591751.04 ], [ 533136.51, 6591726.8 ], [ 533133.98, 6591648.95 ] ] ], [ [ [ 532435.39, 6592020.43 ], [ 532649.15, 6591882.76 ], [ 532688.95, 6591806.21 ], [ 532435.39, 6592020.43 ] ] ], [ [ [ 546653.57, 6592692.27 ], [ 546617.73, 6592712.48 ], [ 546576.22, 6592748.44 ], [ 546653.57, 6592692.27 ] ] ], [ [ [ 544014.47, 6606262.09 ], [ 544252.49, 6606182.61 ], [ 544128.56, 6606071.81 ], [ 544246.33, 6606022.37 ], [ 544258.01, 6605880.01 ], [ 544435.51, 6605665.5 ], [ 544332.29, 6605409.82 ], [ 543953.32, 6605191.69 ], [ 543836.16, 6604937.37 ], [ 543130.07, 6604198.17 ], [ 542814.55, 6604118.22 ], [ 542838.0, 6603971.19 ], [ 542565.2, 6604178.8 ], [ 542230.21, 6604192.94 ], [ 541958.59, 6604736.39 ], [ 541715.78, 6604930.87 ], [ 541816.31, 6605545.87 ], [ 542435.96, 6605679.88 ], [ 542685.86, 6605964.57 ], [ 542888.53, 6605908.35 ], [ 543129.31, 6606100.57 ], [ 543203.26, 6605951.05 ], [ 543344.1, 6605884.8 ], [ 543366.03, 6605740.97 ], [ 543587.96, 6605636.09 ], [ 543668.92, 6605448.55 ], [ 543857.84, 6605439.66 ], [ 544094.8, 6605769.44 ], [ 544014.47, 6606262.09 ] ] ], [ [ [ 531230.29, 6589119.86 ], [ 531606.08, 6589211.67 ], [ 531906.49, 6589442.22 ], [ 532019.09, 6589402.15 ], [ 532363.23, 6589932.8 ], [ 532457.16, 6590026.95 ], [ 532500.55, 6589967.88 ], [ 532659.49, 6590640.14 ], [ 532502.96, 6590894.5 ], [ 532306.33, 6591599.85 ], [ 532564.66, 6591712.86 ], [ 532705.27, 6591512.13 ], [ 533261.69, 6591326.08 ], [ 533307.87, 6591097.35 ], [ 533737.66, 6590654.45 ], [ 534053.91, 6590539.84 ], [ 534238.51, 6590775.65 ], [ 534501.04, 6590591.1 ], [ 534240.05, 6590755.83 ], [ 534126.13, 6590615.18 ], [ 534283.26, 6590491.95 ], [ 534451.77, 6590532.26 ], [ 534363.23, 6590330.92 ], [ 534484.65, 6590210.33 ], [ 534929.23, 6590043.36 ], [ 535970.53, 6589134.46 ], [ 536288.29, 6589014.72 ], [ 536741.31, 6588704.56 ], [ 537120.3, 6588175.67 ], [ 537451.71, 6588210.2 ], [ 537705.19, 6588075.71 ], [ 537681.53, 6588278.16 ], [ 538206.82, 6588505.76 ], [ 538325.61, 6588696.8 ], [ 538490.88, 6588680.45 ], [ 538441.99, 6588816.39 ], [ 538630.19, 6589061.89 ], [ 538826.17, 6589786.42 ], [ 538766.21, 6590336.18 ], [ 538572.16, 6590480.27 ], [ 538213.9, 6590451.86 ], [ 538218.06, 6590545.34 ], [ 538152.26, 6590511.21 ], [ 537999.9, 6590667.58 ], [ 537983.13, 6590435.4 ], [ 537902.48, 6590713.09 ], [ 537964.34, 6590824.16 ], [ 537747.01, 6591077.17 ], [ 537527.33, 6590898.91 ], [ 537606.33, 6590732.93 ], [ 537548.33, 6590770.49 ], [ 537446.86, 6590944.29 ], [ 537502.01, 6590901.86 ], [ 537704.79, 6591083.58 ], [ 537684.2, 6591181.73 ], [ 537608.97, 6591286.79 ], [ 537434.53, 6591160.96 ], [ 537600.69, 6591304.52 ], [ 537529.5, 6591407.85 ], [ 537000.34, 6591729.08 ], [ 536876.16, 6591524.57 ], [ 537231.88, 6591169.52 ], [ 536850.1, 6591503.43 ], [ 536975.17, 6591759.57 ], [ 536825.98, 6591848.49 ], [ 536950.32, 6592053.63 ], [ 536724.02, 6592211.7 ], [ 536708.44, 6591710.37 ], [ 536618.75, 6592581.42 ], [ 536716.79, 6592650.88 ], [ 536992.74, 6592368.7 ], [ 537500.1, 6592310.2 ], [ 537540.9, 6592130.49 ], [ 537933.38, 6591884.85 ], [ 538837.73, 6592038.05 ], [ 539148.22, 6592176.03 ], [ 539257.18, 6592571.24 ], [ 539472.87, 6592734.33 ], [ 539518.28, 6593020.18 ], [ 539433.72, 6593058.92 ], [ 539529.05, 6593130.14 ], [ 539494.61, 6593226.1 ], [ 539072.0, 6593353.43 ], [ 538881.93, 6593726.12 ], [ 538819.67, 6594057.88 ], [ 538890.15, 6594287.56 ], [ 539033.97, 6594419.31 ], [ 539313.22, 6593909.21 ], [ 539716.86, 6593953.87 ], [ 539875.8, 6593761.15 ], [ 540052.66, 6593958.91 ], [ 540051.6, 6594440.41 ], [ 540113.72, 6594449.86 ], [ 540231.15, 6594052.34 ], [ 540358.33, 6593892.85 ], [ 540410.18, 6593528.28 ], [ 540817.14, 6593353.34 ], [ 541046.29, 6593121.86 ], [ 541308.9, 6593043.07 ], [ 541009.13, 6593021.78 ], [ 540800.9, 6592694.12 ], [ 540615.84, 6592032.55 ], [ 540101.0, 6591436.21 ], [ 539877.3, 6591502.44 ], [ 539980.89, 6591369.08 ], [ 539700.3, 6591113.42 ], [ 539732.49, 6591054.32 ], [ 539992.55, 6591147.12 ], [ 540072.26, 6591305.76 ], [ 540597.86, 6591463.23 ], [ 540651.68, 6591346.99 ], [ 540757.48, 6591458.57 ], [ 540682.91, 6591340.2 ], [ 540787.44, 6591273.49 ], [ 540906.08, 6591459.51 ], [ 540761.34, 6591591.2 ], [ 541052.2, 6591402.88 ], [ 540947.87, 6591461.39 ], [ 540790.27, 6591217.76 ], [ 540882.63, 6590854.79 ], [ 541157.3, 6590680.12 ], [ 541210.19, 6590759.68 ], [ 541268.72, 6590721.97 ], [ 541414.64, 6590999.69 ], [ 541301.6, 6590770.79 ], [ 541397.49, 6590711.51 ], [ 541541.02, 6590903.43 ], [ 541688.18, 6590807.05 ], [ 541943.7, 6590807.2 ], [ 541949.84, 6590989.19 ], [ 541793.22, 6591042.93 ], [ 541894.55, 6591055.9 ], [ 541977.38, 6590973.12 ], [ 541962.7, 6590715.33 ], [ 542258.8, 6590327.54 ], [ 542551.87, 6590248.45 ], [ 542585.64, 6590175.51 ], [ 542403.25, 6590057.89 ], [ 542453.03, 6590006.2 ], [ 542690.83, 6590199.36 ], [ 542699.2, 6590334.0 ], [ 542819.27, 6590243.15 ], [ 543012.48, 6590440.29 ], [ 543103.06, 6590400.83 ], [ 543153.74, 6590187.86 ], [ 543313.89, 6590272.29 ], [ 543262.57, 6590571.5 ], [ 543320.73, 6590279.07 ], [ 543477.24, 6590374.87 ], [ 543433.48, 6590673.78 ], [ 543496.36, 6590383.41 ], [ 543757.05, 6590472.45 ], [ 543977.96, 6590447.63 ], [ 543969.33, 6590385.66 ], [ 543788.84, 6590418.79 ], [ 543250.2, 6589986.31 ], [ 543280.08, 6589904.2 ], [ 543531.73, 6589974.31 ], [ 543003.08, 6589679.55 ], [ 543034.73, 6589521.28 ], [ 543163.35, 6589595.61 ], [ 543127.33, 6589687.7 ], [ 543539.01, 6589836.51 ], [ 543743.89, 6590040.7 ], [ 543671.95, 6589826.64 ], [ 543760.17, 6589780.27 ], [ 544030.47, 6590084.17 ], [ 544366.47, 6589839.27 ], [ 544838.81, 6589771.92 ], [ 545247.95, 6590037.69 ], [ 545667.13, 6590541.58 ], [ 546028.75, 6591460.32 ], [ 546533.01, 6592151.47 ], [ 546533.17, 6592393.23 ], [ 546311.64, 6592570.93 ], [ 546342.47, 6592766.89 ], [ 546317.42, 6592577.63 ], [ 546555.69, 6592386.5 ], [ 546650.53, 6592416.44 ], [ 546664.96, 6592506.63 ], [ 546576.66, 6592474.18 ], [ 546579.66, 6592575.21 ], [ 546526.38, 6592514.19 ], [ 546576.97, 6592577.34 ], [ 546514.22, 6592626.99 ], [ 546459.98, 6592574.06 ], [ 546571.53, 6592703.7 ], [ 546523.73, 6592638.8 ], [ 546586.5, 6592588.98 ], [ 546636.77, 6592651.22 ], [ 546589.55, 6592586.53 ], [ 546675.35, 6592562.65 ], [ 546769.44, 6592713.03 ], [ 546576.6, 6592862.79 ], [ 546382.19, 6592817.69 ], [ 546575.55, 6592872.15 ], [ 546864.35, 6592685.15 ], [ 547280.48, 6593468.36 ], [ 547471.12, 6594617.37 ], [ 547368.93, 6594890.77 ], [ 547034.04, 6595152.38 ], [ 546848.6, 6595071.67 ], [ 546938.02, 6595184.08 ], [ 546763.95, 6595539.26 ], [ 546839.34, 6595544.62 ], [ 546968.78, 6595898.27 ], [ 548527.95, 6595465.55 ], [ 549685.14, 6595374.97 ], [ 550344.32, 6595126.92 ], [ 550381.73, 6594806.29 ], [ 550308.91, 6594500.28 ], [ 550559.62, 6594245.68 ], [ 550679.96, 6594283.89 ], [ 551306.64, 6593515.43 ], [ 551484.21, 6593558.19 ], [ 551863.44, 6593143.41 ], [ 551886.81, 6592817.61 ], [ 551517.75, 6592730.19 ], [ 551467.68, 6592582.42 ], [ 551286.48, 6592512.68 ], [ 551253.93, 6592082.58 ], [ 551354.13, 6591577.27 ], [ 551291.36, 6591401.19 ], [ 551565.68, 6591349.68 ], [ 551552.1, 6591119.71 ], [ 551698.09, 6590955.05 ], [ 551622.39, 6590721.72 ], [ 551718.9, 6590466.52 ], [ 551684.27, 6590252.4 ], [ 551893.04, 6590132.22 ], [ 552030.98, 6589823.88 ], [ 552046.95, 6589433.08 ], [ 552320.21, 6589389.32 ], [ 552564.13, 6588992.09 ], [ 552323.25, 6588618.2 ], [ 551334.57, 6588231.29 ], [ 550430.47, 6588014.41 ], [ 549382.47, 6587519.12 ], [ 549321.91, 6587377.99 ], [ 549377.73, 6587043.91 ], [ 549437.22, 6587037.73 ], [ 549416.56, 6586190.69 ], [ 547691.15, 6586100.48 ], [ 546837.08, 6586298.17 ], [ 546267.41, 6585829.89 ], [ 546348.65, 6585750.64 ], [ 546216.1, 6585214.79 ], [ 546001.39, 6585483.82 ], [ 545976.98, 6585436.2 ], [ 545787.7, 6585815.78 ], [ 545193.84, 6585783.66 ], [ 544852.74, 6585163.72 ], [ 545025.02, 6584724.74 ], [ 545021.22, 6584396.38 ], [ 545213.46, 6584170.71 ], [ 544978.25, 6583943.92 ], [ 544725.31, 6583213.06 ], [ 544771.8, 6583014.22 ], [ 544422.75, 6582686.03 ], [ 544402.26, 6582338.62 ], [ 543870.47, 6582043.16 ], [ 543724.31, 6582291.76 ], [ 543317.89, 6582219.62 ], [ 543235.61, 6582125.9 ], [ 543382.81, 6581328.27 ], [ 543994.88, 6580481.66 ], [ 540648.35, 6580197.08 ], [ 540893.58, 6580885.4 ], [ 540628.14, 6580894.74 ], [ 540607.97, 6580801.22 ], [ 540233.27, 6580975.49 ], [ 539942.15, 6580664.21 ], [ 539590.48, 6580007.26 ], [ 538190.9, 6580952.28 ], [ 537504.57, 6580700.36 ], [ 537273.33, 6580222.35 ], [ 536919.96, 6579834.2 ], [ 536687.3, 6579863.0 ], [ 536506.99, 6579703.87 ], [ 536302.37, 6579671.05 ], [ 536076.54, 6579711.82 ], [ 536086.34, 6579644.79 ], [ 535984.99, 6579589.9 ], [ 535935.43, 6579639.93 ], [ 535777.12, 6579472.3 ], [ 535136.93, 6579679.21 ], [ 535029.24, 6579659.61 ], [ 534982.79, 6579537.59 ], [ 534874.53, 6579544.53 ], [ 534794.06, 6579736.57 ], [ 534955.1, 6579755.13 ], [ 534918.05, 6579902.7 ], [ 534746.63, 6579934.4 ], [ 535433.22, 6583288.52 ], [ 535632.73, 6583319.63 ], [ 533754.16, 6584333.3 ], [ 534356.66, 6584787.56 ], [ 535168.73, 6585642.64 ], [ 534505.09, 6586230.14 ], [ 534322.66, 6586716.89 ], [ 534498.48, 6587637.43 ], [ 534659.6, 6587663.71 ], [ 534612.67, 6587882.56 ], [ 534262.18, 6588315.64 ], [ 533796.8, 6588442.94 ], [ 532779.7, 6588931.83 ], [ 532445.47, 6588952.47 ], [ 532060.85, 6588695.04 ], [ 531915.39, 6588454.1 ], [ 531230.29, 6589119.86 ] ] ] ] } }
]
}
